 2017  1 6 2248 45.5 L  19.943 -71.786  0.0  DOM  3 0.5 1.5LDOM 2.7CDOM 1.9WDOM1
 SPEC AVERAGE  MO 11.9 ST  7.4 OM  2.2 f0 13.3 R0.0988 AL 0.00 WI 20.0 MW  1.9 3
 SPEC SD       MO  0.1 ST  5.5 OM  1.0 f0 3.78 R0.0351 AL      WI      MW  0.1 3
 GAP=300        1.18      10.2     7.3999.9 -0.2799E+02  0.1390E+03 -0.7215E+04E
 SPEC SDDRBH Z MO 11.8 ST0.827 OM  0.8 f0 7.98 R0.1484 AL-0.00 WI 20.0 MW  1.8 3
 SPEC SDDRBH Z T224917 K 0.020 GD  109 VS 3.20 DE 2.60 Q0400.0 QA 0.70 Q1 1.00 3
 SPEC MCDRBH Z MO 12.1 ST 14.2 OM  2.0 f0 16.0 R0.0740 AL-0.00 WI 20.0 MW  2.0 3
 SPEC MCDRBH Z T224848 K 0.020 GD 14.7 VS 3.20 DE 2.60 Q0400.0 QA 0.70 Q1 1.00 3
 SPEC REDRBH Z MO 11.8 ST  7.2 OM  1.0 f0 16.0 R0.0740 AL-0.00 WI 20.0 MW  1.8 3
 SPEC REDRBH Z T2249 4 K 0.020 GD 74.3 VS 3.20 DE 2.60 Q0400.0 QA 0.70 Q1 1.00 3
 2017-01-06-2248-00S.MAN___095                                                 6
 ACTION:UP  18-03-02 17:06 OP:JMLC STATUS:               ID:20170106224845 L   I
 OLDACT:ARG 17-01-06 23:05 OP:jmlc STATUS:               ID:20170106224800     3
 STAT SP IPHASW D HRMM SECON CODA AMPLIT PERI AZIMU VELO AIN AR TRES W  DIS CAZ7
 MCDR BZ EPg      2248 47.35   31                         90   -0.5310 14.7 113 
 MCDR BN ESg      2248 49.82                              90    0.1910 14.7 113 
 MCDR BZ  IAML    2248 49.97       132.1 0.15                          14.7 113 
 REDR BZ EPg      2248 57.22   38                         91   -0.2810 74.3 173 
 REDR BN ESg      2249  6.30                              91   -0.0710 74.3 173 
 REDR BZ  IAML    2249  7.53        17.0 0.20                          74.3 173 
 SDDR BZ EPg      2249  5.55   34                         90    0.9010  119 154 
 SDDR BN ESg      2249 18.61                              90   -0.2110  119 154 
 SDDR BZ  IAML    2249 35.04        16.9 1.85                           119 154 
                                                                                
 2017  1 7 0857 52.1 L  18.994 -67.684 12.1  DOM  3 0.5 3.3LDOM 3.6CDOM 3.1WDOM1
 SPEC AVERAGE  MO 13.7 ST151.2 OM  5.2 f0 12.4 R0.1113 AL 0.00 WI 20.0 MW  3.1 3
 SPEC SD       MO  0.0 ST0.000 OM  3.0 f00.000 R0.0000 AL      WI      MW  0.0 3
 GAP=201        1.31      21.4     7.5999.9  0.1440E+03  0.1188E+05 -0.1650E+05E
 SPEC NADRBH Z MO 13.7 ST151.2 OM  2.2 f0 12.4 R0.1113 AL-0.00 WI 20.0 MW  3.1 3
 SPEC NADRBH Z T 85853 K 0.020 GD  194 VS 3.73 DE 2.83 Q0400.0 QA 0.70 Q1 1.00 3
 2017-01-07-0856-00S.MAN___095                                                 6
 OLDACT:ARG 17-01-07 21:39 OP:jmlc STATUS:               ID:20170107085600     3
 ACTION:UP  18-03-02 17:06 OP:JMLC STATUS:               ID:20170107085752 L   I
 OLDACT:UP  17-01-07 21:47 OP:JMLC STATUS:               ID:20170107085600     3
 OLDACT:UP  17-01-07 21:46 OP:JMLC STATUS:               ID:20170107085600     3
 STAT SP IPHASW D HRMM SECON CODA AMPLIT PERI AZIMU VELO AIN AR TRES W  DIS CAZ7
 SJG  BZ EPg    C  858 22.21   53                         90    0.7510  189 121 
 SJG  BN ESg       858 42.66                              90   -0.5210  189 121 
 NADR BZ EPg       858 27.18   96                         90   -0.7410  232 280 
 NADR BN ESg       858 54.62                              90    0.2110  232 280 
 NADR BZ  IAML     859  0.67       252.6 0.55                           232 280 
 ABDR BZ EPg       858 40.39   76                         90    0.3910  311 267 
 ABDR BN ESg       859 15.35                              90   -0.0910  311 267 
 ABDR BZ  IAML     859 21.35        72.4 0.60                           311 267 
                                                                                
 2017  130 2300 17.7 L  18.167 -66.967 24.4  DOM  3 0.1 2.1LDOM 3.3CDOM        1
 GAP=168        0.35       1.4     1.6  4.6 -0.9066E+00  0.9592E+00 -0.3356E+01E
 ACTION:UP  18-03-02 17:06 OP:JMLC STATUS:               ID:20170130230017 L   I
 OLDACT:ARG 17-01-31 01:33 OP:plst STATUS:               ID:20170130225900     3
 2017-01-30-2259-00S.MAN___100                                                 6
 STAT SP IPHASW D HRMM SECON CODA AMPLIT PERI AZIMU VELO AIN AR TRES W  DIS CAZ7
 CRPR BZ EPg      23 0 22.73   68                        132   -0.1110 22.0 216 
 CRPR BN ESg      23 0 26.69                             132    0.0610 22.0 216 
 CRPR BN  IAML    23 0 26.82       214.4 0.25                          22.0 216 
 AOPR BZ EPg      23 0 23.77   76                        122   -0.0110 30.0  48 
 AOPR BN ESg      23 0 28.26                             122    0.0010 30.0  48 
 AOPR BN  IAML    23 0 28.42       323.1 0.20                          30.0  48 
 AGPR BZ EPg      23 0 24.72   56                        114    0.1210 36.8 336 
 AGPR BN ESg      23 0 29.62                             114   -0.0710 36.8 336 
 AGPR BN  IAML    23 0 30.39       141.4 0.25                          36.8 336 
                                                                                
 2017  1 1 0432 27.5 L  18.184 -65.547 11.8  DOM  4 0.4 2.7LDOM 3.6CDOM 2.8WDOM1
 SPEC AVERAGE  MO 13.3 ST  1.9 OM  3.7 f0 3.26 R0.4325 AL 0.00 WI 20.0 MW  2.8 3
 SPEC SD       MO  0.3 ST  1.5 OM  1.7 f00.545 R0.0722 AL      WI      MW  0.2 3
 GAP=342        0.95      12.0     7.3 35.1  0.2803E+02 -0.1437E+03 -0.2174E+03E
 SPEC AOPRBH Z MO 13.6 ST  3.4 OM  2.3 f0 3.81 R0.3603 AL-0.00 WI 20.0 MW  3.0 3
 SPEC AOPRBH Z T 433 2 K 0.020 GD  120 VS 3.71 DE 2.82 Q0400.0 QA 0.70 Q1 1.00 3
 SPEC CRPRBH Z MO 13.0 ST0.374 OM  1.7 f0 2.72 R0.5047 AL-0.00 WI 20.0 MW  2.6 3
 SPEC CRPRBH Z T 43312 K 0.020 GD  144 VS 3.71 DE 2.82 Q0400.0 QA 0.70 Q1 1.00 3
 2017-01-01-0432-00S.MAN___096                                                 6
 OLDACT:ARG 17-01-01 10:39 OP:nr   STATUS:               ID:20170101043200     3
 ACTION:UP  18-03-02 17:06 OP:JMLC STATUS:               ID:20170101043227 L   I
 OLDACT:UP  17-09-04 15:02 OP:jmlc STATUS:               ID:20170101043227     3
 STAT SP IPHASW D HRMM SECON CODA AMPLIT PERI AZIMU VELO AIN AR TRES W  DIS CAZ7
 SJG  BZ EPg    C  432 38.17   96                        101    0.0610 64.3 263 
 SJG  BE ESg    D  432 46.40                             101    0.4810 64.3 263 
 AOPR BZ EPg    D  432 48.65   73                         95    0.2210  129 278 
 AOPR BE ESg    C  433  3.53                              95   -0.3510  129 278 
 AOPR BZ  IAML     433  5.71       147.5 0.35                           129 278 
 AOPR BE  IAML     433 11.67       551.5 0.35                           129 278 
 CRPR BZ EPg    D  432 53.77   83                         94   -0.3610  164 263 
 CRPR BE ESg    D  433 13.70                              94   -0.1110  164 263 
 CRPR BE  IAML     433 17.66        84.6 1.50                           164 263 
 CRPR BZ  IAML     433 19.82        54.9 0.50                           164 263 
 AGPR BZ EPg    D  432 55.26   69                         94    0.5110  168 281 
 AGPR BE ESg    C  433 14.42                              94   -0.4610  168 281 
 AGPR BE  IAML     433 20.74        83.5 0.50                           168 281 
 AGPR BZ  IAML     433 34.54        87.1 1.60                           168 281 
                                                                                
 2017  115 0422 18.6 L  19.442 -68.819  0.2  DOM  4 0.4 2.3LDOM 2.9CDOM        1
 GAP=246        0.94       9.1     7.2999.9  0.6033E+02 -0.1738E+05 -0.2147E+05E
 ACTION:UP  18-03-02 17:06 OP:JMLC STATUS:               ID:20170115042218 L   I
 OLDACT:UP  17-01-15 11:19 OP:FMGP STATUS:               ID:20170115042000     3
 OLDACT:ARG 17-01-15 11:01 OP:nr   STATUS:               ID:20170115042000     3
 2017-01-15-0420-00S.MAN___100                                                 6
 STAT SP IPHASW D HRMM SECON CODA AMPLIT PERI AZIMU VELO AIN AR TRES W  DIS CAZ7
 SMDR BZ EPg    C  422 24.73   35                         90   -0.7210 42.3 247 
 SMDR BE ESg    C  422 30.63                              90    0.1310 42.3 247 
 SMDR BE  IAML     422 31.12       110.7 0.20                          42.3 247 
 SMDR BN  IAML     422 37.22        92.0 0.55                          42.3 247 
 MIDR BZ EPg    D  422 27.50   46                         90   -0.2110 56.3 206 
 MIDR BE ESg    C  422 34.46                              90    0.0310 56.3 206 
 MIDR BN  IAML     422 34.67       197.4 0.55                          56.3 206 
 MIDR BE  IAML     422 34.96       118.1 0.30                          56.3 206 
 PCDR HZ EPg    C  422 37.26   45                         90    0.4710  113 156 
 PCDR HE ESg    C  422 50.18                              90   -0.0610  113 156 
 PCDR HN  IAML     422 51.94       279.5 2.14                           113 156 
 PCDR HE  IAML     422 54.32       149.2 1.82                           113 156 
 SC01 BZ EPg    D  422 50.89   49                         90   -0.0710  200 270 
 SC01 BE ESg    C  423 15.30                              90    0.4210  200 270 
 SC01 BN  IAML     423 15.58        47.1 1.40                           200 270 
 SC01 BE  IAML     423 18.35        60.8 2.35                           200 270 
                                                                                
 2017  124 1052 49.4 L  18.854 -72.675 20.1  DOM  4 0.7 2.3LDOM 3.1CDOM        1
 GAP=312        1.80      19.3    12.3 60.5 -0.3164E+02  0.7303E+02 -0.9781E+03E
 ACTION:UP  18-03-02 17:06 OP:JMLC STATUS:               ID:20170124105249 L   I
 OLDACT:ARG 17-01-24 11:03 OP:nr   STATUS:               ID:20170124105200     3
 2017-01-24-1052-00S.MAN___100                                                 6
 STAT SP IPHASW D HRMM SECON CODA AMPLIT PERI AZIMU VELO AIN AR TRES W  DIS CAZ7
 PAPH BZ EPg    C 1052 58.12   41                        106   -0.3310 54.0 133 
 PAPH BE ESg    C 1053  5.65                             106    0.5010 54.0 133 
 PAPH BE  IAML    1053  6.35       792.7 0.12                          54.0 133 
 PAPH BN  IAML    1053  6.49       465.1 0.16                          54.0 133 
 JIDR BZ EPg    C 1053  4.83   50                         97    0.2310 95.4 115 
 JIDR BE ESg    C 1053 14.34                              97   -1.5010 95.4 115 
 JIDR BN  IAML    1053 17.62        79.4 0.20                          95.4 115 
 JIDR BE  IAML    1053 17.70       106.3 0.20                          95.4 115 
 NEDR BZ EPg    C 1053 10.71   52                         95    0.3310  134 108 
 NEDR BE ESg    C 1053 26.89                              95    0.9810  134 108 
 NEDR BN  IAML    1053 29.34        43.3 0.55                           134 108 
 NEDR BE  IAML    1053 33.27        47.8 0.70                           134 108 
 SDDR BZ EPg    C 1053 12.08   54                         94   -0.2610  147  84 
 SDDR BE ESg    C 1053 29.38                              94    0.0610  147  84 
 SDDR BN  IAML    1053 31.69        23.5 0.40                           147  84 
 SDDR BE  IAML    1053 32.72        26.2 2.45                           147  84 
                                                                                
 2017  127 1010  2.6 L  19.124 -66.120 21.6  DOM  4 0.2 2.9LDOM 3.5CDOM 3.2WDOM1
 SPEC AVERAGE  MO 13.9 ST 13.9 OM  3.6 f0 5.57 R0.3043 AL 0.00 WI 20.0 MW  3.2 3
 SPEC SD       MO  0.2 ST  6.8 OM  1.3 f0 1.01 R0.0560 AL      WI      MW  0.1 3
 GAP=306        0.49       5.7     2.9 50.1  0.6996E+01 -0.5802E+02 -0.2348E+03E
 SPEC AOPRBH Z MO 14.1 ST 22.9 OM  2.6 f0 5.54 R0.2959 AL-0.00 WI 20.0 MW  3.4 3
 SPEC AOPRBH Z T101031 K 0.020 GD  111 VS 4.43 DE 3.34 Q0400.0 QA 0.70 Q1 1.00 3
 SPEC AGPRBH Z MO 13.6 ST 12.4 OM  2.0 f0 6.82 R0.2403 AL-0.00 WI 20.0 MW  3.0 3
 SPEC AGPRBH Z T101035 K 0.020 GD  128 VS 4.43 DE 3.34 Q0400.0 QA 0.70 Q1 1.00 3
 SPEC CRPRBH Z MO 13.9 ST  6.4 OM  2.2 f0 4.35 R0.3768 AL-0.00 WI 20.0 MW  3.2 3
 SPEC CRPRBH Z T101044 K 0.020 GD  162 VS 4.43 DE 3.34 Q0400.0 QA 0.70 Q1 1.00 3
 2017-01-27-1009-00S.MAN___100                                                 6
 OLDACT:UP  17-01-27 12:27 OP:FME  STATUS:               ID:20170127100900     3
 OLDACT:ARG 17-01-27 10:20 OP:amrz STATUS:               ID:20170127100900     3
 ACTION:UP  18-03-02 17:06 OP:JMLC STATUS:               ID:20170127101002 L   I
 OLDACT:UP  17-01-27 12:33 OP:FME  STATUS:               ID:20170127100900     3
 OLDACT:UP  17-01-27 12:31 OP:FME  STATUS:               ID:20170127100900     3
 STAT SP IPHASW D HRMM SECON CODA AMPLIT PERI AZIMU VELO AIN AR TRES W  DIS CAZ7
 AOPR BZ EPg    C 1010 20.07   65                         97    0.1410  109 218 
 AOPR BN ESg    C 1010 32.87                              97    0.1510  109 218 
 AOPR BZ  IAML    1010 34.52       862.8 0.30                           109 218 
 SJG  BZ EPg      1010 20.17   75                         97   -0.2410  112 182 
 SJG  BN ESg      1010 33.62                              97    0.0710  112 182 
 AGPR BZ EPg    D 1010 22.61   74                         96   -0.0210  127 235 
 AGPR BE ESg    C 1010 37.34                              96   -0.0810  127 235 
 AGPR BZ  IAML    1010 43.66        90.3 0.50                           127 235 
 CRPR BZ EPg    C 1010 27.89   88                         94    0.2110  161 220 
 CRPR BN ESg    C 1010 45.97                              94   -0.2410  161 220 
 CRPR BZ  IAML    1010 54.35       132.5 0.65                           161 220 
                                                                                
 2017  129 0055 29.4 L  19.098 -67.964 95.7  DOM  4 0.5 2.3LDOM 3.3CDOM 2.7WDOM1
 SPEC AVERAGE  MO 13.2 ST  3.0 OM  2.8 f0 5.28 R0.3045 AL 0.00 WI 20.0 MW  2.7 3
 SPEC SD       MO  0.3 ST  1.4 OM  1.2 f00.589 R0.0349 AL      WI      MW  0.2 3
 GAP=208        1.24      26.1    15.4 37.9  0.3607E+03 -0.5108E+03 -0.8850E+03E
 SPEC PCDRBH Z MO 13.6 ST  4.2 OM  2.1 f0 4.53 R0.3504 AL-0.00 WI 20.0 MW  3.0 3
 SPEC PCDRBH Z T 05556 K 0.020 GD  123 VS 4.29 DE 3.23 Q0400.0 QA 0.70 Q1 1.00 3
 SPEC MIDRBH Z MO 12.8 ST  1.1 OM  1.2 f0 5.34 R0.2972 AL-0.00 WI 20.0 MW  2.5 3
 SPEC MIDRBH Z T 056 1 K 0.020 GD  149 VS 4.29 DE 3.23 Q0400.0 QA 0.70 Q1 1.00 3
 SPEC AGPRBH Z MO 13.2 ST  3.7 OM  1.6 f0 5.97 R0.2659 AL-0.00 WI 20.0 MW  2.7 3
 SPEC AGPRBH Z T 056 1 K 0.020 GD  148 VS 4.29 DE 3.23 Q0400.0 QA 0.70 Q1 1.00 3
 SPEC AOPRBH Z MO 13.2 ST  3.3 OM  1.6 f0 5.54 R0.2865 AL-0.00 WI 20.0 MW  2.8 3
 SPEC AOPRBH Z T 05618 K 0.020 GD  165 VS 4.29 DE 3.23 Q0400.0 QA 0.70 Q1 1.00 3
 2017-01-29-0054-00S.MAN___100                                                 6
 OLDACT:UP  17-01-29 21:39 OP:FME  STATUS:               ID:20170129005400     3
 OLDACT:UP  17-01-29 21:37 OP:FME  STATUS:               ID:20170129005400     3
 OLDACT:UP  17-01-29 21:34 OP:FME  STATUS:               ID:20170129005400     3
 OLDACT:UP  17-01-29 21:31 OP:FME  STATUS:               ID:20170129005400     3
 OLDACT:ARG 17-01-29 21:25 OP:jrdn STATUS:               ID:20170129005400     3
 ACTION:UP  18-03-02 17:06 OP:JMLC STATUS:               ID:20170129005529 L   I
 OLDACT:UP  17-01-29 21:43 OP:FME  STATUS:               ID:20170129005400     3
 OLDACT:UP  17-01-29 21:43 OP:FME  STATUS:               ID:20170129005400     3
 STAT SP IPHASW D HRMM SECON CODA AMPLIT PERI AZIMU VELO AIN AR TRES W  DIS CAZ7
 PCDR BZ EPg    D  055 46.15   69                        136    0.5910 78.2 214 
 PCDR BN ESg       055 57.65                             136    0.1210 78.2 214 
 PCDR BZ  IAML     056  1.97       154.2 0.50                          78.2 214 
 PCDR BN  IAML     056  2.54       117.2 0.30                          78.2 214 
 AGPR BZ EPg       055 48.49   64                        124   -0.2810  114 128 
 AGPR BZ  IAML     056 25.08        87.9 1.25                           114 128 
 MIDR BZ EPg    C  055 48.63   50                        124   -0.2410  115 264 
 MIDR BE ESg       056  2.44                             124   -0.8610  115 264 
 MIDR BE  IAML     056  3.25        40.7 0.15                           115 264 
 MIDR BZ  IAML     056  3.62        34.0 0.40                           115 264 
 SMDR BZ EPg    D  055 50.50   51                        120    0.0810  130 280 
 SMDR BE ESg    C  056  6.58                             120    0.5910  130 280 
 SMDR BZ  IAML     056 17.90         8.4 0.35                           130 280 
                                                                                
 2017  1 1 0457 35.0 L  18.086 -70.797 19.6  DOM  5 0.4 2.0LDOM 3.2CDOM 2.3WDOM1
 SPEC AVERAGE  MO 12.5 ST  1.9 OM  2.8 f0 7.73 R0.2266 AL 0.00 WI 20.0 MW  2.3 3
 SPEC SD       MO  0.1 ST  1.3 OM  1.9 f0 2.57 R0.0753 AL      WI      MW  0.0 3
 GAP=308        1.11       6.0     8.2 25.0  0.2363E+01 -0.1265E+03 -0.5629E+02E
 SPEC SDDRBH Z MO 12.5 ST0.565 OM  1.1 f0 5.16 R0.3019 AL-0.00 WI 20.0 MW  2.3 3
 SPEC SDDRBH Z T 458 4 K 0.020 GD  113 VS 4.21 DE 3.16 Q0400.0 QA 0.70 Q1 1.00 3
 SPEC REDRBH Z MO 12.4 ST  3.3 OM  0.8 f0 10.3 R0.1512 AL-0.00 WI 20.0 MW  2.2 3
 SPEC REDRBH Z T 45817 K 0.020 GD  164 VS 4.21 DE 3.16 Q0400.0 QA 0.70 Q1 1.00 3
 2017-01-01-0457-00S.MAN___096                                                 6
 OLDACT:ARG 17-01-01 10:40 OP:nr   STATUS:               ID:20170101045700     3
 ACTION:UP  18-03-02 17:06 OP:JMLC STATUS:               ID:20170101045735 L   I
 OLDACT:UP  17-09-04 15:02 OP:jmlc STATUS:               ID:20170101045735     3
 STAT SP IPHASW D HRMM SECON CODA AMPLIT PERI AZIMU VELO AIN AR TRES W  DIS CAZ7
 PODR BZ EPg    C  457 43.68   49                        107   -0.2110 52.1 280 
 PODR BE ESg    C  457 50.71                             107    0.2710 52.1 280 
 PODR BE  IAML     457 53.19       197.4 0.25                          52.1 280 
 NEDR BZ EPg    C  457 48.38   51                         98   -0.0610 83.5 302 
 NEDR BE ESg    C  457 57.51                              98   -0.8510 83.5 302 
 NEDR BE  IAML     458  2.97        43.7 0.35                          83.5 302 
 NEDR BZ  IAML     458  3.68        35.8 1.50                          83.5 302 
 SDDR BZ EPg    C  457 52.63   55                         96   -0.1010  112 332 
 SDDR BE ESg    D  458  6.39                              96    0.5610  112 332 
 SDDR BE  IAML     458 18.54        15.3 0.70                           112 332 
 SDDR BZ  IAML     458 46.79        28.2 3.85                           112 332 
 JIDR BZ EPg    C  457 53.99   59                         95   -0.0210  121 292 
 JIDR BE ESg       458  8.64                              95    0.5910  121 292 
 JIDR BE  IAML     458 13.72        36.8 0.75                           121 292 
 REDR BZ EPg    C  458  0.66   66                         93    0.2310  163 324 
 REDR BE ESg    C  458 18.82                              93   -0.4010  163 324 
 REDR BE  IAML     458 21.28        46.1 0.25                           163 324 
 REDR BZ  IAML     458 35.92        19.5 3.45                           163 324 
                                                                                
