 2017  221 0053 30.2 L  18.653 -71.902 12.1  DOM  5 0.7 1.9LDOM 3.0CDOM        1
 GAP=170        1.87       7.1     4.0 20.2 -0.1939E+01 -0.1013E+02 -0.8287E+02E
 ACTION:UP  18-03-02 17:06 OP:JMLC STATUS:               ID:20170221005330 L   I
 OLDACT:UP  17-02-21 18:58 OP:AMMR STATUS:               ID:20170221005200     3
 OLDACT:UP  17-02-21 01:26 OP:AMMR STATUS:               ID:20170221005200     3
 OLDACT:ARG 17-02-21 01:03 OP:plst STATUS:               ID:20170221005200     3
 2017-02-21-0052-00S.MAN___100                                                 6
 STAT SP IPHASW D HRMM SECON CODA AMPLIT PERI AZIMU VELO AIN AR TRES W  DIS CAZ7
 JIDR BZ EPg       053 32.55   36                        123   -1.1610 18.4 164 
 JIDR BN ESg       053 36.13                             123   -0.2110 18.4 164 
 JIDR BE  IAML     053 36.42       589.8 0.65                          18.4 164 
 JIDR BN  IAML     053 36.74       489.3 0.10                          18.4 164 
 PAPH BZ EPg    D  053 37.22   34                        106   -0.3610 44.3 251 
 PAPH BN ESg       053 44.15                             106    1.0810 44.3 251 
 PAPH BN  IAML     053 44.88      1057.8 0.36                          44.3 251 
 PAPH BE  IAML     053 45.52       429.9 0.12                          44.3 251 
 NEDR BZ EPg       053 38.63                             104    0.2510 49.5 112 
 NEDR BN ESg    C  053 45.11                             104    0.6510 49.5 112 
 NEDR BN  IAML     053 50.99        56.8 0.40                          49.5 112 
 NEDR BE  IAML     053 52.24        47.0 0.25                          49.5 112 
 SDDR BZ EPg       053 41.39   59                        100   -0.8710 73.9  61 
 SDDR BN ESg    C  053 51.80                             100    0.5910 73.9  61 
 SDDR BE  IAML     053 56.19        16.8 0.60                          73.9  61 
 SDDR BN  IAML     053 56.59        17.3 0.60                          73.9  61 
 PODR BZ EPg    D  053 43.40   66                         99   -0.6210 84.8 129 
 PODR BN ESg    C  053 54.91                              99    0.6310 84.8 129 
 PODR BN  IAML     053 55.10        28.7 0.90                          84.8 129 
 PODR BE  IAML     053 56.19        61.6 0.90                          84.8 129 
                                                                                
 2017  221 0655 32.1 L  18.195 -68.878204.5  DOM 11 0.8 3.1LDOM 3.7CDOM        1
 GAP=184        2.18      19.7     7.3 21.0  0.3653E+02 -0.2111E+02  0.4780E+02E
 ACTION:UP  18-03-02 17:06 OP:JMLC STATUS:               ID:20170221065532 L   I
 OLDACT:UP  17-02-21 18:50 OP:AMMR STATUS:               ID:20170221065600     3
 OLDACT:UP  17-02-21 11:27 OP:AMMR STATUS:               ID:20170221065600     3
 OLDACT:UP  17-02-21 11:24 OP:AMMR STATUS:               ID:20170221065600     3
 OLDACT:UP  17-02-21 11:18 OP:AMMR STATUS:               ID:20170221065600     3
 OLDACT:UP  17-02-21 10:40 OP:AMMR STATUS:               ID:20170221065600     3
 OLDACT:ARG 17-02-21 10:34 OP:nr   STATUS:               ID:20170221065600     3
 2017-02-21-0656-00S.MAN___100                                                 6
 STAT SP IPHASW D HRMM SECON CODA AMPLIT PERI AZIMU VELO AIN AR TRES W  DIS CAZ7
 HIDR BN  IAML     656 15.80       181.9 0.25                          47.2  21 
 HIDR BE  IAML     656 17.44       312.1 0.25                          47.2  21 
 MIDR BZ EPg       656  1.12   63                        155    1.4110 89.1 348 
 MIDR BN  IAML     656 19.48       114.8 0.15                          89.1 348 
 MIDR BE  IAML     656 19.56       105.0 0.20                          89.1 348 
 SMDR BZ EPg    C  656  2.28   68                        147    0.5010  126 345 
 SMDR BN  IAML     656 23.01        39.6 0.20                           126 345 
 SMDR BE  IAML     656 29.21        53.9 0.35                           126 345 
 BADR BZ EPg       656  4.55   81                        141    0.3310  158 278 
 BADR BE ESg    C  656 27.26                             141   -0.7610  158 278 
 BADR BE  IAML     656 33.07       126.2 0.15                           158 278 
 BADR BN  IAML     656 34.34       116.9 0.20                           158 278 
 NADR BZ EPg    C  656  3.22   79                        139   -1.3310  165 321 
 NADR BN  IAML     656 27.81         3.6 0.25                           165 321 
 NADR BE  IAML     656 32.14       182.7 0.20                           165 321 
 ABDR BZ EPg    C  656  8.20   67                        134    0.6610  197 291 
 ABDR BN ESg    C  656 33.19                             134   -0.6110  197 291 
 ABDR BN  IAML     656 35.24        84.6 0.60                           197 291 
 ABDR BE  IAML     656 36.99       107.0 0.20                           197 291 
 AOPR BZ EPg    D  656  9.27   76                        130   -0.4210  225  85 
 AOPR BN ESg       656 37.43                             130   -0.1010  225  85 
 AOPR BE  IAML     656 42.46       249.9 0.25                           225  85 
 AOPR BN  IAML     656 43.22       155.7 0.30                           225  85 
 SC01 BZ EPg       656 10.91   71                        128    0.0910  238 305 
 SC01 BE ESg       656 39.98                             128    0.4710  238 305 
 SC01 BE  IAML     656 40.99       307.2 0.30                           238 305 
 SC01 BN  IAML     656 41.08       220.3 0.20                           238 305 
 PODR BZ EPg    D  656 13.39   79                        126    0.8510  254 270 
 PODR BE ESg    D  656 42.98                             126    0.4810  254 270 
 PODR BN  IAML     656 44.61        59.6 1.25                           254 270 
 PODR BE  IAML     656 47.28        50.6 0.25                           254 270 
 SDDR BZ EPg       656 12.07   84                        125   -1.7410  269 289 
 SDDR BE  IAML     656 50.91        48.8 0.60                           269 289 
 SDDR BN  IAML     656 51.89        44.8 0.30                           269 289 
 MADR BE ESg       656 46.50                             124    0.1810  279 303 
 MADR BE  IAML     656 50.34       168.7 0.60                           279 303 
                                                                                
 2017  222 0848 28.5 L  17.932 -69.852 24.4  DOM 11 0.7 2.5LDOM 3.4CDOM        1
 GAP=192        1.85       8.5     4.0 76.4 -0.7738E+01 -0.8553E+02  0.3787E+03E
 ACTION:UP  18-03-02 17:06 OP:JMLC STATUS:               ID:20170222084828 L   I
 OLDACT:UP  17-02-22 18:55 OP:AMMR STATUS:               ID:20170222084500     3
 OLDACT:ARG 17-02-22 18:31 OP:AMMR STATUS:               ID:20170222084500     3
 2017-02-22-0845-00S.MAN___100                                                 6
 STAT SP IPHASW D HRMM SECON CODA AMPLIT PERI AZIMU VELO AIN AR TRES W  DIS CAZ7
 SDD  BZ EPg    D  848 38.05   38                         97   -0.3310 59.2 353 
 SDD  BN ESg    C  848 45.24                              97   -0.4710 59.2 353 
 SDD  BE  IAML     848 45.35        95.5 0.45                          59.2 353 
 SDD  BN  IAML     848 45.39        77.1 0.50                          59.2 353 
 BADR BZ EPg    C  848 41.01   44                         93    0.3910 74.6 314 
 BADR BN ESg       848 50.78                              93    1.1610 74.6 314 
 BADR BE  IAML     848 52.06       673.1 0.20                          74.6 314 
 BADR BN  IAML     848 52.66       756.1 0.20                          74.6 314 
 ABDR BZ EPg    C  848 48.31   67                         91    0.1310  127 320 
 ABDR BE  IAML     849  5.63       131.5 0.30                           127 320 
 ABDR BN  IAML     849  5.89       182.7 0.25                           127 320 
 HIDR BZ EPg    C  848 50.29   80                         91    0.4510  141  59 
 HIDR BE  IAML     849 10.51       101.6 0.25                           141  59 
 HIDR BN  IAML     849 10.58        94.0 0.25                           141  59 
 MIDR BZ EPg    D  848 50.30   60                         91    0.0010  144  36 
 MIDR BE ESg    D  849  6.10                              91   -0.3610  144  36 
 MIDR BN  IAML     849  6.69       132.1 0.35                           144  36 
 MIDR BE  IAML     849  6.75       152.8 0.35                           144  36 
 PODR BZ EPg       848 50.97   61                         91   -0.8310  154 280 
 PODR BN ESg       849  8.45                              91   -0.6110  154 280 
 PODR BE  IAML     849  9.47        56.8 0.50                           154 280 
 PODR BN  IAML     849 15.70        35.7 0.25                           154 280 
 NADR BZ EPg    D  848 52.16                              91   -0.0510  157 360 
 SMDR BZ EPg       848 53.17   52                         91   -0.2110  166  25 
 SMDR BN ESg       849 11.53                              91   -0.2810  166  25 
 SMDR BN  IAML     849 14.69        46.2 0.50                           166  25 
 SMDR BE  IAML     849 25.90        22.2 0.45                           166  25 
 PCDR BZ EPg       848 55.13   92                         91    1.3910  168  67 
 SDDR BZ EPg       848 58.17   65                         91    1.1710  191 308 
 SDDR BE ESg    C  849 17.56                              91   -0.5510  191 308 
 SDDR BN  IAML     849 28.47        51.2 0.60                           191 308 
 SDDR BE  IAML     849 33.44        27.8 0.55                           191 308 
 CRPR BZ EPg       849 10.25  102                         90   -1.0110  293  88 
                                                                                
 2017  222 1543 16.3 L  19.013 -67.205 31.0  DOM  7 0.5 3.0LDOM 3.3CDOM        1
 GAP=222        1.23      10.2     4.2 19.4  0.2508E+02 -0.2020E+02 -0.1485E+03E
 ACTION:UP  18-03-02 17:06 OP:JMLC STATUS:               ID:20170222154316 L   I
 OLDACT:ARG 17-02-22 18:57 OP:AMMR STATUS:               ID:20170222154000     3
 2017-02-22-1540-00S.MAN___100                                                 6
 STAT SP IPHASW D HRMM SECON CODA AMPLIT PERI AZIMU VELO AIN AR TRES W  DIS CAZ7
 AGPR BZ EPg    D 1543 27.59   50                        120    0.2810 60.9 171 
 AGPR BN ESg    D 1543 35.48                             120    0.0110 60.9 171 
 AGPR BN  IAML    1543 35.86      1649.1 0.20                          60.9 171 
 AGPR BE  IAML    1543 35.97      1549.5 0.15                          60.9 171 
 AOPR BZ EPg    D 1543 31.03   66                        111    0.2810 87.7 147 
 AOPR BN ESg    D 1543 41.76                             111    0.2910 87.7 147 
 AOPR BN  IAML    1543 41.91      1289.9 0.30                          87.7 147 
 AOPR BE  IAML    1543 45.59      3096.5 0.30                          87.7 147 
 CRPR BZ EPg    D 1543 33.79   53                        105   -0.2010  112 174 
 CRPR BE ESg    D 1543 46.64                             105   -0.4610  112 174 
 CRPR BE  IAML    1543 46.81      1190.3 0.65                           112 174 
 CRPR BN  IAML    1543 46.96      1448.6 0.50                           112 174 
 PCDR BZ EPg      1543 37.42   70                        102    0.1710  136 246 
 PCDR BE ESg      1543 52.90                             102    0.1310  136 246 
 PCDR BN  IAML    1543 53.08       184.7 0.40                           136 246 
 PCDR BE  IAML    1543 53.23       157.3 0.30                           136 246 
 SJG  BZ EPg      1543 39.25   58                        100    0.0810  149 132 
 SJG  BE ESg    D 1543 55.82                             100   -0.2910  149 132 
 HIDR BZ EPg      1543 42.23   70                         99    0.8110  166 254 
 HIDR BE  IAML    1544  0.80        89.9 0.25                           166 254 
 HIDR BN  IAML    1544  2.36       101.8 0.25                           166 254 
 MIDR BZ EPg    C 1543 44.27   88                         97   -1.1110  194 269 
 MIDR BE  IAML    1544 13.94        46.2 0.40                           194 269 
 MIDR BN  IAML    1544 16.98        28.0 0.50                           194 269 
                                                                                
 2017  224 1329 46.6 L  18.102 -70.752 27.5  DOM  5 0.6 2.3LDOM 3.5CDOM 2.6WDOM1
 SPEC AVERAGE  MO 13.0 ST 11.9 OM  2.0 f0 9.26 R0.1949 AL 0.00 WI 20.0 MW  2.6 3
 SPEC SD       MO  0.2 ST 10.9 OM  0.6 f0 2.38 R0.0611 AL      WI      MW  0.1 3
 GAP=216        1.66       8.1     4.1 21.6 -0.6885E+01 -0.1237E+02 -0.2707E+02E
 SPEC BADRBH Z MO 13.2 ST 10.4 OM  1.9 f0 8.93 R0.1865 AL-0.00 WI 20.0 MW  2.7 3
 SPEC BADRBH Z T1330 1 K 0.020 GD 59.4 VS 4.50 DE 3.40 Q0400.0 QA 0.70 Q1 1.00 3
 SPEC PODRBH Z MO 13.0 ST 12.3 OM  1.7 f0 10.8 R0.1542 AL-0.00 WI 20.0 MW  2.6 3
 SPEC PODRBH Z T1330 2 K 0.020 GD 62.8 VS 4.50 DE 3.40 Q0400.0 QA 0.70 Q1 1.00 3
 SPEC ABDRBH Z MO 13.2 ST 32.1 OM  1.8 f0 12.5 R0.1332 AL-0.00 WI 20.0 MW  2.8 3
 SPEC ABDRBH Z T1330 7 K 0.020 GD 84.3 VS 4.50 DE 3.40 Q0400.0 QA 0.70 Q1 1.00 3
 SPEC SDDRBH Z MO 13.2 ST  2.2 OM  1.6 f0 5.38 R0.3095 AL-0.00 WI 20.0 MW  2.7 3
 SPEC SDDRBH Z T133016 K 0.020 GD  116 VS 4.50 DE 3.40 Q0400.0 QA 0.70 Q1 1.00 3
 SPEC MIDRBH Z MO 12.6 ST  2.7 OM  0.8 f0 8.71 R0.1912 AL-0.00 WI 20.0 MW  2.4 3
 SPEC MIDRBH Z T133039 K 0.020 GD  205 VS 4.50 DE 3.40 Q0400.0 QA 0.70 Q1 1.00 3
     225.2      51.7      26.9 48.4 49.6      0.33 0.55 0.00      DOM HASH     F
 2017-02-24-1329-00S.MAN___100                                                 6
 OLDACT:ARG 17-02-24 13:39 OP:jmlc STATUS:               ID:20170224132900     3
 ACTION:UP  18-03-02 17:06 OP:JMLC STATUS:               ID:20170224132946 L   I
 OLDACT:UP  17-02-24 14:24 OP:JMLC STATUS:               ID:20170224132900     3
 STAT SP IPHASW D HRMM SECON CODA AMPLIT PERI AZIMU VELO AIN AR TRES W  DIS CAZ7
 BADR BZ EPg    C 1329 56.18   71                        109    0.3610 52.7  52 
 BADR BE ESg      1330  2.56                             109   -0.0810 52.7  52 
 BADR BZ  IAML    1330  4.76       155.5 0.15                          52.7  52 
 PODR BZ EPg    C 1329 56.12   57                        107   -0.2710 56.5 277 
 PODR BN ESg      1330  3.94                             107    0.3210 56.5 277 
 PODR BE  IAML    1330  7.58       217.4 0.30                          56.5 277 
 PODR BZ  IAML    1330 15.74       105.0 0.30                          56.5 277 
 ABDR BZ EPg    D 1329 59.36   76                         99   -0.3110 79.7  10 
 ABDR BN ESg      1330  8.51                              99   -0.8210 79.7  10 
 ABDR BE  IAML    1330  9.93       408.0 0.25                          79.7  10 
 ABDR BZ  IAML    1330 10.21       156.4 0.15                          79.7  10 
 SDDR BZ EPg    D 1330  3.82   84                         94   -0.2810  113 330 
 SDDR BN ESg      1330 17.86                              94    0.8310  113 330 
 SDDR BE  IAML    1330 20.73        44.6 0.75                           113 330 
 SDDR BZ  IAML    1330 25.29        36.7 0.30                           113 330 
 MIDR BZ EPg      1330 16.09   84                         92   -0.8910  204  61 
 MIDR BN ESg      1330 40.59                              92    1.1510  204  61 
 MIDR BE  IAML    1330 41.07        27.4 1.05                           204  61 
 MIDR BZ  IAML    1330 59.21        29.9 2.85                           204  61 
                                                                                
 2017  224 1357 47.1 L  18.527 -69.508 80.5  DOM  4 0.7 1.8LDOM 2.8CDOM        1
 GAP=195        1.74      20.5    11.6 39.2  0.1433E+03  0.3089E+03  0.6486E+03E
 ACTION:UP  18-03-02 17:06 OP:JMLC STATUS:               ID:20170224135747 L   I
 OLDACT:ARG 17-02-24 21:02 OP:AMMR STATUS:               ID:20170224135500     3
 2017-02-24-1355-00S.MAN___097                                                 6
 STAT SP IPHASW D HRMM SECON CODA AMPLIT PERI AZIMU VELO AIN AR TRES W  DIS CAZ7
 MIDR BZ EPg    C 1358  1.64   24                        133    0.3110 69.8  44 
 MIDR BN ESg      1358 11.68                             133   -0.1710 69.8  44 
 MIDR BN  IAML    1358 12.45        43.3 0.20                          69.8  44 
 MIDR BE  IAML    1358 12.54        23.7 0.35                          69.8  44 
 SMDR BZ EPg      1358  4.17   37                        124    0.9110 90.8  22 
 SMDR BN ESg      1358 14.68                             124   -0.5310 90.8  22 
 SMDR BN  IAML    1358 16.42        13.5 1.10                          90.8  22 
 SMDR BE  IAML    1358 18.37        24.2 2.00                          90.8  22 
 PCDR BZ EPg      1358  4.93   40                        115   -1.2110  119  91 
 PCDR BE ESg      1358 20.92                             115    0.6910  119  91 
 PCDR BE  IAML    1358 25.52        28.7 0.75                           119  91 
 ABDR BZ EPg      1358  6.82   44                        115   -0.0010  122 285 
                                                                                
