 2017  215 0711 48.5 L  19.320 -69.053 12.2  DOM  4 0.3 1.7LDOM 3.0CDOM 1.8WDOM1
 SPEC AVERAGE  MO 11.8 ST  2.2 OM  1.7 f0 11.2 R0.1600 AL 0.00 WI 20.0 MW  1.8 3
 SPEC SD       MO  0.1 ST  1.9 OM  0.7 f0 4.67 R0.0884 AL      WI      MW  0.1 3
 GAP=259        0.76       4.4     3.5  5.0  0.1033E+02 -0.4719E+01  0.4802E+01E
 SPEC SMDRBH Z MO 12.0 ST0.182 OM  1.5 f0 4.89 R0.2845 AL-0.00 WI 20.0 MW  1.9 3
 SPEC SMDRBH Z T 71152 K 0.020 GD 19.0 VS 3.76 DE 2.84 Q0400.0 QA 0.70 Q1 1.00 3
 SPEC MIDRBH Z MO 11.7 ST  1.7 OM  0.9 f0 12.8 R0.1087 AL-0.00 WI 20.0 MW  1.7 3
 SPEC MIDRBH Z T 71157 K 0.020 GD 39.1 VS 3.76 DE 2.84 Q0400.0 QA 0.70 Q1 1.00 3
 SPEC HIDRBH Z MO 11.8 ST  4.7 OM  0.7 f0 16.0 R0.0870 AL-0.00 WI 20.0 MW  1.8 3
 SPEC HIDRBH Z T 71211 K 0.020 GD 88.9 VS 3.76 DE 2.84 Q0400.0 QA 0.70 Q1 1.00 3
 2017-02-15-0710-00S.MAN___100                                                 6
 OLDACT:UP  17-02-15 12:32 OP:FMGP STATUS:               ID:20170215071000     3
 OLDACT:ARG 17-02-15 12:26 OP:fmgp STATUS:               ID:20170215071000     3
 ACTION:UP  18-03-02 17:06 OP:JMLC STATUS:               ID:20170215071148 L   I
 OLDACT:UP  17-02-15 12:43 OP:FMGP STATUS:               ID:20170215071000     3
 OLDACT:UP  17-02-15 12:33 OP:FMGP STATUS:               ID:20170215071000     3
 STAT SP IPHASW D HRMM SECON CODA AMPLIT PERI AZIMU VELO AIN AR TRES W  DIS CAZ7
 SMDR BZ EP     C  711 51.34   36                        125   -0.2510 14.6 257 
 SMDR BN ES        711 53.62                             125   -0.2410 14.6 257 
 SMDR BN ESg    C  711 53.81                             125   -0.0510 14.6 257 
 SMDR BE  IAML     711 54.01       264.2 0.20                          14.6 257 
 SMDR BN  IAML     711 54.69       150.3 0.35                          14.6 257 
 MIDR BZ EP     D  711 54.68   45                         92   -0.1510 37.2 179 
 MIDR BN ES        711 59.20                              92   -0.3010 37.2 179 
 MIDR BN ESg       711 59.62                              92    0.1210 37.2 179 
 MIDR BE  IAML     711 59.73        73.6 0.15                          37.2 179 
 MIDR BN  IAML     711 59.97        40.8 0.15                          37.2 179 
 HIDR BZ EPg       712  2.85   52                         90    0.3110 88.1 156 
 HIDR BN ESg       712 12.76                              90   -0.1510 88.1 156 
 HIDR BN  IAML     712 15.17        46.6 0.20                          88.1 156 
 HIDR BE  IAML     712 15.56        40.5 0.30                          88.1 156 
 ABDR BZ EPg       712 15.95   72                         90    0.1010  175 252 
 ABDR BN ESg       712 36.68                              90    0.6110  175 252 
                                                                                
 2017  215 1004 18.6 L  18.812 -69.425110.0  DOM  6 0.5 2.2LDOM 3.1CDOM        1
 GAP=137        1.31       9.8     4.6 11.0 -0.8193E+01  0.9512E+01  0.3597E+02E
 ACTION:UP  18-03-02 17:06 OP:JMLC STATUS:               ID:20170215100418 L   I
 OLDACT:ARG 17-02-15 18:34 OP:AMMR STATUS:               ID:20170215100200     3
 2017-02-15-1002-00S.MAN___100                                                 6
 STAT SP IPHASW D HRMM SECON CODA AMPLIT PERI AZIMU VELO AIN AR TRES W  DIS CAZ7
 MIDR BZ EPg      10 4 33.40   44                        156   -0.5410 43.8  64 
 MIDR BN ESg      10 4 44.86                             156   -0.4310 43.8  64 
 MIDR BE  IAML    10 4 45.27        39.4 0.10                          43.8  64 
 MIDR BN  IAML    10 4 46.26        39.0 0.10                          43.8  64 
 SMDR BZ EPg      10 4 34.47   49                        149   -0.2610 58.4  25 
 SMDR BE ESg      10 4 47.48                             149    0.8310 58.4  25 
 SMDR BN  IAML    10 4 50.39        19.7 0.60                          58.4  25 
 SMDR BE  IAML    10 4 52.11        18.7 1.30                          58.4  25 
 HIDR BZ EPg      10 4 35.75   49                        141   -0.3510 78.8 108 
 HIDR BN ESg      10 4 48.81                             141   -0.2410 78.8 108 
 HIDR BN  IAML    10 4 50.89        85.4 0.25                          78.8 108 
 HIDR BE  IAML    10 4 51.31        83.7 0.25                          78.8 108 
 BADR BZ EPg      10 4 38.80   50                        131    0.1010  109 245 
 BADR BE ESg      10 4 53.97                             131    0.4010  109 245 
 BADR BE  IAML    10 4 54.99        42.2 0.20                           109 245 
 BADR BN  IAML    10 4 58.45        68.6 0.25                           109 245 
 PCDR HZ EPg      10 4 40.09   57                        129    0.9710  115 107 
 PCDR BN  IAML    10 4 59.06        68.9 1.10                           115 107 
 ABDR BZ EPg      10 4 40.30   53                        127   -0.2710  127 270 
 ABDR BE ESg      10 4 56.62                             127   -0.2010  127 270 
 ABDR BE  IAML    10 4 57.87        33.4 0.20                           127 270 
 ABDR BN  IAML    10 5  0.16        24.7 0.45                           127 270 
                                                                                
 2017  215 1345  2.3 L  18.759 -69.028139.8  DOM  5 0.4 2.4LDOM 3.1CDOM        1
 GAP=153        0.94      11.6     5.8  8.9  0.2903E+02  0.2407E+02  0.5334E+02E
 ACTION:UP  18-03-02 17:06 OP:JMLC STATUS:               ID:20170215134502 L   I
 OLDACT:ARG 17-02-15 18:34 OP:AMMR STATUS:               ID:20170215134200     3
 2017-02-15-1342-00S.MAN___100                                                 6
 STAT SP IPHASW D HRMM SECON CODA AMPLIT PERI AZIMU VELO AIN AR TRES W  DIS CAZ7
 MIDR BZ EPg    C 1345 20.18   44                        169   -0.1710 24.9 355 
 MIDR BN ESg    C 1345 33.50                             169   -0.1910 24.9 355 
 MIDR BE  IAML    1345 34.22        56.2 0.40                          24.9 355 
 MIDR BN  IAML    1345 34.66        57.6 0.40                          24.9 355 
 HIDR BZ EPg      1345 20.32   37                        164   -0.3910 37.9 119 
 HIDR BN ESg    D 1345 34.24                             164   -0.0910 37.9 119 
 HIDR BN  IAML    1345 35.04       181.5 0.40                          37.9 119 
 HIDR BE  IAML    1345 35.49       293.8 0.30                          37.9 119 
 SMDR BN ESg      1345 36.19                             155    0.1910 61.1 344 
 SMDR BE  IAML    1345 40.78        23.0 0.65                          61.1 344 
 SMDR BN  IAML    1345 41.43        16.4 0.65                          61.1 344 
 PCDR BZ EPg      1345 23.05   49                        150    0.7010 73.5 112 
 PCDR BN  IAML    1345 46.86        75.4 1.15                          73.5 112 
 ABDR BZ EPg      1345 29.95   58                        126   -0.3710  169 272 
 ABDR BE ESg      1345 51.37                             126    0.3210  169 272 
 ABDR BN  IAML    1345 53.21        24.3 0.50                           169 272 
                                                                                
 2017  215 1621 53.8 L  18.248 -69.020 20.3  DOM  5 0.2 2.0LDOM 3.2CDOM        1
 GAP=211        0.67      10.2     6.0 95.8  0.4620E+02  0.4941E+03  0.9175E+03E
 ACTION:UP  18-03-02 17:06 OP:JMLC STATUS:               ID:20170215162153 L   I
 OLDACT:ARG 17-02-15 18:34 OP:AMMR STATUS:               ID:20170215161900     3
 2017-02-15-1619-00S.MAN___100                                                 6
 STAT SP IPHASW D HRMM SECON CODA AMPLIT PERI AZIMU VELO AIN AR TRES W  DIS CAZ7
 PCDR BZ EPg      1622  5.87                             101    0.1310 73.7  66 
 PCDR BN  IAML    1622 16.31       121.0 1.05                          73.7  66 
 MIDR BZ EPg      1622  6.43   51                         99   -0.4710 81.4 358 
 MIDR BE ESg      1622 16.82                              99    0.2210 81.4 358 
 MIDR BE  IAML    1622 17.00        14.2 0.40                          81.4 358 
 MIDR BN  IAML    1622 18.49        14.6 0.50                          81.4 358 
 BADR BZ EPg      1622 16.20   51                         94    0.0210  143 277 
 BADR BE  IAML    1622 39.70        31.6 1.00                           143 277 
 NADR BN  IAML    1621 47.41         5.3 0.20                           151 324 
 NADR BE  IAML    1621 48.96       330.4 0.15                           151 324 
 ABDR BZ EPg      1622 22.14   57                         93    0.1110  181 290 
 ABDR BN  IAML    1622 45.11        15.9 0.45                           181 290 
 ABDR BE  IAML    1622 48.66        23.7 0.30                           181 290 
                                                                                
 2017  215 1745  2.2 L  18.675 -69.506140.1  DOM  9 0.5 3.0LDOM 3.4CDOM        1
 GAP=155        1.41       8.6     4.5  9.6 -0.6867E+01  0.1444E+02  0.9565E+01E
 ACTION:UP  18-03-02 17:06 OP:JMLC STATUS:               ID:20170215174502 L   I
 OLDACT:ARG 17-02-15 18:07 OP:AMMR STATUS:               ID:20170215174400     3
 2017-02-15-1744-00S.MAN___100                                                 6
 STAT SP IPHASW D HRMM SECON CODA AMPLIT PERI AZIMU VELO AIN AR TRES W  DIS CAZ7
 MIDR BZ EPg    D 1745 21.74   59                        156    0.2610 59.0  55 
 MIDR BN ESg    C 1745 35.66                             156   -0.0910 59.0  55 
 MIDR BE  IAML    1745 37.69       159.7 0.40                          59.0  55 
 MIDR BN  IAML    1745 37.69       199.3 0.30                          59.0  55 
 SMDR BZ EPg      1745 22.02   57                        150   -0.3710 75.8  26 
 SMDR BE ESg      1745 36.90                             150   -0.4510 75.8  26 
 SMDR BE  IAML    1745 40.91       180.5 0.60                          75.8  26 
 SMDR BN  IAML    1745 41.89       195.8 0.45                          75.8  26 
 NADR BZ EPg      1745 22.18   56                        147   -0.7110 83.8 334 
 NADR BN  IAML    1745 41.21        15.9 0.35                          83.8 334 
 NADR BE  IAML    1745 41.71       595.9 0.70                          83.8 334 
 HIDR BZ EPg      1745 22.83   70                        147   -0.0810 83.9  96 
 HIDR BN ISg      1745 39.24                             147    1.0010 83.9  96 
 HIDR BN  IAML    1745 41.16       172.2 0.25                          83.9  96 
 HIDR BE  IAML    1745 42.96       183.2 0.25                          83.9  96 
 BADR BZ EPg      1745 23.63   56                        143   -0.1810 95.3 251 
 BADR BE ESg    C 1745 39.59                             143   -0.2210 95.3 251 
 BADR BE  IAML    1745 40.71       376.0 0.40                          95.3 251 
 BADR BN  IAML    1745 43.24       353.6 0.30                          95.3 251 
 ABDR BZ EPg      1745 25.45   76                        137   -0.4110  119 278 
 ABDR BN ESg    D 1745 42.52                             137   -0.8610  119 278 
 ABDR BE  IAML    1745 45.29       445.6 0.30                           119 278 
 ABDR BN  IAML    1745 46.22       247.6 0.25                           119 278 
 SC01 BZ EPg      1745 28.50   52                        129    0.0610  153 303 
 SC01 BN ESg    C 1745 48.85                             129    0.9810  153 303 
 SC01 BN  IAML    1745 50.13       328.0 0.80                           153 303 
 SC01 BE  IAML    1745 51.42       275.5 0.30                           153 303 
 SDDR BZ EPg      1745 32.35   83                        122    0.2410  191 280 
 SDDR BE ESg      1745 55.04                             122    0.7910  191 280 
 SDDR BE  IAML    1746  1.01       115.9 0.50                           191 280 
 SDDR BN  IAML    1746  1.18       103.3 0.75                           191 280 
 PODR BZ EPg    D 1745 32.88   72                        122    0.1510  196 254 
 PODR BE ESg      1745 55.22                             122   -0.1110  196 254 
 PODR BN  IAML    1745 59.36        79.9 0.40                           196 254 
 PODR BE  IAML    1746  1.23       106.9 0.35                           196 254 
                                                                                
 2017  215 2108  1.2 L  17.953 -68.391 59.6  DOM  6 0.5 2.6LDOM 3.3CDOM        1
 GAP=241        1.30      17.2     7.8 18.8  0.1119E+03  0.5927E+02  0.2287E+03E
 ACTION:UP  18-03-02 17:06 OP:JMLC STATUS:               ID:20170215210801 L   I
 OLDACT:ARG 17-02-15 21:14 OP:AMMR STATUS:               ID:20170215210600     3
 2017-02-15-2106-00S.MAN___100                                                 6
 STAT SP IPHASW D HRMM SECON CODA AMPLIT PERI AZIMU VELO AIN AR TRES W  DIS CAZ7
 PCDR BZ EPg      21 8 13.01   43                        127   -0.0510 62.0   1 
 PCDR BE ESg      21 8 21.77                             127   -0.0610 62.0   1 
 PCDR BE  IAML    21 8 23.36       290.6 0.75                          62.0   1 
 PCDR BN  IAML    21 8 23.63       589.5 0.65                          62.0   1 
 HIDR BZ EPg      21 8 15.45   48                        119    0.7110 78.5 334 
 HIDR BN ESg      21 8 25.00                             119    0.2510 78.5 334 
 HIDR BN  IAML    21 8 25.96       455.4 0.20                          78.5 334 
 HIDR BE  IAML    21 8 28.19       358.0 0.30                          78.5 334 
 MIDR BZ EPg      21 8 20.77   61                        104   -0.2010  134 329 
 MIDR BE ESg      21 8 34.97                             104   -0.6110  134 329 
 MIDR BE  IAML    21 8 39.31        43.2 0.25                           134 329 
 MIDR BN  IAML    21 8 39.58        25.0 0.30                           134 329 
 CRPR BZ EPg      21 8 21.59   84                        103    0.1010  138  87 
 CRPR BN ESg      21 8 35.53                             103   -0.9710  138  87 
 CRPR BN  IAML    21 8 36.09        42.1 3.15                           138  87 
 CRPR BE  IAML    21 8 38.25        40.8 1.00                           138  87 
 AGPR BZ EPg      21 8 22.43   50                        102   -0.1410  147  67 
 AGPR BE  IAML    21 8 38.84        50.6 0.45                           147  67 
 AGPR BN  IAML    21 8 43.71        59.4 0.55                           147  67 
 AOPR BZ EPg      21 8 26.54   70                         98    0.1810  179  76 
 AOPR BN ESg    D 21 8 45.76                              98    0.7910  179  76 
 AOPR BN  IAML    21 8 47.89       160.0 0.20                           179  76 
 AOPR BE  IAML    21 8 50.47       315.1 0.30                           179  76 
                                                                                
