 2017  2 1 2005 32.0 L  18.271 -70.705 31.0  DOM  6 0.5 2.9LDOM 3.3CDOM        1
 GAP=179        1.22       6.5     3.0  6.8  0.4431E+01  0.8908E-01 -0.2234E+02E
 ACTION:UP  18-03-02 17:06 OP:JMLC STATUS:               ID:20170201200532 L   I
 OLDACT:ARG 17-02-01 20:15 OP:AMMR STATUS:               ID:20170201200400     3
 2017-02-01-2004-00S.MAN___100                                                 6
 STAT SP IPHASW D HRMM SECON CODA AMPLIT PERI AZIMU VELO AIN AR TRES W  DIS CAZ7
 BADR BZ EP     D 20 5 40.00   53                        124    0.3110 39.0  69 
 BADR BE ES       20 5 46.48                             124    1.1010 39.0  69 
 BADR BN  IAML    20 5 47.71      1859.0 0.15                          39.0  69 
 BADR BE  IAML    20 5 48.14      1836.9 0.15                          39.0  69 
 ABDR BZ IP     D 20 5 42.08   55                         62   -0.4410 60.5   8 
 ABDR BE ES       20 5 50.50                              62    0.1910 60.5   8 
 ABDR BN  IAML    20 5 50.97      1137.5 0.15                          60.5   8 
 ABDR BE  IAML    20 5 51.06       815.0 0.25                          60.5   8 
 PODR BZ EPg    D 20 5 42.91   52                        110    0.2510 62.1 259 
 PODR BE  IAML    20 5 56.15       476.3 0.25                          62.1 259 
 PODR BN  IAML    20 5 56.88       410.3 0.20                          62.1 259 
 SDDR BZ EPg    C 20 5 47.35   61                         99   -0.4010 99.9 322 
 SDDR BE  IAML    20 5 59.64       153.3 0.35                          99.9 322 
 SDDR BN ESg    C 20 5 59.65                              99    0.2410 99.9 322 
 SDDR BN  IAML    20 6  2.86       201.1 0.30                          99.9 322 
 MIDR BZ EPg    C 20 6  0.13   71                         93   -0.4410  192  65 
 MIDR BN ESg    C 20 6 21.32                              93   -0.4010  192  65 
 MIDR BN  IAML    20 6 21.79       109.3 0.60                           192  65 
 MIDR BE  IAML    20 6 21.98       174.3 0.85                           192  65 
 HIDR BZ EPg      20 6  3.25   76                         93   -0.3610  213  80 
 HIDR BN ESg      20 6 26.97                              93   -0.0410  213  80 
 HIDR BE  IAML    20 6 28.81       123.6 0.20                           213  80 
 HIDR BN  IAML    20 6 30.56       126.1 0.25                           213  80 
                                                                                
 2017  2 2 0703 29.8 L  18.336 -69.517 22.9  DOM  5 0.4 2.1LDOM 3.2CDOM        1
 GAP=214        1.11      11.0     6.0118.3  0.5194E+02  0.6338E+03  0.1146E+04E
 ACTION:UP  18-03-02 17:06 OP:JMLC STATUS:               ID:20170202070329 L   I
 OLDACT:ARG 17-02-02 12:30 OP:AMMR STATUS:               ID:20170202070100     3
 2017-02-02-0701-00S.MAN___100                                                 6
 STAT SP IPHASW D HRMM SECON CODA AMPLIT PERI AZIMU VELO AIN AR TRES W  DIS CAZ7
 MIDR BZ EPg    D  7 3 43.97   49                        101    0.1910 87.0  34 
 MIDR BN ESg    D  7 3 54.27                             101    0.1310 87.0  34 
 MIDR BE  IAML     7 3 56.17        25.5 0.10                          87.0  34 
 MIDR BN  IAML     7 3 56.67        36.7 0.45                          87.0  34 
 SMDR BN ESg       7 3 59.82                              98   -0.6110  111  18 
 NADR BZ EPg    C  7 3 49.31   47                         97    0.8410  118 342 
 NADR BN  IAML     7 4  6.25         2.8 0.25                           118 342 
 NADR BE  IAML     7 4  9.96       134.2 2.95                           118 342 
 PCDR BZ EPg       7 3 48.85   53                         97   -0.1110  122  80 
 PCDR BE  IAML     7 4  3.01        86.3 3.25                           122  80 
 PCDR BE ESg       7 4  3.17                              97    0.0010  122  80 
 PCDR BN  IAML     7 4  5.21       240.5 2.10                           122  80 
 REDR BZ EPg       7 4  8.29   75                         93   -0.5210  253 295 
 REDR BN ESg       7 4 37.77                              93    0.0710  253 295 
 REDR BE  IAML     7 4 47.26        14.8 2.35                           253 295 
 REDR BN  IAML     7 4 48.73        16.2 2.95                           253 295 
                                                                                
 2017  2 2 1548 15.8 L  19.060 -65.954 31.3  DOM 10 1.5 3.7LDOM 3.9CDOM        1
 GAP=276        3.99      39.4    19.7423.9  0.3609E+03 -0.2817E+04 -0.1554E+05E
 ACTION:UP  18-03-02 17:06 OP:JMLC STATUS:               ID:20170202154815 L   I
 OLDACT:UP  17-02-02 16:10 OP:AMMR STATUS:               ID:20170202154800     3
 OLDACT:ARG 17-02-02 15:57 OP:AMMR STATUS:               ID:20170202154800     3
 2017-02-02-1548-00S.MAN___100                                                 6
 STAT SP IPHASW D HRMM SECON CODA AMPLIT PERI AZIMU VELO AIN AR TRES W  DIS CAZ7
 SJG  BZ EPg    D 1548 29.88   79                         90   -2.0310  107 191 
 SJG  BN ESg      1548 39.92                              90   -3.8810  107 191 
 AOPR BZ EPg    C 1548 32.49   71                         90   -0.4810  116 227 
 AOPR BN ESg    C 1548 44.49                              90   -1.1510  116 227 
 AOPR BN  IAML    1548 45.37     10020.5 0.20                           116 227 
 AOPR BE  IAML    1548 46.17     14316.0 0.25                           116 227 
 AGPR BZ EPg    C 1548 36.02   72                         90    0.2510  138 242 
 AGPR BN ESg    C 1548 51.14                              90    0.6410  138 242 
 AGPR BE  IAML    1548 51.56      2471.0 0.60                           138 242 
 AGPR BN  IAML    1548 51.61      3238.8 0.50                           138 242 
 CRPR BZ EPg      1548 38.20   72                         90   -1.1510  167 226 
 CRPR BN ESg    C 1548 55.16                              90   -1.5910  167 226 
 CRPR BN  IAML    1548 58.41      1382.8 0.25                           167 226 
 CRPR BE  IAML    1548 58.99      1733.2 0.20                           167 226 
 PCDR BZ EPg      1548 52.37   84                         90    1.1210  263 257 
 PCDR BE  IAML    1549 25.04       311.5 0.75                           263 257 
 PCDR BN  IAML    1549 26.39       490.8 0.45                           263 257 
 HIDR BZ EPg      1548 55.28   99                         90   -0.0310  296 260 
 HIDR BN ESg      1549 25.00                              90    0.5010  296 260 
 HIDR BE  IAML    1549 31.81       225.8 0.25                           296 260 
 HIDR BN  IAML    1549 33.91       330.0 0.25                           296 260 
 MIDR BZ EPg    C 1549  0.06  118                         90    0.9810  326 269 
 MIDR BN ESg      1549 32.18                              90    1.1110  326 269 
 MIDR BE  IAML    1549 33.25        96.6 0.55                           326 269 
 MIDR BN  IAML    1549 33.35        63.6 0.60                           326 269 
 SMDR BZ EPg      1549  1.92   86                         90    0.9710  341 275 
 SMDR BN ESg      1549 35.82                              90    1.4910  341 275 
 SMDR BN  IAML    1549 38.12        37.0 0.35                           341 275 
 SMDR BE  IAML    1549 47.25        41.8 1.15                           341 275 
 ABDR BZ EPg    C 1549 21.92  142                         90    1.8210  493 268 
 ABDR BN  IAML    1550 19.50        93.5 1.20                           493 268 
 ABDR BE  IAML    1550 21.53       104.3 0.30                           493 268 
 SDDR BZ EPg      1549 29.85  117                         90    1.4210  562 270 
 SDDR BN  IAML    1550 28.98        43.1 0.55                           562 270 
                                                                                
 2017  2 2 1614 46.6 L  18.129 -68.204130.7  DOM  9 0.6 2.9LDOM 3.6CDOM        1
 GAP=175        1.57      14.9     5.6 14.9  0.4312E+02  0.3501E+02  0.1439E+03E
 ACTION:UP  18-03-02 17:06 OP:JMLC STATUS:               ID:20170202161446 L   I
 OLDACT:ARG 17-02-02 16:20 OP:AMMR STATUS:               ID:20170202161400     3
 2017-02-02-1614-00S.MAN___100                                                 6
 STAT SP IPHASW D HRMM SECON CODA AMPLIT PERI AZIMU VELO AIN AR TRES W  DIS CAZ7
 PCDR BZ EPg    D 1615  3.67                             159   -0.6110 46.6 336 
 PCDR BE  IAML    1615 18.82       129.1 0.65                          46.6 336 
 PCDR BN  IAML    1615 20.06       211.3 0.45                          46.6 336 
 HIDR BZ EPg      1615  4.74   63                        148   -1.0110 74.5 314 
 HIDR BN ESg      1615 19.76                             148   -0.1910 74.5 314 
 HIDR BN  IAML    1615 21.44       334.9 0.25                          74.5 314 
 HIDR BE  IAML    1615 22.42       222.4 0.25                          74.5 314 
 CRPR BZ EPg      1615  8.69   86                        134   -0.3410  119  96 
 CRPR BN  IAML    1615 27.37        68.4 1.60                           119  96 
 MIDR BZ EPg    C 1615  9.32   58                        132   -0.6710  130 317 
 MIDR BN ESg      1615 27.28                             132   -0.0510  130 317 
 MIDR BE  IAML    1615 30.11       121.0 0.05                           130 317 
 MIDR BN  IAML    1615 31.83       118.9 0.35                           130 317 
 AOPR BZ EPg      1615 12.18   84                        126   -0.1710  155  81 
 AOPR BE ESg      1615 32.60                             126    1.1710  155  81 
 AOPR BE  IAML    1615 35.44       280.3 0.40                           155  81 
 AOPR BN  IAML    1615 35.51       151.5 0.25                           155  81 
 SMDR BZ EPg      1615 13.52                             124    0.2610  165 321 
 SMDR BN ESg      1615 33.35                             124    0.3310  165 321 
 SMDR BE  IAML    1615 38.24        63.7 0.50                           165 321 
 SMDR BN  IAML    1615 41.16        45.5 0.70                           165 321 
 BADR BZ EPg      1615 20.31   77                        115    0.2610  230 278 
 BADR BN ESg      1615 45.87                             115    1.0410  230 278 
 BADR BE  IAML    1615 53.86        96.2 0.35                           230 278 
 BADR BN  IAML    1615 57.32        68.5 0.60                           230 278 
 ABDR BZ EPg      1615 24.44  121                        111    0.1810  267 287 
 ABDR BE  IAML    1615 59.69        36.0 0.65                           267 287 
 ABDR BN  IAML    1616  0.14        32.3 1.05                           267 287 
 PODR BZ EPg      1615 30.47                             106   -0.2110  326 271 
 PODR BN  IAML    1616 10.26        40.1 1.40                           326 271 
                                                                                
 2017  2 3 0318  7.4 L  19.423 -69.206 71.0  DOM 10 0.8 3.3LDOM 3.1CDOM        1
 GAP=210        2.19      10.1     7.1 10.7  0.4153E+02  0.2599E+02  0.9180E+01E
 ACTION:UP  18-03-02 17:06 OP:JMLC STATUS:               ID:20170203031807 L   I
 OLDACT:ARG 17-02-03 10:44 OP:nr   STATUS:               ID:20170203031600     3
 2017-02-03-0316-00S.MAN___100                                                 6
 STAT SP IPHASW D HRMM SECON CODA AMPLIT PERI AZIMU VELO AIN AR TRES W  DIS CAZ7
 SMDR BZ EPg    D  318 16.72   35                        167   -0.4810 14.9 173 
 SMDR BE ESg    C  318 24.83                             167    0.3410 14.9 173 
 SMDR BN  IAML     318 24.90       748.9 0.15                          14.9 173 
 SMDR BE  IAML     318 25.08       928.5 0.45                          14.9 173 
 MIDR BZ EPg    D  318 18.89   37                        140   -0.3210 51.4 161 
 MIDR BE ESg    D  318 27.93                             140   -0.0610 51.4 161 
 MIDR BN  IAML     318 28.05      1128.7 0.15                          51.4 161 
 MIDR BE  IAML     318 28.08      1556.3 0.10                          51.4 161 
 NADR BZ EPg    D  318 19.87   49                        131   -0.8310 68.7 264 
 NADR BE E      C  318 30.46                                           68.7 264 
 NADR BE ESg    C  318 30.47                             131   -0.1010 68.7 264 
 NADR BN  IAML     318 31.47        28.5 0.35                          68.7 264 
 NADR BE  IAML     318 32.52      1541.9 0.15                          68.7 264 
 CADR BZ EPg    C  318 21.45   38                        125   -0.4810 81.6 289 
 CADR BE ESg    C  318 32.13                             125   -0.5810 81.6 289 
 CADR BE  IAML     318 34.29      1266.4 0.20                          81.6 289 
 CADR BN  IAML     318 34.49      1308.9 0.20                          81.6 289 
 PCDR BZ EPg    C  318 27.68   48                        111    0.2310  133 139 
 PCDR BE ESg    C  318 43.23                             111    0.9010  133 139 
 PCDR BE  IAML     318 45.02       204.1 0.55                           133 139 
 PCDR BN  IAML     318 45.89       324.3 0.60                           133 139 
 SC01 BZ EPg    C  318 30.61   70                        106    0.0510  160 270 
 SC01 BE ESg    C  318 49.99                             106    2.2610  160 270 
 SC01 BN  IAML     318 56.16       291.0 0.70                           160 270 
 SC01 BE  IAML     318 56.76       197.8 0.50                           160 270 
 ABDR BZ EPg    D  318 30.80   66                        106   -0.5510  164 246 
 ABDR BE ESg    C  318 48.44                             106   -0.6710  164 246 
 ABDR BN  IAML     318 49.79       300.2 0.20                           164 246 
 ABDR BE  IAML     318 51.10       372.8 0.20                           164 246 
 BADR BZ EPg    C  318 31.49   64                        106    0.0710  166 227 
 BADR BE ESg    C  318 49.44                             106    0.2210  166 227 
 BADR BN  IAML     318 51.26       470.1 0.20                           166 227 
 BADR BE  IAML     318 51.54       369.9 0.35                           166 227 
 LUDR BZ EPg    C  318 34.22   55                        103    0.0810  190 286 
 LUDR BE ESg    D  318 55.65                             103    1.6910  190 286 
 LUDR BE  IAML     318 56.52       766.8 0.25                           190 286 
 LUDR BN  IAML     318 57.77      1201.2 0.30                           190 286 
 REDR BZ EPg    C  318 42.13   54                         98   -0.7010  263 267 
 REDR BE ESg    C  319  7.99                              98   -1.0910  263 267 
 REDR BN  IAML     319 10.32       302.7 0.15                           263 267 
 REDR BE  IAML     319 10.41       290.1 0.15                           263 267 
                                                                                
 2017  2 3 0735  4.6 L  19.091 -69.397 22.7  DOM  5 0.4 1.7LDOM 2.8CDOM        1
 GAP=112        0.99       4.3     2.8 12.4  0.4722E+01  0.2035E+02  0.3367E+02E
 ACTION:UP  18-03-02 17:06 OP:JMLC STATUS:               ID:20170203073504 L   I
 OLDACT:ARG 17-02-03 12:56 OP:AMMR STATUS:               ID:20170203073200     3
 2017-02-03-0732-00S.MAN___100                                                 6
 STAT SP IPHASW D HRMM SECON CODA AMPLIT PERI AZIMU VELO AIN AR TRES W  DIS CAZ7
 SMDR BZ EPg    D  735 10.27   21                        124   -0.3610 31.1  45 
 SMDR BN ESg    C  735 15.40                             124    0.3110 31.1  45 
 SMDR BN  IAML     735 15.59       107.6 0.20                          31.1  45 
 SMDR BE  IAML     735 15.77        85.3 0.20                          31.1  45 
 MIDR BZ EPg    C  735 11.54   58                        118   -0.0510 38.5 108 
 MIDR BN ESg    C  735 16.54                             118   -0.2210 38.5 108 
 MIDR BE  IAML     735 16.91        55.3 0.20                          38.5 108 
 MIDR BN  IAML     735 17.01        29.2 0.20                          38.5 108 
 NADR BZ EPg    C  735 13.46   35                        108   -0.6410 56.4 301 
 NADR BN ESg    D  735 21.56                             108    0.4310 56.4 301 
 NADR BE  IAML     735 22.31       244.4 0.35                          56.4 301 
 NADR BN  IAML     735 22.66         4.5 0.25                          56.4 301 
 PCDR BZ EPg       735 24.73   64                         97    0.4810  125 121 
 BADR BN ESg    C  735 39.62                              97    0.0410  127 233 
 BADR BN  IAML     735 40.02        62.7 0.60                           127 233 
 BADR BE  IAML     735 40.72        43.3 0.80                           127 233 
                                                                                
 2017  2 3 0757 59.9 L  18.510 -70.325 31.0  DOM  9 0.7 2.2LDOM 3.1CDOM        1
 GAP=108        1.83       6.0     3.8  8.5  0.3288E+01 -0.1794E+01 -0.1923E+02E
 ACTION:UP  18-03-02 17:06 OP:JMLC STATUS:               ID:20170203075759 L   I
 OLDACT:ARG 17-02-03 12:56 OP:AMMR STATUS:               ID:20170203075500     3
 2017-02-03-0755-00S.MAN___100                                                 6
 STAT SP IPHASW D HRMM SECON CODA AMPLIT PERI AZIMU VELO AIN AR TRES W  DIS CAZ7
 BADR BZ EPg       758  5.59   31                        156    0.3810 13.0 197 
 BADR BN ESg    C  758 10.32                             156    1.2010 13.0 197 
 BADR BE  IAML     758 10.64       749.9 0.10                          13.0 197 
 BADR BN  IAML     758 10.69      1042.2 0.15                          13.0 197 
 ABDR BZ EPg    C  758  7.97   32                        120   -0.7210 46.2 316 
 ABDR BN ESg    C  758 14.22                             120   -0.9410 46.2 316 
 ABDR BN  IAML     758 14.34       412.2 0.20                          46.2 316 
 ABDR BE  IAML     758 14.82       410.3 0.25                          46.2 316 
 PODR BZ EPg    C  758 17.43   51                         98    0.5110  108 250 
 PODR BN  IAML     758 32.92        35.4 0.25                           108 250 
 SC01 BZ EPg       758 17.18   41                         97    0.1010  110 337 
 SC01 BN ESg       758 31.01                              97    1.2510  110 337 
 SC01 BN  IAML     758 32.46        42.1 1.50                           110 337 
 SDDR BZ EPg       758 17.69   50                         97   -0.0210  114 297 
 SDDR BN ESg       758 30.66                              97   -0.2010  114 297 
 SDDR BE  IAML     758 36.44        30.9 0.40                           114 297 
 SDDR BN  IAML     758 37.83        36.7 0.35                           114 297 
 NEDR BZ EPg       758 17.99   69                         96   -0.5810  121 269 
 NEDR BN ESg       758 31.71                              96   -0.6510  121 269 
 NEDR BE  IAML     758 35.54        15.1 0.65                           121 269 
 NEDR BN  IAML     758 36.94        33.2 2.20                           121 269 
 MIDR BN EPg    D  758 21.76   56                         95   -0.1010  144  69 
 MIDR BE ESg       758 38.33                              95    0.2510  144  69 
 MIDR BE  IAML     758 39.82        13.0 0.20                           144  69 
 REDR BZ EPg       758 25.42   52                         94    0.1710  168 301 
 REDR BN ESg    C  758 44.53                              94    0.5410  168 301 
 REDR BN  IAML     758 44.81        55.2 0.20                           168 301 
 REDR BE  IAML     758 45.47        72.0 0.15                           168 301 
 PCDR BZ EPg       758 29.24   73                         93   -1.1810  205  90 
                                                                                
