 2017  2 3 1247 56.7 L  19.355 -68.855 23.0  DOM  3 0.6 1.6LDOM 3.2CDOM        1
 GAP=298        1.62      14.1    15.4 19.2  0.1636E+03 -0.1225E+03 -0.1855E+03E
 ACTION:UP  18-03-02 17:06 OP:JMLC STATUS:               ID:20170203124756 L   I
 OLDACT:UP  17-02-03 13:38 OP:AMMR STATUS:               ID:20170203124500     3
 OLDACT:ARG 17-02-03 12:56 OP:AMMR STATUS:               ID:20170203124500     3
 2017-02-03-1245-00S.MAN___100                                                 6
 STAT SP IPHASW D HRMM SECON CODA AMPLIT PERI AZIMU VELO AIN AR TRES W  DIS CAZ7
 SMDR BN ESg      1248  9.02                             120    0.7710 35.7 258 
 SMDR BN  IAML    1248  9.27        22.7 1.00                          35.7 258 
 SMDR BE  IAML    1248 10.76        25.2 1.65                          35.7 258 
 MIDR BZ EP     D 1248  5.73   33                        113    1.0110 46.0 206 
 MIDR BN ESg    D 1248 10.15                             113   -0.5210 46.0 206 
 MIDR BN ES     D 1248 10.16                             113   -0.5110 46.0 206 
 MIDR BN  IAML    1248 10.23        44.5 0.15                          46.0 206 
 MIDR BE  IAML    1248 10.87        38.4 0.10                          46.0 206 
 REDR BZ EPg      1248 42.28   78                         92   -0.4810  299 269 
 REDR BN ESg      1249 16.61                              92   -0.2510  299 269 
 REDR BE  IAML    1249 16.79        12.7 2.90                           299 269 
 REDR BN  IAML    1249 17.70         4.7 1.20                           299 269 
                                                                                
 2017  2 7 0415 25.9 L  19.298 -70.611 12.0  DOM  7 1.0 2.0LDOM 3.1CDOM        1
 GAP=114        2.62       5.5     5.8 21.5  0.2488E+01 -0.4235E+02  0.2988E+02E
 ACTION:UP  18-03-02 17:06 OP:JMLC STATUS:               ID:20170207041525 L   I
 OLDACT:UP  17-02-07 18:35 OP:AMMR STATUS:               ID:20170207041500     3
 OLDACT:UP  17-02-07 12:07 OP:AMMR STATUS:               ID:20170207041500     3
 OLDACT:ARG 17-02-07 11:55 OP:nr   STATUS:               ID:20170207041500     3
 2017-02-07-0415-00S.MAN___100                                                 6
 STAT SP IPHASW D HRMM SECON CODA AMPLIT PERI AZIMU VELO AIN AR TRES W  DIS CAZ7
 SC01 BZ IP     C  415 28.62   51                        123   -0.9110 18.8 320 
 SC01 BE ES        415 32.45                             123    0.2510 18.8 320 
 SC01 BN  IAML     415 36.83      1666.8 0.60                          18.8 320 
 SC01 BE  IAML     415 37.10      1168.1 0.55                          18.8 320 
 ABDR BZ EPg    C  415 34.82   55                        105   -0.0810 53.8 182 
 ABDR BE ESg    C  415 42.83                             105    1.2710 53.8 182 
 ABDR BE  IAML     415 43.24       113.0 0.15                          53.8 182 
 ABDR BN  IAML     415 43.68        84.8 0.25                          53.8 182 
 LUDR BZ EPg    D  415 37.41   53                         99   -0.7510 75.0 332 
 LUDR BE ESg       415 49.14                              99    1.9110 75.0 332 
 LUDR BE  IAML     415 49.95       454.7 0.35                          75.0 332 
 LUDR BN  IAML     415 50.03       532.3 0.35                          75.0 332 
 NADR BZ EPg    C  415 37.97   57                         99   -0.9210 79.6  85 
 NADR BN  IAML     415 59.37         1.5 0.80                          79.6  85 
 SDDR BZ EPg    D  415 38.13   58                         99   -0.7710 79.6 244 
 SDDR BN ESg       415 48.31                              99   -0.2010 79.6 244 
 SDDR BN  IAML     415 48.98        21.2 0.30                          79.6 244 
 SDDR BE  IAML     415 50.81        12.1 0.50                          79.6 244 
 JIDR BZ EPg    C  415 51.64   51                         94    0.1410  158 236 
 JIDR BE  IAML     416 13.89        25.3 0.75                           158 236 
 JIDR BN  IAML     416 27.51        30.0 3.95                           158 236 
 MIDR BZ EPg       415 51.78   57                         94   -1.2810  168 102 
 MIDR BN ESg       416 14.50                              94    1.3510  168 102 
                                                                                
 2017  2 7 0452 43.6 L  18.810 -70.379113.9  DOM  7 0.8 2.4LDOM 2.9CDOM        1
 GAP= 96        2.01      11.3     7.5 16.1 -0.3427E+02 -0.3779E+02  0.6251E+02E
 ACTION:UP  18-03-02 17:06 OP:JMLC STATUS:               ID:20170207045243 L   I
 OLDACT:ARG 17-02-07 11:00 OP:nr   STATUS:               ID:20170207045000     3
 2017-02-07-0450-00S.MAN___100                                                 6
 STAT SP IPHASW D HRMM SECON CODA AMPLIT PERI AZIMU VELO AIN AR TRES W  DIS CAZ7
 ABDR BZ EPg    D  452 57.31   38                        166   -1.8510 26.1 271 
 ABDR BE ESg    C  453  9.88                             166   -0.7810 26.1 271 
 ABDR BN  IAML     453 10.75       209.9 0.25                          26.1 271 
 ABDR BE  IAML     453 10.92       106.4 0.40                          26.1 271 
 BADR BZ EPg    C  452 59.83   40                        156    0.2210 45.6 178 
 BADR BE EPg    C  452 59.97   34                        156           45.6 178 
 BADR BN  IAML     453 13.12       243.6 0.30                          45.6 178 
 SC01 BZ EPg    C  453  0.65   43                        143   -0.7510 77.6 332 
 SC01 BE ESg    C  453 15.56                             143    0.9910 77.6 332 
 SC01 BN  IAML     453 17.13        81.8 0.25                          77.6 332 
 SC01 BE  IAML     453 17.27       107.2 0.20                          77.6 332 
 NADR BZ EPg    D  453  1.32   41                        141   -0.3510 81.7  42 
 NADR BE ESg    C  453 15.74                             141    0.7110 81.7  42 
 NADR BN  IAML     453 17.40         6.2 0.15                          81.7  42 
 NADR BE  IAML     453 17.56       463.8 0.30                          81.7  42 
 SDDR BZ EPg    C  453  3.27   40                        136    0.2610 97.8 281 
 SDDR BE ESg    D  453 17.22                             136   -0.1410 97.8 281 
 SDDR BN  IAML     453 24.68        33.0 0.30                          97.8 281 
 SDDR BE  IAML     453 24.73        36.3 2.25                          97.8 281 
 PODR BZ EPg    D  453  5.70   47                        130    0.7110  119 233 
 PODR BE ESg    C  453 21.50                             130    0.6910  119 233 
 PODR BN  IAML     453 25.96        50.0 0.35                           119 233 
 MIDR BZ EPg    D  453  7.05   46                        124    0.1610  141  82 
 MIDR BE ESg    D  453 24.25                             124    0.1410  141  82 
 MIDR BE  IAML     453 25.66        37.4 0.40                           141  82 
 MIDR BN  IAML     453 25.95        28.0 0.25                           141  82 
                                                                                
 2017  2 7 1619 20.8 L  18.045 -67.949107.6  DOM  6 0.7 2.8LDOM 3.3CDOM        1
 GAP=187        1.95      22.4     8.3 21.2  0.1301E+03  0.1074E+03  0.2492E+03E
 ACTION:UP  18-03-02 17:06 OP:JMLC STATUS:               ID:20170207161920 L   I
 OLDACT:ARG 17-02-07 18:11 OP:AMMR STATUS:               ID:20170207161700     3
 2017-02-07-1617-00S.MAN___100                                                 6
 STAT SP IPHASW D HRMM SECON CODA AMPLIT PERI AZIMU VELO AIN AR TRES W  DIS CAZ7
 CRPR BZ EPg      1619 38.78   69                        136   -0.2710 91.2  93 
 CRPR BN  IAML    1619 52.58        92.7 2.30                          91.2  93 
 CRPR BE ESg      1619 52.65                             136    0.0910 91.2  93 
 CRPR BE  IAML    1619 55.86        79.5 0.45                          91.2  93 
 AGPR BZ EPg    C 1619 39.44   52                        133   -0.4010  100  62 
 AGPR BN ESg    D 1619 54.61                             133    0.6810  100  62 
 AGPR BE  IAML    1619 55.41       196.3 0.15                           100  62 
 AGPR BN  IAML    1619 57.01       237.4 0.35                           100  62 
 HIDR BZ EPg      1619 38.95   64                        132   -0.9510  101 307 
 HIDR BE ESg    D 1619 53.54                             132   -0.4810  101 307 
 HIDR BN  IAML    1619 56.48       146.3 0.20                           101 307 
 HIDR BE  IAML    1619 56.49       238.5 0.20                           101 307 
 AOPR BZ EPg    D 1619 41.83   61                        124   -0.8410  131  75 
 AOPR BE ESg    D 1619 59.50                             124    0.6510  131  75 
 AOPR BE  IAML    1620  1.48       956.7 0.30                           131  75 
 AOPR BN  IAML    1620  2.06       497.9 0.35                           131  75 
 MIDR BZ EPg      1619 44.59   65                        119   -0.5610  156 312 
 MIDR BN ESg      1620  3.70                             119    0.5410  156 312 
 MIDR BN  IAML    1620  4.69        37.2 2.00                           156 312 
 MIDR BE  IAML    1620  9.09        36.0 1.30                           156 312 
 BADR BZ EPg      1619 58.00                             105    1.5410  258 279 
                                                                                
 2017  2 8 0041 19.8 L  18.923 -73.231 11.2  DOM  6 0.6 2.7LDOM 3.4CDOM        1
 GAP=303        1.48       6.2    10.9109.4 -0.7161E+01  0.7921E+03 -0.2509E+03E
 ACTION:UP  18-03-02 17:06 OP:JMLC STATUS:               ID:20170208004119 L   I
 OLDACT:UP  17-02-08 10:41 OP:AMMR STATUS:               ID:20170208004100     3
 OLDACT:ARG 17-02-08 01:08 OP:plst STATUS:               ID:20170208004100     3
 2017-02-08-0041-00S.MAN___100                                                 6
 STAT SP IPHASW D HRMM SECON CODA AMPLIT PERI AZIMU VELO AIN AR TRES W  DIS CAZ7
 PAPH BZ EPg    D  041 36.94   64                         96   -0.3910  108 114 
 PAPH BN ESg    C  041 50.93                              96    0.6610  108 114 
 PAPH BN  IAML     041 52.61       608.3 0.20                           108 114 
 PAPH BE  IAML     041 53.19       459.8 0.16                           108 114 
 JIDR BZ EPg    C  041 44.10   62                         94   -0.4710  153 108 
 JIDR BN ESg    C  042  2.71                              94   -0.1510  153 108 
 JIDR BE  IAML     042  5.31       103.5 0.35                           153 108 
 JIDR BN  IAML     042  5.43        66.6 0.35                           153 108 
 NEDR BZ EPg    D  041 50.32   61                         93   -0.5810  192 104 
 NEDR BE ESg    C  042 13.87                              93   -0.0110  192 104 
 NEDR BN  IAML     042 17.87        66.9 0.65                           192 104 
 NEDR BE  IAML     042 18.19        62.1 0.25                           192 104 
 MCDR BZ EPg    C  041 52.99   45                         93    1.3110  197  57 
 MCDR BE ESg    C  042 14.79                              93   -0.4510  197  57 
 MCDR BE  IAML     042 19.58       102.2 0.45                           197  57 
 MCDR BN  IAML     042 20.55       107.7 1.00                           197  57 
 SDDR BZ EPg    C  041 52.98   72                         93    0.1010  204  88 
 SDDR BE ESg    C  042 16.88                              93   -0.4510  204  88 
 SDDR BN  IAML     042 17.36        70.6 0.85                           204  88 
 SDDR BE  IAML     042 17.88        58.6 0.65                           204  88 
 PODR BZ EPg    C  041 55.55   71                         93   -0.1910  222 112 
 PODR BE ESg    C  042 22.91                              93    0.6110  222 112 
 PODR BE  IAML     042 38.31        45.4 0.60                           222 112 
 PODR BN  IAML     042 49.48        44.1 0.65                           222 112 
                                                                                
 2017  2 8 0836 27.5 L  18.221 -67.482 19.7  DOM  5 0.9 2.3LDOM 3.2CDOM        1
 GAP=168        2.40      12.8     9.0 25.5  0.6130E+01  0.1720E+03 -0.6260E+02E
 ACTION:UP  18-03-02 17:06 OP:JMLC STATUS:               ID:20170208083627 L   I
 OLDACT:UP  17-02-08 11:01 OP:AMMR STATUS:               ID:20170208083600     3
 OLDACT:ARG 17-02-08 10:32 OP:nr   STATUS:               ID:20170208083600     3
 2017-02-08-0836-00S.MAN___100                                                 6
 STAT SP IPHASW D HRMM SECON CODA AMPLIT PERI AZIMU VELO AIN AR TRES W  DIS CAZ7
 CRPR BZ EPg    D  836 35.58   43                        108   -0.0110 47.9 120 
 CRPR BE ESg    D  836 42.46                             108    0.8510 47.9 120 
 CRPR BN  IAML     836 43.07       455.4 0.15                          47.9 120 
 CRPR BE  IAML     836 43.24       454.2 0.20                          47.9 120 
 AGPR BZ EPg    C  836 35.76   60                        108    0.1510 48.0  55 
 AGPR BE ESg    C  836 42.65                             108    1.0010 48.0  55 
 AGPR BN  IAML     836 44.87       256.0 0.45                          48.0  55 
 AGPR BE  IAML     836 48.02       153.0 0.90                          48.0  55 
 AOPR BZ EPg    C  836 38.71   69                         99   -1.3810 78.2  80 
 AOPR BE ESg    D  836 48.19                              99   -1.2510 78.2  80 
 AOPR BE  IAML     836 48.30       584.2 0.25                          78.2  80 
 AOPR BN  IAML     836 48.79       371.1 0.25                          78.2  80 
 HIDR BZ EPg    C  836 49.35   54                         94    0.4910  137 288 
 HIDR BN  IAML     836 57.64        35.4 0.10                           137 288 
 HIDR BE ESg    C  837  3.37                              94   -1.3410  137 288 
 HIDR BE  IAML     837  4.91        33.8 2.05                           137 288 
 MIDR BZ EPg    C  836 56.90   61                         93    0.6110  186 297 
 MIDR BE ESg    D  837 18.51                              93    0.8810  186 297 
 MIDR BE  IAML     837 24.33         5.2 0.30                           186 297 
 MIDR BN  IAML     837 36.10        24.4 3.40                           186 297 
                                                                                
 2017  2 9 1704 43.5 L  17.961 -69.369 15.0  DOM  3 0.0 2.0LDOM 3.3CDOM        1
 GAP=283        0.30      15.3    15.7  0.0 -0.2212E+03  0.1720E+03 -0.6260E+02E
 ACTION:UP  18-03-02 17:06 OP:JMLC STATUS:               ID:20170209170443 L   I
 OLDACT:UP  17-02-09 20:11 OP:AMMR STATUS:               ID:20170209170200     3
 OLDACT:ARG 17-02-09 20:06 OP:AMMR STATUS:               ID:20170209170200     3
 2017-02-09-1702-00S.MAN___100                                                 6
 STAT SP IPHASW D HRMM SECON CODA AMPLIT PERI AZIMU VELO AIN AR TRES W  DIS CAZ7
 BADR BZ EPg  4   17 5  8.13                              92    6.35 0  116 295 
 BADR BN ESg  4   17 5 26.73                              92   11.45 0  116 295 
 BADR BN  IAML    17 5 28.14        66.1 0.20                           116 295 
 MIDR BZ EPg  3   17 5  2.09   55                         92    0.00 2  118  17 
 MIDR BN ESg      17 5 15.82                              92   -0.0010  118  17 
 MIDR BE  IAML    17 5 18.47        23.7 0.15                           118  17 
 MIDR BN  IAML    17 5 18.79        23.3 0.65                           118  17 
 ABDR BZ EPg  4   17 5 10.55   53                         91    1.50 0  163 306 
 ABDR BN ESg  4   17 5 30.29                              91    2.36 0  163 306 
 SDDR BZ EPg  3   17 5 19.41   64                         91   -0.00 2  232 299 
 SDDR BE  IAML    17 5 49.54         9.9 2.50                           232 299 
                                                                                
 2017  2 9 1956  7.9 L  20.173 -70.753 12.0  DOM  8 0.8 2.5LDOM 3.4CDOM        1
 GAP=141        0.98       5.6     6.6 21.6 -0.6047E+01 -0.6077E+02 -0.1316E+02E
 ACTION:UP  18-03-02 17:06 OP:JMLC STATUS:               ID:20170209195607 L   I
 OLDACT:UP  17-02-09 20:26 OP:AMMR STATUS:               ID:20170209195400     3
 OLDACT:ARG 17-02-09 20:06 OP:AMMR STATUS:               ID:20170209195400     3
 2017-02-09-1954-00S.MAN___100                                                 6
 STAT SP IPHASW D HRMM SECON CODA AMPLIT PERI AZIMU VELO AIN AR TRES W  DIS CAZ7
 LUDR BZ EP   1   1956 14.10   46                        108   -0.15 7 37.4 214 
 LUDR BN ES   1   1956 20.02                             108    1.09 7 37.4 214 
 LUDR BN  IAML    1956 23.40      1828.3 0.50                          37.4 214 
 LUDR BE  IAML    1956 23.48      1513.1 0.45                          37.4 214 
 MCDR BZ EPg  3   1956 24.12   52                         97    0.03 2 99.5 252 
 MCDR BN  IAML    1956 40.51       114.7 0.55                          99.5 252 
 MCDR BE  IAML    1956 43.34        75.1 0.10                          99.5 252 
 REDR BZ EPg  3   1956 29.35   55                         95   -1.31 2  140 225 
 REDR BN ESg  1 C 1956 47.44                              95   -0.05 7  140 225 
 REDR BN  IAML    1956 48.82        70.9 0.15                           140 225 
 REDR BE  IAML    1956 49.84        90.3 0.55                           140 225 
 SDDR BZ EPg      1956 30.51   95                         95   -0.6510  144 203 
 SDDR BN ESg    C 1956 48.24                              95   -0.1210  144 203 
 SDDR BE  IAML    1956 50.02        49.2 0.40                           144 203 
 SDDR BN  IAML    1956 50.90        48.6 0.55                           144 203 
 ABDR BZ EPg    D 1956 32.55   74                         96    0.1310  151 175 
 ABDR BN ESg  3   1956 51.40                              96    0.85 2  151 175 
 ABDR BE  IAML    1956 56.56        64.5 0.30                           151 175 
 GRTK BZ EPg  3   1956 33.54   81                         94    0.81 2  153 345 
 GRTK BE ESg  3   1956 53.87                              94    2.77 2  153 345 
 GRTK BE  IAML    1956 57.99        71.8 0.25                           153 345 
 GRTK BN  IAML    1956 59.70        55.3 2.00                           153 345 
 BADR BZ EPg  3   1956 39.90   69                         94   -0.45 2  201 168 
 BADR BN ESg  3   1957  5.20                              94    0.85 2  201 168 
 BADR BE  IAML    1957  6.21        82.7 0.50                           201 168 
 BADR BN  IAML    1957 10.63        87.2 0.65                           201 168 
 MIDR BZ EPg  3   1956 42.86   66                         93   -0.90 2  222 126 
 MIDR BN ESg  3   1957  9.77                              93   -0.52 2  222 126 
 MIDR BE  IAML    1957 11.47        33.1 0.35                           222 126 
 MIDR BN  IAML    1957 11.70        28.0 2.75                           222 126 
                                                                                
