 2017  220 0345 52.2 L  18.575 -68.802102.5  DOM 10 0.8 2.6LDOM 3.5CDOM        1
 GAP=155        2.05      16.9     6.2 11.5  0.3084E+02  0.8187E+01  0.7119E+02E
 ACTION:UP  18-03-02 17:06 OP:JMLC STATUS:               ID:20170220034552 L   I
 OLDACT:UP  17-02-20 04:45 OP:AMMR STATUS:               ID:20170220034500     3
 OLDACT:ARG 17-02-20 04:24 OP:plst STATUS:               ID:20170220034500     3
 2017-02-20-0345-00S.MAN___100                                                 6
 STAT SP IPHASW D HRMM SECON CODA AMPLIT PERI AZIMU VELO AIN AR TRES W  DIS CAZ7
 HIDR BZ EPg    C  346  4.79   64                        174   -0.8610 9.39  79 
 HIDR BN ESg    D  346 15.55                             174   -0.0510 9.39  79 
 HIDR BN  IAML     346 16.73       138.8 0.25                          9.39  79 
 HIDR BE  IAML     346 17.49       117.5 0.30                          9.39  79 
 MIDR BZ EPg    C  346  6.40   63                        150   -0.7910 52.2 330 
 MIDR BN ESg    D  346 18.93                             150    0.6510 52.2 330 
 MIDR BE  IAML     346 20.09        76.9 0.30                          52.2 330 
 MIDR BN  IAML     346 20.84        53.7 0.15                          52.2 330 
 SMDR BZ EPg    D  346  9.40   55                        135   -0.4310 88.9 333 
 SMDR BE  IAML     346 26.69        48.7 0.50                          88.9 333 
 SMDR BN  IAML     346 26.94        44.2 0.45                          88.9 333 
 NADR BZ EPg    D  346 14.80                             120    0.1110  141 308 
 BADR BZ EPg    C  346 16.09                             115   -1.3410  166 263 
 BADR BN ESg    C  346 37.17                             115    1.0610  166 263 
 BADR BN  IAML     346 42.39        56.3 0.75                           166 263 
 BADR BE  IAML     346 42.69        65.0 0.20                           166 263 
 AGPR BZ EPg    C  346 19.71                             113    0.9610  179  93 
 AGPR BN  IAML     346 45.42       127.3 1.75                           179  93 
 AGPR BE  IAML     346 46.97       100.0 0.45                           179  93 
 CRPR BZ EPg    D  346 19.55  100                        111   -0.5810  192 109 
 ABDR BZ EPg    D  346 20.00   89                        111   -0.7310  194 278 
 ABDR BN ESg    C  346 42.45                             111    0.6110  194 278 
 ABDR BN  IAML     346 44.52        29.0 0.25                           194 278 
 ABDR BE  IAML     346 47.34        35.3 0.30                           194 278 
 AOPR BZ EPg    C  346 24.03                             108    0.9710  218  96 
 AOPR BE  IAML     346 53.66       168.8 0.30                           218  96 
 AOPR BN  IAML     346 55.05        97.4 0.40                           218  96 
 SDDR BZ EPg    C  346 28.99   81                        103    0.4310  266 280 
                                                                                
 2017  220 0712 36.7 L  18.244 -67.385 28.3  DOM  3 0.2 2.6LDOM 2.6CDOM        1
 GAP=279        0.47       1.9     3.5  5.1 -0.8946E+00 -0.1622E+01  0.1806E+01E
 ACTION:UP  18-03-02 17:06 OP:JMLC STATUS:               ID:20170220071236 L   I
 OLDACT:UP  17-02-20 13:06 OP:FMGP STATUS:               ID:20170220071200     3
 OLDACT:ARG 17-02-20 13:04 OP:fmgp STATUS:               ID:20170220071200     3
 2017-02-20-0712-00S.MAN___100                                                 6
 STAT SP IPHASW D HRMM SECON CODA AMPLIT PERI AZIMU VELO AIN AR TRES W  DIS CAZ7
 AGPR BZ EP        712 43.85   34                        120   -0.2010 38.3  49 
 AGPR BN ES        712 49.44                             120   -0.0210 38.3  49 
 AGPR BN ESg       712 49.60                             120    0.1410 38.3  49 
 AGPR BN  IAML     712 49.82       602.0 0.15                          38.3  49 
 CRPR BZ EP        712 44.65   36                        118    0.2910 40.9 130 
 CRPR BN ES        712 49.83                             118   -0.1710 40.9 130 
 CRPR BN  IAML     712 52.96       165.9 0.25                          40.9 130 
 AOPR BZ EP        712 47.84   31                        103   -0.1010 67.7  80 
 AOPR BN ES        712 56.21                             103   -0.0210 67.7  80 
 AOPR BN ESg       712 56.31                             103    0.0810 67.7  80 
 AOPR BN  IAML     712 56.64       781.6 0.20                          67.7  80 
                                                                                
 2017  220 0912  5.2 L  18.464 -68.897 90.5  DOM  6 0.7 2.0LDOM 3.0CDOM        1
 GAP=163        1.68      17.3     7.6 26.4 -0.6721E+01 -0.1819E+02  0.3771E+03E
 ACTION:UP  18-03-02 17:06 OP:JMLC STATUS:               ID:20170220091205 L   I
 OLDACT:UP  17-02-20 18:27 OP:FMGP STATUS:               ID:20170220090800     3
 OLDACT:UP  17-02-20 17:03 OP:FMGP STATUS:               ID:20170220090800     3
 OLDACT:ARG 17-02-20 16:59 OP:fmgp STATUS:               ID:20170220090800     3
 2017-02-20-0908-00S.MAN___100                                                 6
 STAT SP IPHASW D HRMM SECON CODA AMPLIT PERI AZIMU VELO AIN AR TRES W  DIS CAZ7
 HIDR BZ EPg       912 17.37   35                        164   -0.2610 23.8  54 
 HIDR BN  IAML     912 29.81        56.5 0.25                          23.8  54 
 HIDR BE  IAML     912 30.51        64.1 0.30                          23.8  54 
 MIDR BZ EPg    C  912 18.15   35                        143   -1.3910 59.7 344 
 MIDR BN ESg       912 30.46                             143    0.3410 59.7 344 
 MIDR BN  IAML     912 33.39        14.6 1.50                          59.7 344 
 MIDR BE  IAML     912 33.54        11.8 1.85                          59.7 344 
 SMDR BE ESg       912 35.98                             127    0.5210 96.4 342 
 SMDR BE  IAML     912 38.87        16.6 1.20                          96.4 342 
 BADR BZ EPg       912 28.50   44                        112   -0.2310  155 268 
 BADR BN ESg       912 46.51                             112    0.4010  155 268 
 BADR BE  IAML     912 52.13        13.9 0.35                           155 268 
 ABDR BE  IAML     912 54.02        25.2 0.60                           187 282 
 CRPR BZ EPg       912 34.04   77                        105    0.6210  198 105 
 CRPR BN  IAML     913  6.81        35.0 2.80                           198 105 
 CRPR BE  IAML     913  8.56        29.6 3.35                           198 105 
                                                                                
 2017  220 1428 36.4 L  18.550 -68.836102.9  DOM 10 0.8 2.8LDOM 3.6CDOM 2.9WDOM1
 SPEC AVERAGE  MO 13.4 ST 20.2 OM  2.0 f0 8.86 R0.3161 AL 0.00 WI 20.0 MW  2.9 3
 SPEC SD       MO  0.3 ST 17.1 OM  0.4 f0 4.89 R0.2971 AL      WI      MW  0.2 3
 GAP=166        2.23      15.9     7.8 13.2  0.1295E+02  0.1639E+02  0.1105E+03E
 SPEC HIDRBH Z MO 13.1 ST 52.3 OM  1.6 f0 16.0 R0.1038 AL-0.00 WI 20.0 MW  2.7 3
 SPEC HIDRBH Z T142858 K 0.020 GD  103 VS 4.49 DE 3.40 Q0400.0 QA 0.70 Q1 1.00 3
 SPEC MIDRBH Z MO 13.1 ST 34.5 OM  1.5 f0 14.5 R0.1146 AL-0.00 WI 20.0 MW  2.7 3
 SPEC MIDRBH Z T1429 1 K 0.020 GD  115 VS 4.49 DE 3.40 Q0400.0 QA 0.70 Q1 1.00 3
 SPEC SMDRBH Z MO 13.0 ST  1.6 OM  1.4 f0 5.37 R0.3094 AL-0.00 WI 20.0 MW  2.6 3
 SPEC SMDRBH Z T1429 6 K 0.020 GD  136 VS 4.49 DE 3.40 Q0400.0 QA 0.70 Q1 1.00 3
 SPEC BADRBH Z MO 13.2 ST 23.3 OM  1.4 f0 11.6 R0.1432 AL-0.00 WI 20.0 MW  2.7 3
 SPEC BADRBH Z T142919 K 0.020 GD  191 VS 4.49 DE 3.40 Q0400.0 QA 0.70 Q1 1.00 3
 SPEC AGPRBH Z MO 13.6 ST 15.1 OM  1.8 f0 7.18 R0.2314 AL-0.00 WI 20.0 MW  3.0 3
 SPEC AGPRBH Z T142925 K 0.020 GD  209 VS 4.49 DE 3.40 Q0400.0 QA 0.70 Q1 1.00 3
 SPEC AOPRBH Z MO 13.9 ST 14.0 OM  2.0 f0 5.71 R0.2909 AL-0.00 WI 20.0 MW  3.2 3
 SPEC AOPRBH Z T142930 K 0.020 GD  243 VS 4.49 DE 3.40 Q0400.0 QA 0.70 Q1 1.00 3
 SPEC SDDRBH Z MO 13.7 ST0.190 OM  1.7 f0 1.63 R1.0192 AL-0.00 WI 20.0 MW  3.1 3
 SPEC SDDRBH Z T142941 K 0.020 GD  282 VS 4.49 DE 3.40 Q0400.0 QA 0.70 Q1 1.00 3
 2017-02-20-1428-00S.MAN___100                                                 6
 OLDACT:UP  17-02-20 14:58 OP:JMLC STATUS:               ID:20170220142800     3
 OLDACT:ARG 17-02-20 14:41 OP:jmlc STATUS:               ID:20170220142800     3
 ACTION:UP  18-03-02 17:06 OP:JMLC STATUS:               ID:20170220142836 L   I
 OLDACT:UP  17-02-20 15:18 OP:JMLC STATUS:               ID:20170220142800     3
 OLDACT:UP  17-02-20 15:12 OP:JMLC STATUS:               ID:20170220142800     3
 STAT SP IPHASW D HRMM SECON CODA AMPLIT PERI AZIMU VELO AIN AR TRES W  DIS CAZ7
 HIDR BZ EPg      1428 48.70   53                        172   -1.2710 13.6  70 
 HIDR BN ESg      1429  0.30                             172    0.3010 13.6  70 
 HIDR BN  IAML    1429  1.48       378.2 0.20                          13.6  70 
 HIDR BE  IAML    1429  2.02       599.9 0.30                          13.6  70 
 MIDR BZ EPg    C 1428 50.38   74                        150   -1.1210 53.0 335 
 MIDR BN ESg      1429  2.84                             150    0.1910 53.0 335 
 MIDR BN  IAML    1429  5.54       163.7 0.20                          53.0 335 
 MIDR BE  IAML    1429  5.63       135.6 0.20                          53.0 335 
 SMDR BZ EPg      1428 53.23   61                        135   -0.9410 89.9 336 
 SMDR BN ESg    C 1429  8.46                             135    1.1610 89.9 336 
 SMDR BE  IAML    1429 11.27        61.8 0.75                          89.9 336 
 SMDR BN  IAML    1429 13.67        74.3 0.45                          89.9 336 
 BADR BZ EPg      1429  0.25   85                        116   -1.0210  162 264 
 BADR BN ESg      1429 20.38                             116    0.7210  162 264 
 BADR BE  IAML    1429 24.54       104.3 0.20                           162 264 
 BADR BN  IAML    1429 25.12       114.0 0.20                           162 264 
 AGPR BZ EPg    C 1429  4.23   77                        112    0.8610  182  93 
 AGPR BE  IAML    1429 33.48       131.8 0.25                           182  93 
 ABDR BZ EPg    D 1429  4.21   86                        112   -0.4210  191 279 
 ABDR BE  IAML    1429 27.03        49.3 0.50                           191 279 
 ABDR BN  IAML    1429 30.67        80.6 0.20                           191 279 
 CRPR BE  IAML    1429 31.67        40.7 0.85                           194 108 
 AOPR BZ EPg      1429  8.06   93                        107    0.3910  221  96 
 AOPR BN  IAML    1429 38.25       227.2 0.30                           221  96 
 AOPR BE  IAML    1429 39.09       346.4 0.30                           221  96 
 PODR BZ EPg    D 1429 13.54   76                        104    1.0910  262 261 
 PODR BN  IAML    1429 44.82        18.1 0.35                           262 261 
 PODR BE  IAML    1429 46.86        23.2 0.30                           262 261 
 SDDR BZ EPg      1429 12.51  113                        103    0.0510  263 281 
 SDDR BE  IAML    1429 47.49        43.5 0.75                           263 281 
 SDDR BN  IAML    1429 47.56        44.2 0.60                           263 281 
                                                                                
 2017  220 1644  7.1 L  18.942 -70.469 64.5  DOM  3 0.0 1.9LDOM 2.6CDOM        1
 GAP=219        0.30       2.5     2.4  3.6 -0.7842E+00 -0.6272E+01 -0.2072E+01E
 ACTION:UP  18-03-02 17:06 OP:JMLC STATUS:               ID:20170220164407 L   I
 OLDACT:UP  17-02-20 16:55 OP:JMLC STATUS:               ID:20170220164300     3
 OLDACT:ARG 17-02-20 16:52 OP:fmgp STATUS:               ID:20170220164300     3
 2017-02-20-1643-00S.MAN___100                                                 6
 STAT SP IPHASW D HRMM SECON CODA AMPLIT PERI AZIMU VELO AIN AR TRES W  DIS CAZ7
 ABDR BZ EPg      1644 16.94   21                        160    0.0410 22.0 229 
 ABDR BE ESg      1644 24.12                             160   -0.0210 22.0 229 
 ABDR BE  IAML    1644 26.55        59.0 0.25                          22.0 229 
 BADR BZ EPg      1644 19.34   32                        131   -0.0510 61.2 169 
 BADR BN ESg      1644 28.50                             131    0.0310 61.2 169 
 BADR BN  IAML    1644 29.68        80.6 0.20                          61.2 169 
 MIDR BZ EPg      1644 28.90   46                        104    0.0110  150  88 
 MIDR BN ESg    D 1644 44.99                             104   -0.0110  150  88 
 MIDR BN  IAML    1644 47.11        11.3 4.00                           150  88 
                                                                                
 2017  220 2126 56.0 L  19.494 -70.436 23.0  DOM 10 0.8 3.1LDOM 3.4CDOM        1
 GAP= 97        2.27       6.8     5.1 21.4 -0.2243E+01 -0.5260E+02  0.4202E+02E
 ACTION:UP  18-03-02 17:06 OP:JMLC STATUS:               ID:20170220212656 L   I
 OLDACT:ARG 17-02-20 21:32 OP:AMMR STATUS:               ID:20170220212600     3
 2017-02-20-2126-00S.MAN___100                                                 6
 STAT SP IPHASW D HRMM SECON CODA AMPLIT PERI AZIMU VELO AIN AR TRES W  DIS CAZ7
 SC01 BZ EP     D 2127  1.70   86                        124   -0.4210 31.5 256 
 SC01 BE ES     C 2127  7.62                             124    0.9610 31.5 256 
 SC01 BE  IAML    2127 13.16      2960.2 0.65                          31.5 256 
 SC01 BN  IAML    2127 14.43      3486.2 0.30                          31.5 256 
 SODR BZ EPg      2127  1.10   75                        123   -1.0810 32.1 333 
 SODR BN  IAML    2127 14.41      3064.7 1.25                          32.1 333 
 SODR BE  IAML    2127 14.52      3542.1 1.25                          32.1 333 
 CADR BZ EPg      2127  4.64                             109   -0.7210 55.4  70 
 CADR BE  IAML    2127 17.88      3322.5 0.80                          55.4  70 
 CADR BN  IAML    2127 21.20      3295.8 0.55                          55.4  70 
 NADR BZ EPg      2127  5.96   62                        106   -0.4710 62.8 104 
 LUDR BZ EPg      2127  6.90   61                        104   -0.5710 69.9 309 
 LUDR BN ESg      2127 17.49                             104    1.5210 69.9 309 
 LUDR BN  IAML    2127 18.16      4274.4 0.45                          69.9 309 
 LUDR BE  IAML    2127 20.81      2852.3 0.30                          69.9 309 
 ABDR BZ EPg    D 2127  8.52   61                        104   -0.3510 78.1 195 
 ABDR BN  IAML    2127 21.79       649.9 0.30                          78.1 195 
 ABDR BE  IAML    2127 21.84       962.1 0.55                          78.1 195 
 SDDR BZ EPg    D 2127 12.10   74                         98   -0.8310  106 238 
 SDDR BE ESg    C 2127 25.65                              98    0.1910  106 238 
 SDDR BE  IAML    2127 26.89       261.4 0.60                           106 238 
 SDDR BN  IAML    2127 29.24       221.1 0.70                           106 238 
 BADR BZ EPg      2127 15.49   86                         97    0.2510  122 176 
 BADR BN  IAML    2127 36.34       499.2 0.65                           122 176 
 BADR BE  IAML    2127 36.88       395.3 0.25                           122 176 
 SMDR BE ESg    D 2127 34.04                              96    1.6710  133 100 
 SMDR BN  IAML    2127 36.91       141.2 0.35                           133 100 
 SMDR BE  IAML    2127 38.98       211.2 0.95                           133 100 
 MIDR BZ EPg      2127 20.27   77                         95   -0.1510  156 111 
 MIDR BE  IAML    2127 40.91       111.6 1.00                           156 111 
 MIDR BN  IAML    2127 43.69       126.5 0.65                           156 111 
                                                                                
 2017  220 2138 43.1 L  19.485 -70.381 21.7  DOM  6 1.0 2.0LDOM 3.0CDOM        1
 GAP=119        2.48       7.1     6.5 42.6 -0.2094E+01  0.8432E+02  0.8609E+02E
 ACTION:UP  18-03-02 17:06 OP:JMLC STATUS:               ID:20170220213843 L   I
 OLDACT:UP  17-02-20 22:02 OP:AMMR STATUS:               ID:20170220213600     3
 OLDACT:ARG 17-02-20 21:51 OP:AMMR STATUS:               ID:20170220213600     3
 2017-02-20-2136-00S.MAN___100                                                 6
 STAT SP IPHASW D HRMM SECON CODA AMPLIT PERI AZIMU VELO AIN AR TRES W  DIS CAZ7
 CADR BN ESg      2138 57.29                             109   -0.7610 50.5  66 
 CADR BN  IAML    2139  8.42       255.0 1.55                          50.5  66 
 LUDR BZ EPg      2138 56.31   44                        102    1.0310 75.1 307 
 LUDR BE ESg    D 2139  4.69                             102    0.3810 75.1 307 
 LUDR BE  IAML    2139  5.31       137.3 0.25                          75.1 307 
 LUDR BN  IAML    2139  6.46       160.5 0.40                          75.1 307 
 ABDR BZ EPg    C 2138 55.72   48                        102   -0.2910 78.8 199 
 ABDR BN ESg      2139  6.69                             102    1.1110 78.8 199 
 ABDR BN  IAML    2139  6.92        67.0 0.35                          78.8 199 
 SDDR BZ EPg      2138 58.80                              97   -1.8410  111 240 
 SDDR BN ESg      2139 13.19                              97   -0.4510  111 240 
 SDDR BE  IAML    2139 15.84        15.7 0.25                           111 240 
 SDDR BN  IAML    2139 16.34        14.3 0.35                           111 240 
 BADR BN  IAML    2139 20.04        39.9 0.10                           120 179 
 BADR BE  IAML    2139 22.73        31.9 0.20                           120 179 
 MIDR BZ EPg    C 2139  7.43   54                         95    0.8110  151 111 
 MIDR BE  IAML    2139 28.12        11.1 1.90                           151 111 
 MIDR BN  IAML    2139 29.31        10.7 0.70                           151 111 
                                                                                
 2017  220 2146 15.9 L  19.486 -70.420 15.0  DOM  7 0.8 2.4LDOM 3.1CDOM        1
 GAP=150        2.05       6.2     6.0 19.3  0.9372E+01 -0.5536E+02 -0.9068E+01E
 ACTION:UP  18-03-02 17:06 OP:JMLC STATUS:               ID:20170220214615 L   I
 OLDACT:ARG 17-02-20 21:51 OP:AMMR STATUS:               ID:20170220214600     3
 2017-02-20-2146-00S.MAN___100                                                 6
 STAT SP IPHASW D HRMM SECON CODA AMPLIT PERI AZIMU VELO AIN AR TRES W  DIS CAZ7
 SC01 BZ EPg    D 2146 20.97   53                        109   -0.6710 32.9 259 
 SC01 BN ESg      2146 26.89                             109    0.9810 32.9 259 
 SC01 BN  IAML    2146 33.65       555.6 0.30                          32.9 259 
 SC01 BE  IAML    2146 36.36       500.7 0.45                          32.9 259 
 NADR BZ EPg      2146 25.15                              96   -0.6610 61.0 104 
 LUDR BZ EPg      2146 26.47   49                         94   -0.9710 71.8 309 
 LUDR BE ESg    C 2146 36.92                              94    0.9310 71.8 309 
 LUDR BN  IAML    2146 37.44       652.5 0.45                          71.8 309 
 LUDR BE  IAML    2146 38.36       378.9 0.25                          71.8 309 
 ABDR BZ EPg    D 2146 27.73   51                         95   -0.7510 77.6 196 
 ABDR BE ESg    D 2146 38.52                              95    0.7210 77.6 196 
 ABDR BN  IAML    2146 40.11       194.5 0.30                          77.6 196 
 ABDR BE  IAML    2146 41.00       221.8 0.40                          77.6 196 
 SDDR BZ EPg    D 2146 32.35   62                         92   -0.4710  107 239 
 SDDR BE  IAML    2146 46.08        39.1 0.65                           107 239 
 SDDR BN  IAML    2146 48.41        48.0 0.60                           107 239 
 BADR BZ EPg      2146 34.70   57                         92   -0.1610  121 177 
 BADR BN  IAML    2146 53.08        85.5 0.30                           121 177 
 SMDR BN ESg      2146 52.71                              92    1.0710  131  99 
 SMDR BN  IAML    2146 59.37        31.0 0.40                           131  99 
                                                                                
