 2017  2 9 2335 25.5 L  19.875 -72.549  0.0  DOM  5 0.6 2.5LDOM 3.2CDOM        1
 GAP=304        1.23      13.2    11.2999.9 -0.4505E+02  0.5412E+04 -0.1577E+05E
 ACTION:UP  18-03-02 17:06 OP:JMLC STATUS:               ID:20170209233525 L   I
 OLDACT:ARG 17-02-09 23:41 OP:AMMR STATUS:               ID:20170209233400     3
 2017-02-09-2334-00S.MAN___100                                                 6
 STAT SP IPHASW D HRMM SECON CODA AMPLIT PERI AZIMU VELO AIN AR TRES W  DIS CAZ7
 MCDR BZ EPg    C 2335 39.92   45                         90   -0.6410 93.4  89 
 MCDR BN ESg    D 2335 52.11                              90    0.3910 93.4  89 
 MCDR BN  IAML    2335 53.83       194.8 0.10                          93.4  89 
 MCDR BE  IAML    2335 54.34       153.0 0.25                          93.4  89 
 REDR BZ EPg  3   2335 42.62   47                         90   -0.75 2  111 127 
 REDR BN ESg    D 2335 55.96                              90   -0.6510  111 127 
 REDR BN  IAML    2335 56.58       249.1 0.20                           111 127 
 REDR BE  IAML    2336  1.68       326.5 0.15                           111 127 
 SDDR BZ EPg    D 2335 52.80   53                         90    0.6710  165 127 
 SDDR BN ESg      2336 12.21                              90    0.3610  165 127 
 SDDR BN  IAML    2336 14.51        27.1 0.75                           165 127 
 SDDR BE  IAML    2336 18.63        21.6 0.50                           165 127 
 PODR BZ EPg  3   2336  3.00   66                         90    0.19 2  231 145 
 ABDR BN ESg  3   2336 29.57                              91   -1.52 2  234 120 
 ABDR BE  IAML    2336 32.16        31.5 1.30                           234 120 
 ABDR BN  IAML    2336 32.51        31.9 0.60                           234 120 
                                                                                
 2017  211 1915 46.4 L  19.769 -70.894 18.4  DOM  7 0.9 2.6LDOM 3.2CDOM 3.1WDOM1
 SPEC AVERAGE  MO 13.8 ST  7.4 OM  3.0 f0 3.58 R0.6454 AL 0.00 WI 20.0 MW  3.1 3
 SPEC SD       MO  0.3 ST 12.9 OM  0.6 f0 2.14 R0.3471 AL      WI      MW  0.2 3
 GAP=163        2.51       4.9     8.4 13.7  0.1060E+02 -0.2180E+01  0.1749E+02E
 SPEC LUDRBH Z MO 14.1 ST 35.9 OM  3.2 f0 6.80 R0.2410 AL-0.00 WI 20.0 MW  3.3 3
 SPEC LUDRBH Z T191551 K 0.020 GD 23.7 VS 4.43 DE 3.34 Q0400.0 QA 0.70 Q1 1.00 3
 SPEC MADRBH Z MO 13.8 ST  1.2 OM  2.8 f0 2.59 R0.6329 AL-0.00 WI 20.0 MW  3.2 3
 SPEC MADRBH Z T191555 K 0.020 GD 36.4 VS 4.43 DE 3.34 Q0400.0 QA 0.70 Q1 1.00 3
 SPEC SC01BH Z MO 13.7 ST0.428 OM  2.6 f0 1.98 R0.8278 AL-0.00 WI 20.0 MW  3.1 3
 SPEC SC01BH Z T191558 K 0.020 GD 45.6 VS 4.43 DE 3.34 Q0400.0 QA 0.70 Q1 1.00 3
 SPEC MCDRBH Z MO 13.4 ST  6.2 OM  2.0 f0 6.26 R0.2618 AL-0.00 WI 20.0 MW  2.9 3
 SPEC MCDRBH Z T1916 9 K 0.020 GD 83.2 VS 4.43 DE 3.34 Q0400.0 QA 0.70 Q1 1.00 3
 SPEC SDDRBH Z MO 14.1 ST0.262 OM  2.6 f0 1.30 R1.2608 AL-0.00 WI 20.0 MW  3.3 3
 SPEC SDDRBH Z T191611 K 0.020 GD 98.5 VS 4.43 DE 3.34 Q0400.0 QA 0.70 Q1 1.00 3
 SPEC ABDRBH Z MO 13.5 ST0.549 OM  2.0 f0 2.53 R0.6479 AL-0.00 WI 20.0 MW  3.0 3
 SPEC ABDRBH Z T191615 K 0.020 GD  111 VS 4.43 DE 3.34 Q0400.0 QA 0.70 Q1 1.00 3
 2017-02-11-1914-00S.MAN___100                                                 6
 OLDACT:ARG 17-02-11 19:24 OP:jrdn STATUS:               ID:20170211191400     3
 ACTION:UP  18-03-02 17:06 OP:JMLC STATUS:               ID:20170211191546 L   I
 OLDACT:UP  17-02-11 19:40 OP:AMMR STATUS:               ID:20170211191400     3
 OLDACT:UP  17-02-11 19:32 OP:AMMR STATUS:               ID:20170211191400     3
 STAT SP IPHASW D HRMM SECON CODA AMPLIT PERI AZIMU VELO AIN AR TRES W  DIS CAZ7
 LUDR BZ EPg    C 1915 49.00   37                        139   -1.1610 15.0 336 
 LUDR BE ESg    C 1915 52.91                             139   -0.0310 15.0 336 
 LUDR BZ  IAML    1915 54.04      3344.5 0.75                          15.0 336 
 MADR BZ EPg    D 1915 51.14   66                        117   -1.0110 31.4 224 
 MADR BN ESg    D 1915 56.80                             117    0.4010 31.4 224 
 MADR BZ  IAML    1915 58.68       550.1 0.30                          31.4 224 
 SC01 BN ESg    C 1916  0.48                             109    1.5510 41.7 155 
 SC01 BZ  IAML    1916  2.73       307.3 0.40                          41.7 155 
 MCDR BN ESg    C 1916 10.53                              97    1.4810 81.1 280 
 MCDR BZ  IAML    1916 12.81       179.2 0.30                          81.1 280 
 SDDR BZ EPg    D 1916  0.53   66                         96   -1.2810 96.8 206 
 SDDR BN ESg    D 1916 12.72                              96   -0.5010 96.8 206 
 SDDR BZ  IAML    1916 13.92       197.8 0.55                          96.8 206 
 ABDR BZ EPg      1916  3.35   73                         95   -0.5310  110 165 
 ABDR BE ESg    C 1916 17.37                              95    0.5610  110 165 
 ABDR BZ  IAML    1916 17.62       112.9 0.55                           110 165 
 GRTK BE ESg      1916 39.39                              92    0.5310  194 353 
 GRTK BZ  IAML    1916 49.57       159.9 3.75                           194 353 
                                                                                
 2017  211 2107 12.1 L  18.707 -71.693 22.9  DOM  6 1.0 2.2LDOM 3.1CDOM 2.9WDOM1
 SPEC AVERAGE  MO 13.4 ST  5.7 OM  2.8 f0 5.23 R0.3520 AL 0.00 WI 20.0 MW  2.9 3
 SPEC SD       MO  0.2 ST  6.9 OM  0.8 f0 1.82 R0.1172 AL      WI      MW  0.1 3
 GAP=162        2.63       8.2     5.7 23.4 -0.8707E+01 -0.1389E+01 -0.3655E+02E
 SPEC NEDRBH Z MO 13.6 ST  1.2 OM  2.5 f0 3.15 R0.5192 AL-0.00 WI 20.0 MW  3.0 3
 SPEC NEDRBH Z T21 722 K 0.020 GD 41.2 VS 4.42 DE 3.33 Q0400.0 QA 0.70 Q1 1.00 3
 SPEC SDDRBH Z MO 13.1 ST0.993 OM  1.9 f0 4.17 R0.3922 AL-0.00 WI 20.0 MW  2.7 3
 SPEC SDDRBH Z T21 726 K 0.020 GD 56.9 VS 4.42 DE 3.33 Q0400.0 QA 0.70 Q1 1.00 3
 SPEC PAPHBH Z MO 13.5 ST 17.5 OM  2.2 f0 8.01 R0.2042 AL-0.00 WI 20.0 MW  3.0 3
 SPEC PAPHBH Z T21 731 K 0.020 GD 70.9 VS 4.42 DE 3.33 Q0400.0 QA 0.70 Q1 1.00 3
 SPEC BADRBH Z MO 13.2 ST  3.1 OM  1.6 f0 5.59 R0.2926 AL-0.00 WI 20.0 MW  2.8 3
 SPEC BADRBH Z T21 752 K 0.020 GD  146 VS 4.42 DE 3.33 Q0400.0 QA 0.70 Q1 1.00 3
 2017-02-11-2105-00S.MAN___100                                                 6
 OLDACT:UP  17-02-11 21:21 OP:AMMR STATUS:               ID:20170211210500     3
 OLDACT:ARG 17-02-11 21:16 OP:jrdn STATUS:               ID:20170211210500     3
 ACTION:UP  18-03-02 17:06 OP:JMLC STATUS:               ID:20170211210712 L   I
 OLDACT:UP  17-02-11 21:22 OP:AMMR STATUS:               ID:20170211210500     3
 STAT SP IPHASW D HRMM SECON CODA AMPLIT PERI AZIMU VELO AIN AR TRES W  DIS CAZ7
 NEDR BZ EPg      21 7 17.73   41                        121   -0.7910 34.3 136 
 NEDR BN ESg    C 21 7 23.82                             121    0.5210 34.3 136 
 NEDR BZ  IAML    21 7 26.85       372.5 1.05                          34.3 136 
 SDDR BZ EPg    C 21 7 20.84   49                        111   -0.1610 52.1  55 
 SDDR BE ESg    C 21 7 28.00                             111    0.3810 52.1  55 
 SDDR BZ  IAML    21 7 39.25        90.5 0.50                          52.1  55 
 PAPH BZ EPg    D 21 7 23.07   49                        105   -0.0710 67.1 252 
 PAPH BE ESg    C 21 7 32.85                             105    1.5110 67.1 252 
 PAPH BZ  IAML    21 7 33.39       331.9 0.12                          67.1 252 
 PODR BZ EPg    D 21 7 23.29   44                        104   -0.9510 74.0 144 
 PODR BN ESg    C 21 7 33.11                             104   -0.1510 74.0 144 
 PODR BZ  IAML    21 7 33.58        94.2 0.15                          74.0 144 
 ABDR BZ EPg      21 7 29.35   62                         98   -0.7810  113  84 
 ABDR BE ESg    C 21 7 43.46                              98   -0.0510  113  84 
 ABDR BZ  IAML    21 7 46.56        47.4 2.20                           113  84 
 BADR BZ EPg      21 7 33.23   83                         96   -1.5610  145 103 
 BADR BN ESg    D 21 7 53.73                              96    2.1210  145 103 
 BADR BZ  IAML    21 7 55.88        59.0 0.25                           145 103 
                                                                                
 2017  213 1546  9.6 L  18.498 -69.061131.7  DOM  7 1.0 2.4LDOM 3.6CDOM 2.7WDOM1
 SPEC AVERAGE  MO 13.1 ST  9.2 OM  2.0 f0 7.88 R0.3204 AL 0.00 WI 20.0 MW  2.7 3
 SPEC SD       MO  0.2 ST 11.3 OM  0.7 f0 4.99 R0.2143 AL      WI      MW  0.1 3
 GAP=168        2.63      27.3     6.7 17.8  0.1782E+02  0.2182E+02  0.2362E+03E
 SPEC MIDRBH Z MO 12.8 ST 28.6 OM  1.2 f0 16.0 R0.1027 AL-0.00 WI 20.0 MW  2.5 3
 SPEC MIDRBH Z T154639 K 0.020 GD  142 VS 4.44 DE 3.40 Q0400.0 QA 0.70 Q1 1.00 3
 SPEC BADRBH Z MO 13.3 ST  6.1 OM  1.5 f0 6.89 R0.2384 AL-0.00 WI 20.0 MW  2.8 3
 SPEC BADRBH Z T154650 K 0.020 GD  190 VS 4.44 DE 3.40 Q0400.0 QA 0.70 Q1 1.00 3
 SPEC PODRBH Z MO 12.9 ST  2.0 OM  1.0 f0 6.21 R0.2645 AL-0.00 WI 20.0 MW  2.6 3
 SPEC PODRBH Z T1547 7 K 0.020 GD  272 VS 4.44 DE 3.40 Q0400.0 QA 0.70 Q1 1.00 3
 SPEC SDDRBH Z MO 13.3 ST0.306 OM  1.4 f0 2.43 R0.6760 AL-0.00 WI 20.0 MW  2.8 3
 SPEC SDDRBH Z T154711 K 0.020 GD  274 VS 4.44 DE 3.40 Q0400.0 QA 0.70 Q1 1.00 3
 2017-02-13-1545-00S.MAN___100                                                 6
 OLDACT:UP  17-02-13 16:43 OP:FMGP STATUS:               ID:20170213154500     3
 OLDACT:ARG 17-02-13 16:42 OP:fmgp STATUS:               ID:20170213154500     3
 ACTION:UP  18-03-02 17:06 OP:JMLC STATUS:               ID:20170213154609 L   I
 OLDACT:UP  17-02-13 16:52 OP:FMGP STATUS:               ID:20170213154500     3
 STAT SP IPHASW D HRMM SECON CODA AMPLIT PERI AZIMU VELO AIN AR TRES W  DIS CAZ7
 HIDR BZ EPg    C 1546 26.10   69                        163   -1.0110 37.9  74 
 HIDR BE ESg    C 1546 40.64                             163    0.5810 37.9  74 
 HIDR BZ  IAML    1546 41.76        68.9 0.25                          37.9  74 
 MIDR BZ EPg    C 1546 26.49   64                        156   -1.2610 53.7   1 
 MIDR BN ESg    D 1546 40.98                             156   -0.2010 53.7   1 
 MIDR BZ  IAML    1546 43.95        40.9 0.25                          53.7   1 
 BADR BZ EPg    D 1546 33.85   80                        130   -0.1010  138 266 
 BADR BE ESg    C 1546 51.93                             130   -0.0210  138 266 
 BADR BZ  IAML    1546 54.06        42.9 0.25                           138 266 
 ABDR BZ EPg    C 1546 35.97   79                        124   -1.1310  169 282 
 ABDR BN ESg    D 1546 57.17                             124   -0.2710  169 282 
 ABDR BZ  IAML    1547  5.10        19.5 1.40                           169 282 
 PODR BZ EPg    C 1546 43.46   75                        114   -0.5810  238 261 
 PODR BE ESg    C 1547  9.44                             114   -0.0710  238 261 
 PODR BZ  IAML    1547 48.67        17.5 3.65                           238 261 
 SDDR BZ EPg    C 1546 44.07   66                        114   -0.2110  241 283 
 SDDR BN ESg    C 1547 12.68                             114    2.7510  241 283 
 SDDR BZ  IAML    1547 15.50        16.4 0.35                           241 283 
 AOPR BZ EPg    D 1546 45.08   91                        113    0.4810  244  94 
 AOPR BN ESg    C 1547 11.51                             113    1.0210  244  94 
 AOPR BZ  IAML    1547 22.46        39.9 2.00                           244  94 
                                                                                
 2017  214 1910 50.3 L  18.818 -70.133116.8  DOM  9 0.7 2.9LDOM 3.1CDOM        1
 GAP= 69        1.89       7.8     6.8 13.5 -0.3196E+00 -0.5783E+01 -0.1689E+02E
 ACTION:UP  18-03-02 17:06 OP:JMLC STATUS:               ID:20170214191050 L   I
 OLDACT:UP  17-02-14 20:40 OP:AMMR STATUS:               ID:20170214190800     3
 OLDACT:UP  17-02-14 20:31 OP:AMMR STATUS:               ID:20170214190800     3
 OLDACT:ARG 17-02-14 20:22 OP:AMMR STATUS:               ID:20170214190800     3
 2017-02-14-1908-00S.MAN___100                                                 6
 STAT SP IPHASW D HRMM SECON CODA AMPLIT PERI AZIMU VELO AIN AR TRES W  DIS CAZ7
 SDD  BZ EPg      1911  5.93                             157   -0.5610 45.4 150 
 ABDR BZ EPg    C 1911  5.78   51                        154   -1.4610 52.0 269 
 ABDR BE ESg    C 1911 18.98                             154   -0.7710 52.0 269 
 ABDR BE  IAML    1911 20.60       151.9 0.15                          52.0 269 
 ABDR BN  IAML    1911 22.04       216.7 0.30                          52.0 269 
 BADR BZ EPg    C 1911  6.90   42                        154   -0.0810 52.3 207 
 BADR BE ESg    D 1911 19.27                             154   -0.0210 52.3 207 
 BADR BE  IAML    1911 20.01       443.1 0.40                          52.3 207 
 BADR BN  IAML    1911 20.55       564.2 0.45                          52.3 207 
 NADR BZ EPg    D 1911  6.67   42                        148   -0.9510 66.2  26 
 SC01 BZ EPg    D 1911  9.45   41                        138   -0.0210 92.0 317 
 SC01 BE ESg    D 1911 24.27                             138    0.6410 92.0 317 
 SC01 BE  IAML    1911 25.26       317.9 0.35                          92.0 317 
 SC01 BN  IAML    1911 25.63       332.9 0.25                          92.0 317 
 MIDR BZ EPg      1911 11.92   58                        131    0.5110  116  81 
 MIDR BN ESg    C 1911 27.94                             131    0.9310  116  81 
 MIDR BE  IAML    1911 29.09        67.0 0.15                           116  81 
 MIDR BN  IAML    1911 29.76        46.6 0.40                           116  81 
 SDDR BZ EPg      1911 12.24   64                        129    0.0710  123 279 
 SDDR BN  IAML    1911 33.10        83.7 1.10                           123 279 
 SDDR BE  IAML    1911 33.23        56.7 0.60                           123 279 
 PODR BZ EPg    C 1911 14.51   59                        125    0.5210  141 239 
 PODR BE ESg    D 1911 32.55                             125    1.0510  141 239 
 PODR BE  IAML    1911 34.16        88.1 0.30                           141 239 
 PODR BN  IAML    1911 34.23        88.7 0.45                           141 239 
 LUDR BZ EPg    D 1911 13.89   47                        124   -0.4610  147 324 
 LUDR BN ESg      1911 32.71                             124    0.5910  147 324 
 LUDR BE  IAML    1911 34.03       564.0 0.25                           147 324 
 LUDR BN  IAML    1911 39.44       649.3 0.30                           147 324 
                                                                                
 2017  215 0205 53.2 L  18.510 -70.313 22.9  DOM  7 0.5 2.1LDOM 2.8CDOM 2.4WDOM1
 SPEC AVERAGE  MO 12.7 ST  5.3 OM  1.9 f0 7.88 R0.2380 AL 0.00 WI 20.0 MW  2.4 3
 SPEC SD       MO  0.2 ST  7.4 OM  0.7 f0 3.16 R0.0758 AL      WI      MW  0.1 3
 GAP=113        1.46       5.4     2.5  7.2 -0.2434E+00 -0.2965E+01 -0.1425E+02E
 SPEC BADRBH Z MO 12.9 ST 18.2 OM  2.0 f0 13.1 R0.1254 AL-0.00 WI 20.0 MW  2.6 3
 SPEC BADRBH Z T 2 558 K 0.020 GD 26.5 VS 4.44 DE 3.35 Q0400.0 QA 0.70 Q1 1.00 3
 SPEC ABDRBH Z MO 12.8 ST  1.0 OM  1.6 f0 5.49 R0.2992 AL-0.00 WI 20.0 MW  2.5 3
 SPEC ABDRBH Z T 2 6 6 K 0.020 GD 52.3 VS 4.44 DE 3.35 Q0400.0 QA 0.70 Q1 1.00 3
 SPEC PODRBH Z MO 12.8 ST0.963 OM  1.3 f0 5.22 R0.3147 AL-0.00 WI 20.0 MW  2.5 3
 SPEC PODRBH Z T 2 622 K 0.020 GD  111 VS 4.44 DE 3.35 Q0400.0 QA 0.70 Q1 1.00 3
 SPEC MIDRBH Z MO 12.3 ST  1.0 OM  0.7 f0 7.73 R0.2125 AL-0.00 WI 20.0 MW  2.2 3
 SPEC MIDRBH Z T 2 628 K 0.020 GD  144 VS 4.44 DE 3.35 Q0400.0 QA 0.70 Q1 1.00 3
 2017-02-15-0205-00S.MAN___100                                                 6
 OLDACT:UP  17-02-15 02:16 OP:AMMR STATUS:               ID:20170215020500     3
 OLDACT:ARG 17-02-15 02:13 OP:amrz STATUS:               ID:20170215020500     3
 ACTION:UP  18-03-02 17:06 OP:JMLC STATUS:               ID:20170215020553 L   I
 OLDACT:UP  17-02-15 19:06 OP:AMMR STATUS:               ID:20170215020500     3
 OLDACT:UP  17-02-15 02:19 OP:AMMR STATUS:               ID:20170215020500     3
 OLDACT:UP  17-02-15 02:19 OP:AMMR STATUS:               ID:20170215020500     3
 STAT SP IPHASW D HRMM SECON CODA AMPLIT PERI AZIMU VELO AIN AR TRES W  DIS CAZ7
 BADR BZ EPg       2 5 56.92   26                        150   -0.5810 13.4 202 
 BADR BE  IAML     2 5 57.21       970.0 0.20                          13.4 202 
 BADR BE ESg       2 6  0.81                             150    0.1210 13.4 202 
 BADR BN  IAML     2 6  2.08      1330.9 0.25                          13.4 202 
 SDD  BZ EPg    D  2 6  0.89   15                        116    0.2110 42.0  97 
 SDD  BN ESg    D  2 6  7.30                             116    1.0810 42.0  97 
 SDD  BE  IAML     2 6  7.34        78.2 0.20                          42.0  97 
 SDD  BN  IAML     2 6  7.39       150.4 0.20                          42.0  97 
 ABDR BZ EPg    D  2 6  1.60   39                        115   -0.0110 47.0 315 
 ABDR BN ESg       2 6  8.50                             115    0.6610 47.0 315 
 ABDR BN  IAML     2 6  9.18       322.0 0.25                          47.0 315 
 ABDR BE  IAML     2 6  9.96       262.2 0.45                          47.0 315 
 PODR BZ EPg    C  2 6  9.97   41                         98   -0.6610  109 250 
 PODR BE ESg       2 6 23.73                              98    0.1910  109 250 
 PODR BE  IAML     2 6 25.91        79.8 0.20                           109 250 
 PODR BN  IAML     2 6 26.50        40.2 0.30                           109 250 
 SDDR BZ EPg       2 6 11.53   62                         97    0.0410  115 297 
 SDDR BN  IAML     2 6 27.25        23.0 0.35                           115 297 
 SDDR BE  IAML     2 6 31.90        25.3 0.60                           115 297 
 MIDR BZ EPg       2 6 15.11   39                         96   -0.5110  143  68 
 MIDR BN ESg       2 6 31.23                              96   -0.9910  143  68 
 MIDR BE  IAML     2 6 33.22        17.4 0.35                           143  68 
 MIDR BN  IAML     2 6 34.06        16.8 0.25                           143  68 
 HIDR BZ EPg    D  2 6 19.84   60                         95    0.3210  169  87 
 HIDR BN ESg       2 6 39.15                              95    0.1510  169  87 
 HIDR BN  IAML     2 6 41.07        75.0 0.25                           169  87 
                                                                                
