 2017  127 2234 30.6 L  19.251 -69.790 23.0  DOM 12 0.8 2.6LDOM 3.5CDOM        1
 GAP=105        2.19       6.0     3.2 11.3  0.2517E+01  0.3211E+01  0.3763E+02E
 ACTION:UP  18-03-02 17:06 OP:JMLC STATUS:               ID:20170127223430 L   I
 OLDACT:ARG 17-01-27 22:48 OP:plst STATUS:               ID:20170127223400     3
 2017-01-27-2234-00S.MAN___100                                                 6
 STAT SP IPHASW D HRMM SECON CODA AMPLIT PERI AZIMU VELO AIN AR TRES W  DIS CAZ7
 NADR BZ EPg      2234 34.01   58                        149   -0.7810 13.4 329 
 NADR BN ESg      2234 37.84                             149   -0.0310 13.4 329 
 NADR BN  IAML    2234 38.19        94.8 0.35                          13.4 329 
 CADR BZ EPg      2234 38.69   56                        112   -0.3310 48.6 341 
 CADR BN ESg      2234 46.22                             112    0.9710 48.6 341 
 CADR BN  IAML    2234 46.94       705.2 0.30                          48.6 341 
 SMDR BZ EPg      2234 40.35   51                        106   -0.8010 63.5  86 
 SMDR BN ESg      2234 49.95                             106    1.0010 63.5  86 
 SMDR BN  IAML    2234 50.59       174.0 0.40                          63.5  86 
 MIDR BZ EPg      2234 43.20   80                        101   -0.8810 83.4 111 
 MIDR BN ESg      2234 53.97                             101   -0.0810 83.4 111 
 MIDR BN  IAML    2234 56.07       123.9 0.25                          83.4 111 
 ABDR BZ EPg      2234 46.43   81                        100   -0.3910  101 241 
 ABDR BN  IAML    2235  4.09       124.3 0.35                           101 241 
 BANI BZ EPg      2234 48.53   72                         98    0.1210  112 213 
 BANI BN ESg      2235  2.66                              98    1.0810  112 213 
 BANI BN  IAML    2235  3.64       204.0 0.35                           112 213 
 LUDR BZ EPg      2234 53.32   73                         96    0.5610  141 300 
 LUDR BN  IAML    2235 14.86       759.4 0.40                           141 300 
 SDDR BZ EPg      2234 55.07  107                         95   -0.6510  161 259 
 SDDR BN ESg      2235 13.70                              95   -0.6010  161 259 
 SDDR BN  IAML    2235 21.50        62.1 0.55                           161 259 
 PCDR BZ EPg      2234 56.79   82                         95   -0.2310  169 119 
 PCDR HZ  IAML    2235 20.37        91.1 1.66                           169 119 
 PODR BZ EPg      2235  1.65   80                         94    0.2410  198 233 
 PODR BN  IAML    2235 31.53        27.4 0.45                           198 233 
 REDR BZ EPg      2235  1.69   89                         94   -0.1310  201 271 
 REDR BN ESg      2235 25.70                              94    0.8010  201 271 
 REDR BN  IAML    2235 26.69        66.7 0.15                           201 271 
 AOPR BZ EPg      2235 20.52   98                         92   -1.6310  335 107 
 AOPR BN ESg      2236  2.04                              92    1.7610  335 107 
 AOPR BN  IAML    2236  5.71        47.5 0.70                           335 107 
                                                                                
 2017  123 0409  1.7 L  18.159 -68.530155.4  DOM 13 1.0 3.8LDOM 4.0CDOM        1
 GAP=180        2.59      21.9     6.9 22.8  0.8979E+02  0.7870E+02  0.2907E+03E
      98.1      72.4     -78.3                               2    DOM PINV     F
      99.0      70.0     -63.0  2.0  2.0 10.0  0.1  0.1           DOM FPFIT    F
     154.8      15.5     134.9 38.8 51.0      0.12 0.55 0.00      DOM HASH     F
 ACTION:UP  18-03-02 17:06 OP:JMLC STATUS:               ID:20170123040901 L   I
 OLDACT:UP  17-01-23 23:49 OP:AMMR STATUS:               ID:20170123040900     3
 OLDACT:UP  17-01-23 04:38 OP:FMGP STATUS:               ID:20170123040900     3
 OLDACT:UP  17-01-23 04:37 OP:FMGP STATUS:               ID:20170123040900     3
 OLDACT:ARG 17-01-23 04:22 OP:plst STATUS:               ID:20170123040900     3
 2017-01-23-0409-00S.MAN___100                                                 6
 STAT SP IPHASW D HRMM SECON CODA AMPLIT PERI AZIMU VELO AIN AR TRES W  DIS CAZ7
 PCDR BZ EPg    D  4 9 20.62  111                        164   -1.4210 42.3  22 
 PCDR HZ  IAML     4 9 41.26       762.7 0.28                          42.3  22 
 MIDR BZ EPg    C  4 9 24.69   93                        143   -0.7410  107 329 
 MIDR BN ESg       4 9 42.95                             143   -0.0310  107 329 
 MIDR BN  IAML     4 9 43.67      1727.0 0.70                           107 329 
 SMDR BZ EPg    C  4 9 26.47   83                        135   -1.8010  143 331 
 SDD  BZ EPg    C  4 9 27.68  106                        133   -1.2210  151 283 
 AGPR BZ EPg    C  4 9 29.10  110                        132   -0.1110  154  77 
 AGPR BN ESg       4 9 49.86                             132    0.3010  154  77 
 AGPR BN  IAML     4 9 54.24      1100.0 0.60                           154  77 
 AOPR BZ EPg    C  4 9 31.86  101                        126   -0.5710  189  83 
 AOPR BN ESg       4 9 55.70                             126    0.5410  189  83 
 AOPR BN  IAML     4 9 59.58      1736.0 0.25                           189  83 
 NADR BZ EPg    C  4 9 31.60   92                        126   -1.1310  193 314 
 NADR BN ESg       4 9 56.29                             126    0.6110  193 314 
 NADR BN  IAML     410  4.13        66.0 0.35                           193 314 
 ABDR BZ EPg       4 9 37.12  100                        120    0.0410  233 288 
 ABDR BN ESg       410  3.32                             120    0.0710  233 288 
 ABDR BN  IAML     410  9.51       881.6 0.75                           233 288 
 SJG  BZ EPg    D  4 9 38.43  109                        118   -0.3110  252  91 
 SJG  BN ESg       410  7.90                             118    1.7710  252  91 
 SC01 BZ EPg    C  4 9 40.72  116                        116    0.0210  271 302 
 SC01 BN ESg       410 11.50                             116    1.9510  271 302 
 SC01 BN  IAML     410 19.07      1072.8 0.70                           271 302 
 SODR BZ EPg    C  4 9 41.92  103                        115    0.4310  279 310 
 PODR BZ EPg    D  4 9 42.98  123                        114   -0.0610  291 271 
 PODR BN ESg       410 13.78                             114    0.1710  291 271 
 PODR BN  IAML     410 18.00       544.1 0.25                           291 271 
 JIDR BZ EPg    D  4 9 51.13  108                        109    1.4910  353 277 
 JIDR BN  IAML     410 33.47        96.9 0.35                           353 277 
                                                                                
 2017  1 7 0807  4.1 L  19.083 -68.755 17.3  DOM 14 1.1 2.7LDOM 3.6CDOM 3.2WDOM1
 SPEC AVERAGE  MO 13.9 ST 82.4 OM  3.0 f0 6.23 R1.4496 AL 0.00 WI 20.0 MW  3.2 3
 SPEC SD       MO  0.5 ST141.1 OM  0.5 f0 5.32 R2.0838 AL      WI      MW  0.4 3
 GAP=174        3.13      11.2     4.9 27.0  0.3078E+02 -0.3042E+02 -0.3819E+02E
 SPEC SMDRBH Z MO 13.3 ST  2.8 OM  2.6 f0 3.82 R0.3099 AL-0.00 WI 20.0 MW  2.8 3
 SPEC SMDRBH Z T 8 718 K 0.020 GD 53.9 VS 3.20 DE 2.60 Q0400.0 QA 0.70 Q1 1.00 3
 SPEC SDDRBH Z MO 14.6 ST0.019 OM  3.2 f00.265 R4.4679 AL-0.00 WI 20.0 MW  3.7 3
 SPEC SDDRBH Z T 8 952 K 0.020 GD  267 VS 3.20 DE 2.60 Q0400.0 QA 0.70 Q1 1.00 3
 SPEC AGPRBH Z MO 13.7 ST 96.8 OM  2.5 f0 8.85 R0.1338 AL-0.00 WI 20.0 MW  3.1 3
 SPEC AGPRBH Z T 8 753 K 0.020 GD  186 VS 3.20 DE 2.60 Q0400.0 QA 0.70 Q1 1.00 3
 SPEC AOPRBH Z MO 14.8 ST0.014 OM  3.5 f00.200 R5.9200 AL-0.00 WI 20.0 MW  3.8 3
 SPEC AOPRBH Z T 8 940 K 0.020 GD  226 VS 3.20 DE 2.60 Q0400.0 QA 0.70 Q1 1.00 3
 SPEC JIDRBH Z MO 14.4 ST0.225 OM  2.9 f00.711 R1.6653 AL-0.00 WI 20.0 MW  3.5 3
 SPEC JIDRBH Z T 8 833 K 0.020 GD  333 VS 3.20 DE 2.60 Q0400.0 QA 0.70 Q1 1.00 3
 SPEC MIDRBH Z MO 13.4 ST 95.5 OM  2.9 f0 11.1 R0.1067 AL-0.00 WI 20.0 MW  2.9 3
 SPEC MIDRBH Z T 8 712 K 0.020 GD 37.2 VS 3.20 DE 2.60 Q0400.0 QA 0.70 Q1 1.00 3
 SPEC PCDRBH Z MO 13.6 ST465.7 OM  2.8 f0 16.0 R0.0740 AL-0.00 WI 20.0 MW  3.0 3
 SPEC PCDRBH Z T 8 722 K 0.020 GD 76.2 VS 3.20 DE 2.60 Q0400.0 QA 0.70 Q1 1.00 3
 SPEC REDRBH Z MO 13.3 ST 67.7 OM  1.9 f0 10.5 R0.1128 AL-0.00 WI 20.0 MW  2.8 3
 SPEC REDRBH Z T 8 823 K 0.020 GD  311 VS 3.20 DE 2.60 Q0400.0 QA 0.70 Q1 1.00 3
 SPEC SC01BH Z MO 13.7 ST 12.5 OM  2.4 f0 4.63 R0.2557 AL-0.00 WI 20.0 MW  3.1 3
 SPEC SC01BH Z T 8 760 K 0.020 GD  211 VS 3.20 DE 2.60 Q0400.0 QA 0.70 Q1 1.00 3
 2017-01-07-0805-00S.MAN___095                                                 6
 ACTION:UP  18-03-02 17:06 OP:JMLC STATUS:               ID:20170107080704 L   I
 OLDACT:ARG 17-01-07 21:39 OP:jmlc STATUS:               ID:20170107080500     3
 STAT SP IPHASW D HRMM SECON CODA AMPLIT PERI AZIMU VELO AIN AR TRES W  DIS CAZ7
 MIDR BZ EPg       8 7  9.57   15                        113   -0.4110 32.9 251 
 MIDR BN ESg       8 7 13.86                             113   -0.4810 32.9 251 
 MIDR BZ  IAML     8 7 14.08      1388.4 0.40                          32.9 251 
 SMDR BZ EPg       8 7 12.25   59                        103   -0.3410 51.0 297 
 SMDR BN ESg       8 7 20.31                             103    1.4310 51.0 297 
 SMDR BZ  IAML     8 7 26.66       154.7 0.35                          51.0 297 
 PCDR BZ EPg       8 7 15.65   64                         97   -0.4210 74.2 148 
 PCDR BN ESg       8 7 24.42                              97   -0.5110 74.2 148 
 PCDR BZ  IAML     8 7 28.49       497.7 0.20                          74.2 148 
 NADR BZ EPg       8 7 23.52   78                         93    0.6010  120 285 
 NADR BZ  IAML     8 9 35.19       135.7 1.75                           120 285 
 AGPR BZ EPg       8 7 32.78   98                         92   -0.2210  186 111 
 AGPR BN ESg       8 7 55.47                              92    1.0910  186 111 
 AGPR BZ  IAML     8 8  1.69       145.3 0.20                           186 111 
 SC01 BZ EPg       8 7 37.08   90                         92    0.3410  211 281 
 SC01 BN ESg       8 8  1.94                              92    1.0510  211 281 
 SC01 BZ  IAML     8 8 11.39       105.6 0.65                           211 281 
 CRPR BZ EPg       8 7 37.38   88                         92    0.4210  212 124 
 CRPR BZ  IAML     8 9 47.71        41.4 2.45                           212 124 
 AOPR BZ EPg       8 7 38.27   98                         92   -0.8010  226 111 
 AOPR BZ  IAML     8 9 46.62        18.8 0.90                           226 111 
 SDDR BZ EPg       8 7 45.05   81                         91   -0.2310  267 268 
 SDDR BZ  IAML     810 28.89        20.2 3.55                           267 268 
 PODR BZ EPg       8 7 49.04   88                         91    0.9510  285 250 
 PODR BN ESg       8 8 21.14                              91    0.5010  285 250 
 PODR BZ  IAML     8 8 28.89        20.8 0.40                           285 250 
 NEDR BZ EPg       8 7 47.95  113                         91   -1.3110  294 257 
 NEDR BN ESg       8 8 23.95                              91    1.2710  294 257 
 NEDR BZ  IAML     8 9  0.40        37.0 2.75                           294 257 
 SJG  BZ EPg       8 7 48.21   71                         91   -1.3110  295 111 
 SJG  BN ESg       8 8 25.05                              91    1.9210  295 111 
 REDR BZ EPg       8 7 49.42   88                         91   -2.4610  311 274 
 REDR BN ESg       8 8 25.36                              91   -1.8810  311 274 
 REDR BZ  IAML     8 8 31.93        48.1 0.60                           311 274 
 JIDR BZ EPg       8 7 54.01  116                         91   -1.2310  333 259 
 JIDR BN ESg       8 8 35.10                              91    2.0110  333 259 
 JIDR BZ  IAML     8 8 53.60        40.1 1.55                           333 259 
                                                                                
 2017  111 1411 55.8 L  20.116 -70.810 12.2  DOM 16 1.0 3.0LDOM 3.6CDOM 3.1WDOM1
 SPEC AVERAGE  MO 13.7 ST 14.1 OM  3.0 f0 4.09 R1.1690 AL 0.00 WI 20.0 MW  3.1 3
 SPEC SD       MO  0.8 ST 31.3 OM  0.8 f0 4.06 R2.1479 AL      WI      MW  0.5 3
 GAP=130        2.67       6.3     4.8 45.8 -0.1197E+01 -0.4526E+02 -0.3835E+02E
 SPEC SDD BH Z MO 13.5 ST0.172 OM  2.3 f0 1.27 R0.9323 AL-0.00 WI 20.0 MW  2.9 3
 SPEC SDD BH Z T141249 K 0.020 GD  178 VS 3.20 DE 2.60 Q0400.0 QA 0.70 Q1 1.00 3
 SPEC SDDRBH Z MO 13.8 ST  1.1 OM  2.7 f0 1.94 R0.6103 AL-0.00 WI 20.0 MW  3.1 3
 SPEC SDDRBH Z T141230 K 0.020 GD  126 VS 3.20 DE 2.60 Q0400.0 QA 0.70 Q1 1.00 3
 SPEC SMDRBH Z MO 13.2 ST0.315 OM  2.0 f0 1.99 R0.5950 AL-0.00 WI 20.0 MW  2.7 3
 SPEC SMDRBH Z T141248 K 0.020 GD  168 VS 3.20 DE 2.60 Q0400.0 QA 0.70 Q1 1.00 3
 SPEC SC01BH Z MO 13.9 ST  1.3 OM  3.1 f0 1.76 R0.6727 AL-0.00 WI 20.0 MW  3.2 3
 SPEC SC01BH Z T141217 K 0.020 GD 77.7 VS 3.20 DE 2.60 Q0400.0 QA 0.70 Q1 1.00 3
 SPEC REDRBH Z MO 13.3 ST  7.0 OM  2.3 f0 4.93 R0.2402 AL-0.00 WI 20.0 MW  2.8 3
 SPEC REDRBH Z T141230 K 0.020 GD  124 VS 3.20 DE 2.60 Q0400.0 QA 0.70 Q1 1.00 3
 SPEC ABDRBH Z MO 13.2 ST 11.0 OM  2.1 f0 6.49 R0.1824 AL-0.00 WI 20.0 MW  2.7 3
 SPEC ABDRBH Z T141234 K 0.020 GD  134 VS 3.20 DE 2.60 Q0400.0 QA 0.70 Q1 1.00 3
 SPEC GRTKBH Z MO 13.1 ST124.1 OM  2.0 f0 15.4 R0.0769 AL-0.00 WI 20.0 MW  2.7 3
 SPEC GRTKBH Z T141241 K 0.020 GD  143 VS 3.20 DE 2.60 Q0400.0 QA 0.70 Q1 1.00 3
 SPEC HIDRBH Z MO 13.2 ST 12.9 OM  1.9 f0 6.71 R0.1765 AL-0.00 WI 20.0 MW  2.7 3
 SPEC HIDRBH Z T1413 9 K 0.020 GD  227 VS 3.20 DE 2.60 Q0400.0 QA 0.70 Q1 1.00 3
 SPEC LUDRBH Z MO 14.0 ST 21.2 OM  3.6 f0 4.16 R0.2846 AL-0.00 WI 20.0 MW  3.3 3
 SPEC LUDRBH Z T1412 2 K 0.020 GD 31.3 VS 3.20 DE 2.60 Q0400.0 QA 0.70 Q1 1.00 3
 SPEC MADRBH Z MO 14.1 ST0.975 OM  3.3 f0 1.44 R0.8222 AL-0.00 WI 20.0 MW  3.3 3
 SPEC MADRBH Z T141214 K 0.020 GD 69.2 VS 3.20 DE 2.60 Q0400.0 QA 0.70 Q1 1.00 3
 SPEC MCDRBH Z MO 13.0 ST 17.3 OM  2.1 f0 8.55 R0.1385 AL-0.00 WI 20.0 MW  2.6 3
 SPEC MCDRBH Z T141221 K 0.020 GD 92.8 VS 3.20 DE 2.60 Q0400.0 QA 0.70 Q1 1.00 3
 SPEC MIDRBH Z MO 15.3 ST0.015 OM  4.1 f00.138 R8.5797 AL-0.00 WI 20.0 MW  4.2 3
 SPEC MIDRBH Z T141256 K 0.020 GD  190 VS 3.20 DE 2.60 Q0400.0 QA 0.70 Q1 1.00 3
 SPEC NEDRBH Z MO 14.4 ST0.069 OM  3.2 f00.477 R2.4822 AL-0.00 WI 20.0 MW  3.5 3
 SPEC NEDRBH Z T141245 K 0.020 GD  168 VS 3.20 DE 2.60 Q0400.0 QA 0.70 Q1 1.00 3
 SPEC PAPHBH Z MO 14.6 ST0.064 OM  3.3 f00.389 R3.0437 AL-0.00 WI 20.0 MW  3.7 3
 SPEC PAPHBH Z T141256 K 0.020 GD  231 VS 3.20 DE 2.60 Q0400.0 QA 0.70 Q1 1.00 3
 SPEC PODRBH Z MO 13.4 ST0.627 OM  2.2 f0 2.07 R0.5720 AL-0.00 WI 20.0 MW  2.9 3
 SPEC PODRBH Z T141253 K 0.020 GD  188 VS 3.20 DE 2.60 Q0400.0 QA 0.70 Q1 1.00 3
 2017-01-11-1411-00S.MAN___098                                                 6
 ACTION:UP  18-03-02 17:06 OP:JMLC STATUS:               ID:20170111141155 L   I
 OLDACT:UP  17-01-11 17:14 OP:JMLC STATUS:               ID:20170111141100     3
 OLDACT:ARG 17-01-11 16:22 OP:jmlc STATUS:               ID:20170111141100     3
 STAT SP IPHASW D HRMM SECON CODA AMPLIT PERI AZIMU VELO AIN AR TRES W  DIS CAZ7
 LUDR BZ EPg      1411 59.67   69                        102   -1.1810 28.8 211 
 LUDR BN ESg      1412  4.15                             102   -0.4410 28.8 211 
 LUDR BN  IAML    1412  4.68     17985.6 0.30                          28.8 211 
 LUDR BE  IAML    1412  4.86     18192.5 0.30                          28.8 211 
 MADR BZ EPg      1412  6.42   82                         90   -0.3810 68.1 207 
 MADR BE  IAML    1412 17.25      1394.4 0.50                          68.1 207 
 MADR BN  IAML    1412 17.26      1743.9 0.40                          68.1 207 
 SC01 BZ EPg      1412  8.71   80                         90    0.6110 76.7 174 
 SC01 BN ESg      1412 18.95                              90    1.7510 76.7 174 
 SC01 BE  IAML    1412 22.33       467.0 0.95                          76.7 174 
 SC01 BN  IAML    1412 26.20       436.4 0.45                          76.7 174 
 MCDR BZ EPg      1412 11.44   70                         90    1.0210 92.0 255 
 MCDR BN ESg      1412 22.78                              90    1.5510 92.0 255 
 MCDR BE  IAML    1412 28.51       209.4 0.70                          92.0 255 
 MCDR BN  IAML    1412 28.66       324.0 1.00                          92.0 255 
 NADR BN  IAML    1412 37.07         8.1 0.30                           131 130 
 NADR BE  IAML    1412 39.46       532.3 0.15                           131 130 
 REDR BZ EPg      1412 15.75   96                         90   -0.7310  132 225 
 REDR BN ESg      1412 32.18                              90    0.4010  132 225 
 REDR BE  IAML    1412 32.83       497.6 0.20                           132 225 
 REDR BN  IAML    1412 34.63       298.3 0.20                           132 225 
 SDDR BZ EPg      1412 16.27   88                         90   -0.7510  135 202 
 SDDR BN ESg      1412 32.46                              90   -0.2610  135 202 
 SDDR BE  IAML    1412 32.81       312.4 0.50                           135 202 
 SDDR BN  IAML    1412 33.11       362.2 0.50                           135 202 
 ABDR BZ EPg      1412 18.68   79                         90   -0.0010  146 172 
 ABDR BE  IAML    1412 40.35       262.7 0.55                           146 172 
 ABDR BN  IAML    1412 43.40       234.9 0.35                           146 172 
 GRTK BZ EPg      1412 20.53   75                         90    0.1010  158 348 
 GRTK BE  IAML    1412 44.13       380.0 0.25                           158 348 
 GRTK BN  IAML    1412 45.01       429.7 0.30                           158 348 
 NEDR BZ EPg      1412 25.73  104                         90   -0.0510  193 201 
 SMDR BZ EPg      1412 25.32   90                         90   -0.4010  193 118 
 NEDR BN ESg      1412 47.08                              90   -0.8910  193 201 
 SMDR BN ESg      1412 49.55                              90    1.7010  193 118 
 SMDR BN  IAML    1412 52.10        94.4 0.55                           193 118 
 SMDR BE  IAML    1412 59.00        83.0 1.50                           193 118 
 NEDR BN  IAML    1412 54.73       101.0 1.25                           193 201 
 SDD  BN ESg      1412 49.99                              90   -1.1710  206 153 
 SDD  BN  IAML    1412 53.25        75.3 0.70                           206 153 
 SDD  BE  IAML    1412 55.77       130.2 0.50                           206 153 
 JIDR BZ EPg      1412 28.28   84                         90   -0.0710  210 212 
 JIDR BN ESg      1412 53.27                              90    0.8410  210 212 
 JIDR BN  IAML    1412 54.63       261.3 0.30                           210 212 
 JIDR BE  IAML    1412 54.80       292.4 0.50                           210 212 
 JIDR BZ  IAML    1412 55.14       168.0 0.25                           210 212 
 PODR BZ EPg      1412 29.70   94                         90   -0.4110  221 193 
 PODR BN ESg      1412 55.39                              90   -0.1010  221 193 
 PODR BN  IAML    1412 59.42       182.9 0.60                           221 193 
 PODR BE  IAML    1413  0.41       149.1 0.35                           221 193 
 MIDR BZ EPg      1412 28.90   83                         90   -1.3910  223 124 
 MIDR BN ESg      1412 57.65                              90    1.8510  223 124 
 MIDR BN  IAML    1413  2.76        40.5 0.50                           223 124 
 MIDR BE  IAML    1413  6.41        46.2 1.30                           223 124 
 HIDR BZ EPg      1412 36.88   71                         90   -1.6010  277 127 
 HIDR BE  IAML    1413 13.03       126.4 0.25                           277 127 
 HIDR BN  IAML    1413 14.08       202.2 0.25                           277 127 
                                                                                
