 2017  125 0642 23.1 L  19.645 -70.725 11.6  DOM 10 0.9 3.0LDOM 3.6CDOM        1
 GAP=129        2.38       4.3     3.4 19.1 -0.9471E+00 -0.4310E+01  0.6724E+01E
 ACTION:UP  18-03-02 17:06 OP:JMLC STATUS:               ID:20170125064223 L   I
 OLDACT:UP  17-01-25 20:33 OP:FME  STATUS:               ID:20170125064200     3
 OLDACT:ARG 17-01-25 20:12 OP:FME  STATUS:               ID:20170125064200     3
 2017-01-25-0642-00S.MAN___100                                                 6
 STAT SP IPHASW D HRMM SECON CODA AMPLIT PERI AZIMU VELO AIN AR TRES W  DIS CAZ7
 SC01 BZ IPg    D  642 27.92   97                        116    0.4810 24.1 181 
 SC01 BN ESg       642 30.57                             116   -0.0810 24.1 181 
 SC01 BN  IAML     642 37.33      1090.3 0.30                          24.1 181 
 SC01 BE  IAML     642 41.45      1045.3 0.35                          24.1 181 
 LUDR BZ EPg    C  642 28.69   75                        108   -0.5710 36.4 319 
 LUDR BN ESg    D  642 34.17                             108    0.3510 36.4 319 
 LUDR BE  IAML     642 36.20      5038.3 0.20                          36.4 319 
 LUDR BN  IAML     642 38.88      5179.0 0.25                          36.4 319 
 CADR BZ EPg       642 35.63   69                         98   -0.8910 82.4  88 
 CADR BN ESg       642 47.70                              98    1.2510 82.4  88 
 CADR BN  IAML     642 54.45       380.5 0.40                          82.4  88 
 CADR BE  IAML     642 59.53       468.5 0.75                          82.4  88 
 SDDR BZ EPg    D  642 37.54   92                         97   -0.9410 94.6 219 
 SDDR BN ESg    D  642 50.93                              97    1.0610 94.6 219 
 SDDR BN  IAML     642 51.60       974.4 0.25                          94.6 219 
 SDDR BE  IAML     642 52.44       714.2 0.50                          94.6 219 
 NADR BZ EPg    C  642 38.48   92                         97   -0.3410 96.7 109 
 NADR BN ESg       642 51.79                              97    1.3510 96.7 109 
 NADR BE  IAML     642 56.47       630.4 0.55                          96.7 109 
 NADR BN  IAML     642 57.78         7.8 0.25                          96.7 109 
 MCDR BZ EPg    D  642 38.39   79                         97   -1.1710  101 286 
 MCDR BN ESg    D  642 53.74                              97    2.0010  101 286 
 MCDR BE  IAML     642 56.81       694.0 0.30                           101 286 
 MCDR BN  IAML     642 57.12      1056.3 0.15                           101 286 
 NEDR BZ EPg    C  642 46.54   92                         94   -0.9110  151 211 
 NEDR BN ESg       643  5.62                              94    0.1510  151 211 
 NEDR BE  IAML     643  7.58       221.8 1.00                           151 211 
 NEDR BN  IAML     643  7.67       269.9 0.60                           151 211 
 SMDR BZ EPg       642 48.70   98                         94   -1.2610  166 103 
 SMDR BN ESg    D  643  9.88                              94    0.0510  166 103 
 SMDR BN  IAML     643 13.78        93.5 0.60                           166 103 
 SMDR BE  IAML     643 15.91        79.2 0.50                           166 103 
 PODR BZ EPg       642 51.10   94                         94   -0.1310  174 200 
 PODR BN ESg       643 12.48                              94    0.4410  174 200 
 PODR BN  IAML     643 16.88       406.7 0.45                           174 200 
 JIDR BE  IAML     643 14.40       428.4 0.65                           174 223 
 PODR BE  IAML     643 20.21       293.4 0.85                           174 200 
 JIDR BZ EPg    C  642 50.66   93                         94   -0.6010  174 223 
 JIDR BN ESg       643 11.87                              94   -0.2310  174 223 
 JIDR BN  IAML     643 14.31       412.0 1.00                           174 223 
                                                                                
 2017  1 2 1038 31.4 L  18.676 -70.316 12.1  DOM 11 0.7 2.3LDOM 3.5CDOM 2.8WDOM1
 SPEC AVERAGE  MO 13.2 ST  1.4 OM  2.3 f0 3.98 R1.6540 AL 0.00 WI 20.0 MW  2.8 3
 SPEC SD       MO  0.8 ST  1.6 OM  0.8 f0 2.90 R3.0271 AL      WI      MW  0.5 3
 GAP=141        1.98       4.7     2.4 16.1  0.1821E+01 -0.3018E+01  0.2257E+02E
 SPEC ABDRBH Z MO 12.6 ST  5.0 OM  1.8 f0 9.35 R0.1476 AL-0.00 WI 20.0 MW  2.3 3
 SPEC ABDRBH Z T103840 K 0.020 GD 38.0 VS 3.73 DE 2.83 Q0400.0 QA 0.70 Q1 1.00 3
 SPEC SC01BH Z MO 13.3 ST0.995 OM  2.1 f0 3.19 R0.4326 AL-0.00 WI 20.0 MW  2.8 3
 SPEC SC01BH Z T103857 K 0.020 GD 94.6 VS 3.73 DE 2.83 Q0400.0 QA 0.70 Q1 1.00 3
 SPEC SDDRBH Z MO 12.8 ST0.892 OM  1.6 f0 4.34 R0.3180 AL-0.00 WI 20.0 MW  2.5 3
 SPEC SDDRBH Z T1039 1 K 0.020 GD  106 VS 3.73 DE 2.83 Q0400.0 QA 0.70 Q1 1.00 3
 SPEC NEDRBH Z MO 12.8 ST  1.2 OM  1.5 f0 5.04 R0.2738 AL-0.00 WI 20.0 MW  2.4 3
 SPEC NEDRBH Z T1039 4 K 0.020 GD  117 VS 3.73 DE 2.83 Q0400.0 QA 0.70 Q1 1.00 3
 SPEC SMDRBH Z MO 12.9 ST0.120 OM  1.6 f0 2.09 R0.6603 AL-0.00 WI 20.0 MW  2.5 3
 SPEC SMDRBH Z T1039 8 K 0.020 GD  127 VS 3.73 DE 2.83 Q0400.0 QA 0.70 Q1 1.00 3
 SPEC MIDRBH Z MO 14.2 ST0.046 OM  2.9 f00.561 R2.4601 AL-0.00 WI 20.0 MW  3.4 3
 SPEC MIDRBH Z T1039 7 K 0.020 GD  128 VS 3.73 DE 2.83 Q0400.0 QA 0.70 Q1 1.00 3
 SPEC REDRBH Z MO 12.6 ST  3.5 OM  1.3 f0 7.78 R0.1774 AL-0.00 WI 20.0 MW  2.4 3
 SPEC REDRBH Z T103915 K 0.020 GD  144 VS 3.73 DE 2.83 Q0400.0 QA 0.70 Q1 1.00 3
 SPEC JIDRBH Z MO 15.1 ST0.005 OM  3.7 f00.138 R 10.00 AL-0.00 WI 20.0 MW  4.0 3
 SPEC JIDRBH Z T103916 K 0.020 GD  147 VS 3.73 DE 2.83 Q0400.0 QA 0.70 Q1 1.00 3
 SPEC PCDRBH Z MO 13.0 ST0.659 OM  1.6 f0 3.32 R0.4157 AL-0.00 WI 20.0 MW  2.6 3
 SPEC PCDRBH Z T103927 K 0.020 GD  175 VS 3.73 DE 2.83 Q0400.0 QA 0.70 Q1 1.00 3
 2017-01-02-1037-00S.MAN___096                                                 6
 OLDACT:UP  17-01-02 11:49 OP:AMMR STATUS:               ID:20170102103700     3
 OLDACT:ARG 17-01-02 11:40 OP:plst STATUS:               ID:20170102103700     3
 ACTION:UP  18-03-02 17:06 OP:JMLC STATUS:               ID:20170102103831 L   I
 OLDACT:UP  17-01-02 11:50 OP:AMMR STATUS:               ID:20170102103700     3
 STAT SP IPHASW D HRMM SECON CODA AMPLIT PERI AZIMU VELO AIN AR TRES W  DIS CAZ7
 BON1 HZ EPg      1038 36.83   79                        112    0.1110 30.6 344 
 BON1 HN ESg      1038 40.82                             112    0.1610 30.6 344 
 BON1 HN  IAML    1038 42.33       987.9 0.18                          30.6 344 
 ABDR BZ EPg      1038 37.33   52                        112   -0.3610 36.0 295 
 ABDR BN ESg      1038 42.10                             112   -0.2510 36.0 295 
 ABDR BN  IAML    1038 45.79       516.3 0.25                          36.0 295 
 ABDR HZ  IAML    1038 46.65       138.6 0.30                          36.0 295 
 SDD  BZ EPg      1038 39.97   66                        104    0.5610 48.2 119 
 SDD  BN ESg      1038 46.21                             104    0.8710 48.2 119 
 SDD  BN  IAML    1038 48.19       159.3 0.25                          48.2 119 
 SDD  HZ  IAML    1038 48.61        66.3 0.30                          48.2 119 
 SC01 BZ EPg      1038 46.21   70                         97   -0.4410 93.8 333 
 SC01 BN ESg      1038 58.75                              97    0.8110 93.8 333 
 SC01 BN  IAML    1038 59.32       141.5 0.20                          93.8 333 
 SC01 HZ  IAML    1039  2.30        64.6 0.55                          93.8 333 
 SDDR BZ EPg      1038 48.70   82                         97   -0.2410  108 288 
 SDDR BN ESg      1039  3.03                              97    1.1110  108 288 
 SDDR HZ  IAML    1039  6.18        36.7 0.25                           108 288 
 SDDR BN  IAML    1039 11.53        77.1 0.45                           108 288 
 NEDR BZ EPg      1038 49.90   64                         96   -1.5010  123 260 
 NEDR BN ESg      1039  6.47                              96    0.2710  123 260 
 NEDR BN  IAML    1039  8.04        49.5 0.35                           123 260 
 NEDR HZ  IAML    1039  8.32        38.3 1.15                           123 260 
 SMDR BZ EPg      1038 53.35   57                         95   -0.2010  137  60 
 SMDR BN ESg      1039 10.24                              95    0.2910  137  60 
 SMDR BN  IAML    1039 10.52        58.0 0.90                           137  60 
 SMDR HZ  IAML    1039 13.44        18.1 0.30                           137  60 
 MIDR BZ EPg      1038 53.10   87                         95   -0.6010  138  75 
 MIDR BN ESg      1039  9.13                              95   -1.0710  138  75 
 MIDR BN  IAML    1039  9.49       118.9 1.10                           138  75 
 MIDR HZ  IAML    1039  9.56        81.5 0.45                           138  75 
 REDR BZ EPg      1038 56.86  108                         95   -0.4810  160 295 
 REDR BN ESg      1039 16.72                              95    0.1910  160 295 
 REDR BN  IAML    1039 18.81       157.1 0.25                           160 295 
 REDR HZ  IAML    1039 20.00        40.2 0.30                           160 295 
 JIDR BZ EPg      1038 56.59   86                         94   -1.2510  164 263 
 JIDR BN ESg      1039 18.31                              94    0.9010  164 263 
 JIDR BN  IAML    1039 21.09        32.5 0.45                           164 263 
 JIDR HZ  IAML    1039 25.16        62.9 2.50                           164 263 
 PCDR BZ EPg      1039  5.79   72                         93    1.2710  205  95 
 PCDR HZ ESg      1039 28.85                              93   -0.1810  205  95 
 PCDR HZ  IAML    1040  6.13       186.8 1.40                           205  95 
                                                                                
 2017  1 5 1748 57.8 L  18.840 -68.079 29.5  DOM 11 0.5 2.7LDOM 3.6CDOM 3.1WDOM1
 SPEC AVERAGE  MO 13.7 ST 25.2 OM  2.4 f0 7.44 R0.3109 AL 0.00 WI 20.0 MW  3.1 3
 SPEC SD       MO  0.4 ST 28.7 OM  0.5 f0 4.20 R0.1810 AL      WI      MW  0.3 3
 GAP=178        1.38      17.6     6.7 46.4  0.9950E+02 -0.2266E+03 -0.6557E+03E
 SPEC PCDRBH Z MO 13.9 ST 15.8 OM  2.6 f0 6.10 R0.2730 AL-0.00 WI 20.0 MW  3.2 3
 SPEC PCDRBH Z T174912 K 0.020 GD 56.4 VS 4.50 DE 3.40 Q0400.0 QA 0.70 Q1 1.00 3
 SPEC HIDRBH Z MO 13.4 ST 99.2 OM  2.0 f0 16.0 R0.1041 AL-0.00 WI 20.0 MW  2.9 3
 SPEC HIDRBH Z T174917 K 0.020 GD 78.3 VS 4.50 DE 3.40 Q0400.0 QA 0.70 Q1 1.00 3
 SPEC MIDRBH Z MO 13.2 ST 32.4 OM  1.7 f0 12.5 R0.1332 AL-0.00 WI 20.0 MW  2.8 3
 SPEC MIDRBH Z T174924 K 0.020 GD  107 VS 4.50 DE 3.40 Q0400.0 QA 0.70 Q1 1.00 3
 SPEC AGPRBH Z MO 13.6 ST 49.5 OM  2.0 f0 11.2 R0.1487 AL-0.00 WI 20.0 MW  3.0 3
 SPEC AGPRBH Z T174925 K 0.020 GD  113 VS 4.50 DE 3.40 Q0400.0 QA 0.70 Q1 1.00 3
 SPEC SMDRBH Z MO 13.3 ST0.959 OM  1.7 f0 3.62 R0.4599 AL-0.00 WI 20.0 MW  2.8 3
 SPEC SMDRBH Z T174930 K 0.020 GD  130 VS 4.50 DE 3.40 Q0400.0 QA 0.70 Q1 1.00 3
 SPEC CRPRBH Z MO 13.8 ST  9.1 OM  2.1 f0 5.47 R0.3044 AL-0.00 WI 20.0 MW  3.1 3
 SPEC CRPRBH Z T174933 K 0.020 GD  143 VS 4.50 DE 3.40 Q0400.0 QA 0.70 Q1 1.00 3
 SPEC AOPRBH Z MO 13.9 ST 28.4 OM  2.2 f0 7.24 R0.2300 AL-0.00 WI 20.0 MW  3.2 3
 SPEC AOPRBH Z T174938 K 0.020 GD  152 VS 4.50 DE 3.40 Q0400.0 QA 0.70 Q1 1.00 3
 SPEC NADRBH Z MO 14.7 ST  6.1 OM  2.9 f0 2.32 R0.7177 AL-0.00 WI 20.0 MW  3.7 3
 SPEC NADRBH Z T174949 K 0.020 GD  197 VS 4.50 DE 3.40 Q0400.0 QA 0.70 Q1 1.00 3
 SPEC ABDRBH Z MO 13.7 ST  2.2 OM  1.8 f0 3.47 R0.4798 AL-0.00 WI 20.0 MW  3.1 3
 SPEC ABDRBH Z T175013 K 0.020 GD  270 VS 4.50 DE 3.40 Q0400.0 QA 0.70 Q1 1.00 3
 SPEC REDRBH Z MO 13.5 ST  8.0 OM  1.4 f0 6.45 R0.2581 AL-0.00 WI 20.0 MW  2.9 3
 SPEC REDRBH Z T175046 K 0.020 GD  385 VS 4.50 DE 3.40 Q0400.0 QA 0.70 Q1 1.00 3
 2017-01-05-1747-00S.MAN___095                                                 6
 OLDACT:ARG 17-01-05 17:56 OP:fmgp STATUS:               ID:20170105174700     3
 ACTION:UP  18-03-02 17:06 OP:JMLC STATUS:               ID:20170105174857 L   I
 OLDACT:UP  17-01-05 18:08 OP:FMGP STATUS:               ID:20170105174700     3
 STAT SP IPHASW D HRMM SECON CODA AMPLIT PERI AZIMU VELO AIN AR TRES W  DIS CAZ7
 PCDR BZ EPg    D 1749  6.71   65                        114    0.2510 48.1 221 
 PCDR BZ  IAML    1749 19.93       536.9 0.35                          48.1 221 
 HIDR BZ EPg    D 1749  9.56   55                        103   -0.1710 72.5 248 
 HIDR BZ  IAML    1749 19.33       153.4 0.20                          72.5 248 
 MIDR BZ EPg    D 1749 13.67   66                         97   -0.3610  103 279 
 MIDR BZ  IAML    1749 28.02        70.7 0.20                           103 279 
 AGPR BZ EPg    C 1749 14.05   72                         96   -0.9210  110 112 
 AGPR BZ  IAML    1749 35.08       241.4 0.20                           110 112 
 SMDR BZ EPg    D 1749 17.25   87                         95   -0.0610  127 293 
 SMDR BZ  IAML    1749 37.30        53.5 0.30                           127 293 
 CRPR BZ EPg    C 1749 18.84   69                         94   -0.2510  140 131 
 CRPR BZ  IAML    1749 46.83       182.7 0.40                           140 131 
 AOPR BZ EPg    D 1749 21.67   76                         94    1.0610  150 111 
 AOPR BZ  IAML    1749 46.39       193.1 0.20                           150 111 
 NADR BZ EPg    D 1749 27.46                              93    0.5110  195 287 
 NADR BZ  IAML    1750  2.64       300.8 0.30                           195 287 
 SJG  BZ EPg    D 1749 30.36  100                         92    0.0410  219 111 
 ABDR BZ EPg      1749 37.87   89                         92    0.4110  269 270 
 ABDR BZ  IAML    1750 23.76        33.0 0.30                           269 270 
 REDR BZ EPg    D 1749 53.08  117                         91   -0.5110  384 278 
 REDR BZ  IAML    1750 58.99        11.6 1.10                           384 278 
 REDR BZ E        1750 59.20                                            384 278 
                                                                                
 2017  130 1739 42.3 L  18.463 -70.100 64.0  DOM 11 0.6 2.9LDOM 3.4CDOM        1
 GAP=165        1.64       8.7     4.0  7.7 -0.7204E+01  0.5738E+01 -0.2335E+02E
 ACTION:UP  18-03-02 17:06 OP:JMLC STATUS:               ID:20170130173942 L   I
 OLDACT:ARG 17-01-30 17:49 OP:fmgp STATUS:               ID:20170130173800     3
 2017-01-30-1738-00S.MAN___100                                                 6
 STAT SP IPHASW D HRMM SECON CODA AMPLIT PERI AZIMU VELO AIN AR TRES W  DIS CAZ7
 SDD  BZ EPg      1739 50.83   57                        161   -0.6310 19.2  90 
 SDD  BN ESg    C 1739 58.26                             161    0.0110 19.2  90 
 SDD  BE  IAML    1739 58.47       326.1 0.45                          19.2  90 
 SDD  BN  IAML    1739 59.86       131.7 0.45                          19.2  90 
 BADR BZ EPg    C 1739 51.49   42                        153   -0.5610 28.4 255 
 BADR BN ESg    D 1739 59.92                             153    0.6510 28.4 255 
 BADR BE  IAML    1740  0.66      1890.8 0.15                          28.4 255 
 BADR BN  IAML    1740  1.91      3151.0 0.30                          28.4 255 
 ABDR BZ EPg    C 1739 54.33   68                        128   -1.0210 67.6 305 
 ABDR BE ESg    D 1740  5.02                             128   -0.0010 67.6 305 
 ABDR BE  IAML    1740  5.33      1050.1 0.20                          67.6 305 
 ABDR BN  IAML    1740  6.01       867.9 0.30                          67.6 305 
 NADR BZ EPg      1739 58.41   78                        114   -0.1710  102  15 
 MIDR BZ EPg      1740  0.80   75                        108   -0.3710  125  62 
 MIDR BN ESg    D 1740 15.80                             108    0.6610  125  62 
 MIDR BE  IAML    1740 16.03       178.2 0.45                           125  62 
 MIDR BN  IAML    1740 16.06       145.6 0.45                           125  62 
 PODR BZ EPg      1740  1.20   84                        108   -0.6510  129 255 
 PODR BN ESg    C 1740 17.29                             108    0.9710  129 255 
 PODR BE  IAML    1740 20.53       171.8 0.65                           129 255 
 PODR BN  IAML    1740 20.97       149.3 0.35                           129 255 
 SDDR BZ EPg      1740  2.39   62                        106   -0.3510  138 295 
 HIDR BZ EPg      1740  4.39   64                        105    0.6510  147  84 
 HIDR BE  IAML    1740 23.36       267.1 0.25                           147  84 
 JIDR BZ EPg    C 1740  8.42   91                        100    0.1510  185 271 
 JIDR BE  IAML    1740 30.49       116.1 0.50                           185 271 
 JIDR BN  IAML    1740 31.09        91.9 0.65                           185 271 
 REDR BZ EPg    C 1740  8.39   67                        100   -0.6810  191 298 
 REDR BE ESg    D 1740 29.25                             100    0.3610  191 298 
 REDR BN  IAML    1740 38.07        78.2 0.65                           191 298 
 REDR BE  IAML    1740 38.91       114.2 0.15                           191 298 
 MCDR BZ EPg      1740 14.35   90                         97    0.9910  228 314 
 MCDR BN  IAML    1740 42.69       100.0 1.15                           228 314 
 MCDR BE  IAML    1740 46.08        54.1 0.20                           228 314 
                                                                                
