 2017  217 1225 42.0 L  17.976 -68.440 31.0  DOM 12 0.9 3.3LDOM 3.5CDOM 3.3WDOM1
 SPEC AVERAGE  MO 14.0 ST 40.4 OM  2.6 f0 5.87 R0.3882 AL 0.00 WI 20.0 MW  3.3 3
 SPEC SD       MO  0.5 ST 58.4 OM  0.5 f0 3.71 R0.2646 AL      WI      MW  0.3 3
 GAP=197        2.53      15.2     4.1 48.0  0.2608E+02  0.7401E+02  0.5896E+03E
 SPEC PCDRBH Z MO 14.1 ST 15.9 OM  2.8 f0 4.94 R0.3370 AL-0.00 WI 20.0 MW  3.4 3
 SPEC PCDRBH Z T122559 K 0.020 GD 67.4 VS 4.50 DE 3.40 Q0400.0 QA 0.70 Q1 1.00 3
 SPEC HIDRBH Z MO 13.8 ST198.2 OM  2.4 f0 14.7 R0.1133 AL-0.00 WI 20.0 MW  3.2 3
 SPEC HIDRBH Z T1226 1 K 0.020 GD 80.3 VS 4.50 DE 3.40 Q0400.0 QA 0.70 Q1 1.00 3
 SPEC CRPRBH Z MO 14.2 ST  7.4 OM  2.5 f0 3.72 R0.4476 AL-0.00 WI 20.0 MW  3.4 3
 SPEC CRPRBH Z T122619 K 0.020 GD  146 VS 4.50 DE 3.40 Q0400.0 QA 0.70 Q1 1.00 3
 SPEC AGPRBH Z MO 14.0 ST 34.9 OM  2.3 f0 7.16 R0.2325 AL-0.00 WI 20.0 MW  3.3 3
 SPEC AGPRBH Z T122621 K 0.020 GD  154 VS 4.50 DE 3.40 Q0400.0 QA 0.70 Q1 1.00 3
 SPEC SMDRBH Z MO 13.3 ST0.220 OM  1.6 f0 2.20 R0.7568 AL-0.00 WI 20.0 MW  2.8 3
 SPEC SMDRBH Z T122624 K 0.020 GD  167 VS 4.50 DE 3.40 Q0400.0 QA 0.70 Q1 1.00 3
 SPEC AOPRBH Z MO 14.2 ST 59.1 OM  2.4 f0 7.43 R0.2241 AL-0.00 WI 20.0 MW  3.4 3
 SPEC AOPRBH Z T122629 K 0.020 GD  185 VS 4.50 DE 3.40 Q0400.0 QA 0.70 Q1 1.00 3
 SPEC BADRBH Z MO 14.1 ST 38.0 OM  2.3 f0 6.63 R0.2511 AL-0.00 WI 20.0 MW  3.4 3
 SPEC BADRBH Z T122634 K 0.020 GD  211 VS 4.50 DE 3.40 Q0400.0 QA 0.70 Q1 1.00 3
 SPEC NADRBH Z MO 14.3 ST 88.8 OM  2.5 f0 7.50 R0.2220 AL-0.00 WI 20.0 MW  3.5 3
 SPEC NADRBH Z T122641 K 0.020 GD  215 VS 4.50 DE 3.40 Q0400.0 QA 0.70 Q1 1.00 3
 SPEC ABDRBH Z MO 14.2 ST  7.0 OM  2.3 f0 3.56 R0.4677 AL-0.00 WI 20.0 MW  3.4 3
 SPEC ABDRBH Z T122644 K 0.020 GD  250 VS 4.50 DE 3.40 Q0400.0 QA 0.70 Q1 1.00 3
 SPEC SDDRBH Z MO 14.2 ST  2.5 OM  2.2 f0 2.51 R0.6633 AL-0.00 WI 20.0 MW  3.4 3
 SPEC SDDRBH Z T1227 2 K 0.020 GD  322 VS 4.50 DE 3.40 Q0400.0 QA 0.70 Q1 1.00 3
 2017-02-17-1225-00S.MAN___100                                                 6
 OLDACT:ARG 17-02-17 12:30 OP:jmlc STATUS:               ID:20170217122500     3
 ACTION:UP  18-03-02 17:06 OP:JMLC STATUS:               ID:20170217122542 L   I
 OLDACT:UP  17-02-17 12:45 OP:AMM  STATUS:               ID:20170217122500     3
 OLDACT:UP  17-02-17 12:44 OP:AMM  STATUS:               ID:20170217122500     3
 STAT SP IPHASW D HRMM SECON CODA AMPLIT PERI AZIMU VELO AIN AR TRES W  DIS CAZ7
 PCDR BZ EPg    D 1225 52.97                             110    0.7710 59.9   6 
 PCDR BN ESg      1226  0.52                             110    0.7410 59.9   6 
 PCDR BN  IAML    1226  1.32      2452.0 1.00                          59.9   6 
 HIDR BZ EPg    C 1225 54.16   53                        104    0.0310 74.1 337 
 HIDR BN ESg    C 1226  1.96                             104   -1.1610 74.1 337 
 HIDR BN  IAML    1226  3.14      2330.9 0.25                          74.1 337 
 MIDR BZ EPg    C 1225 59.86                              96   -1.8610  129 330 
 MIDR BE  IAML    1226 13.64       228.1 0.20                           129 330 
 MIDR BN  IAML    1226 15.12       226.5 0.25                           129 330 
 CRPR BE  IAML    1226 29.03       294.7 0.75                           143  88 
 AGPR BZ EPg    C 1226  5.09   76                         94    0.2510  151  69 
 AGPR BN ESg      1226 22.54                              94    0.7810  151  69 
 AGPR BN  IAML    1226 26.52       458.1 0.25                           151  69 
 AGPR BE  IAML    1226 27.93       463.7 0.20                           151  69 
 SDD  BZ EPg    D 1226  8.22                              94    1.3610  165 289 
 SDD  BN ESg    D 1226 25.46                              94    0.1710  165 289 
 SDD  BN  IAML    1226 28.81       122.9 0.20                           165 289 
 SDD  BE  IAML    1226 30.73       124.5 0.15                           165 289 
 SMDR BZ EPg      1226  5.14   53                         94   -1.7310  165 332 
 SMDR BN ESg    C 1226 26.11                              94    0.8110  165 332 
 SMDR BN  IAML    1226 27.83        94.9 0.45                           165 332 
 SMDR BE  IAML    1226 28.99        93.9 0.30                           165 332 
 AOPR BZ EPg      1226  9.22   83                         93   -0.1510  183  77 
 AOPR BN ESg    C 1226 30.49                              93    0.8410  183  77 
 AOPR BE  IAML    1226 35.39      1291.4 0.30                           183  77 
 AOPR BN  IAML    1226 35.69       791.2 0.20                           183  77 
 BADR BZ EPg    D 1226 13.92                              93    0.9110  209 283 
 BADR BN ESg      1226 36.43                              93    0.4510  209 283 
 BADR BE  IAML    1226 42.37       298.3 0.30                           209 283 
 BADR BN  IAML    1226 43.88       674.5 0.25                           209 283 
 SJG  BZ EPg    C 1226 16.19  114                         92   -1.6110  243  86 
 SJG  BN ESg    D 1226 43.85                              92   -0.4610  243  86 
 ABDR BZ EPg    C 1226 18.03   63                         92   -0.8110  249 292 
 ABDR BN ESg      1226 45.68                              92   -0.4410  249 292 
 ABDR BN  IAML    1226 52.76       504.8 0.30                           249 292 
 ABDR BE  IAML    1226 53.58       643.7 0.30                           249 292 
 SDDR BZ EPg      1226 29.58   73                         92    0.8010  321 291 
 SDDR BN ESg    C 1227  3.74                              92    0.3110  321 291 
 SDDR BN  IAML    1227 10.43       145.6 0.80                           321 291 
 SDDR BE  IAML    1227 10.44       129.3 0.70                           321 291 
                                                                                
 2017  217 1720 16.8 L  19.063 -70.193 12.1  DOM  3 0.1 1.4LDOM 2.9CDOM        1
 GAP=215        0.36       5.2     2.8407.3 -0.1090E+02 -0.9072E+03  0.8366E+03E
 ACTION:UP  18-03-02 17:06 OP:JMLC STATUS:               ID:20170217172016 L   I
 OLDACT:ARG 17-02-17 17:50 OP:AMMR STATUS:               ID:20170217171800     3
 2017-02-17-1718-00S.MAN___100                                                 6
 STAT SP IPHASW D HRMM SECON CODA AMPLIT PERI AZIMU VELO AIN AR TRES W  DIS CAZ7
 ABDR BZ EPg    D 1720 25.65   49                         91   -0.0610 53.4 239 
 ABDR BN ESg      1720 32.32                              91    0.0110 53.4 239 
 ABDR BE  IAML    1720 34.95        29.7 0.40                          53.4 239 
 ABDR BN  IAML    1720 37.56        32.5 1.15                          53.4 239 
 BADR BZ EPg      1720 29.00   41                         90    0.0210 75.7 194 
 MIDR BZ EPg      1720 35.86   43                         90    0.1210  121  94 
 MIDR BN ESg      1720 49.67                              90   -0.0910  121  94 
 MIDR BE  IAML    1720 50.90         7.9 0.70                           121  94 
                                                                                
 2017  218 0138 45.3 L  18.925 -67.884 22.9  DOM  6 0.9 3.0CDOM                1
 GAP=195        2.39      17.1     7.5 84.3  0.1036E+03 -0.4374E+03 -0.1079E+04E
 ACTION:UP  18-03-02 17:06 OP:JMLC STATUS:               ID:20170218013845 L   I
 OLDACT:UP  17-02-19 00:44 OP:AMMR STATUS:               ID:20170218013700     3
 OLDACT:UP  17-02-19 00:34 OP:AMMR STATUS:               ID:20170218013700     3
 OLDACT:ARG 17-02-19 00:30 OP:jrdn STATUS:               ID:20170218013700     3
 2017-02-18-0137-00S.MAN___100                                                 6
 STAT SP IPHASW D HRMM SECON CODA AMPLIT PERI AZIMU VELO AIN AR TRES W  DIS CAZ7
 PCDR BZ EPg    D  138 56.36   40                        104   -0.4010 69.4 229 
 PCDR BN ESg    C  139  5.82                             104    0.6210 69.4 229 
 HIDR BN ESg    C  139 11.18                             100   -0.6510 95.1 247 
 AGPR BZ EPg    D  139  0.43   51                         99   -0.2510 95.9 122 
 AGPR BN ESg    C  139 13.44                              99    1.4110 95.9 122 
 MIDR BZ EPg    D  139  3.75   48                         97   -0.9910  123 273 
 MIDR BN ESg    D  139 20.09                              97    0.9910  123 273 
 CRPR BZ EPg       139  4.40   53                         96   -1.6710  132 140 
 CRPR BN ESg    D  139 21.77                              96    0.3510  132 140 
 SMDR BN ESg    C  139 24.95                              96    0.5910  143 287 
                                                                                
 2017  219 0733 23.5 L  18.326 -70.371 16.0  DOM 15 0.9 2.9LDOM 3.5CDOM 3.2WDOM1
 SPEC AVERAGE  MO 13.9 ST  7.3 OM  2.6 f0 3.66 R0.5915 AL 0.00 WI 20.0 MW  3.2 3
 SPEC SD       MO  0.1 ST  9.5 OM  0.3 f0 1.94 R0.4298 AL      WI      MW  0.1 3
 GAP=176        2.43       5.5     3.2  9.6 -0.5283E+00  0.1958E+01 -0.3108E+01E
 SPEC BADRBH Z MO 13.8 ST 34.3 OM  3.2 f0 7.56 R0.2012 AL-0.00 WI 20.0 MW  3.1 3
 SPEC BADRBH Z T 73327 K 0.020 GD 17.9 VS 4.11 DE 3.07 Q0400.0 QA 0.70 Q1 1.00 3
 SPEC PODRBH Z MO 13.7 ST 13.8 OM  2.4 f0 5.83 R0.2608 AL-0.00 WI 20.0 MW  3.1 3
 SPEC PODRBH Z T 73350 K 0.020 GD 99.2 VS 4.11 DE 3.07 Q0400.0 QA 0.70 Q1 1.00 3
 SPEC SDDRBH Z MO 13.7 ST  6.6 OM  2.3 f0 4.60 R0.3306 AL-0.00 WI 20.0 MW  3.1 3
 SPEC SDDRBH Z T 73354 K 0.020 GD  122 VS 4.11 DE 3.07 Q0400.0 QA 0.70 Q1 1.00 3
 SPEC NADRBH Z MO 14.2 ST  2.6 OM  2.7 f0 2.43 R0.6258 AL-0.00 WI 20.0 MW  3.4 3
 SPEC NADRBH Z T 73356 K 0.020 GD  127 VS 4.11 DE 3.07 Q0400.0 QA 0.70 Q1 1.00 3
 SPEC SC01BH Z MO 14.0 ST0.996 OM  2.5 f0 2.06 R0.7382 AL-0.00 WI 20.0 MW  3.3 3
 SPEC SC01BH Z T 73357 K 0.020 GD  128 VS 4.11 DE 3.07 Q0400.0 QA 0.70 Q1 1.00 3
 SPEC CADRBH Z MO 13.8 ST 18.4 OM  2.3 f0 5.96 R0.2552 AL-0.00 WI 20.0 MW  3.2 3
 SPEC CADRBH Z T 734 5 K 0.020 GD  155 VS 4.11 DE 3.07 Q0400.0 QA 0.70 Q1 1.00 3
 SPEC MIDRBH Z MO 13.9 ST0.624 OM  2.4 f0 1.78 R0.8543 AL-0.00 WI 20.0 MW  3.2 3
 SPEC MIDRBH Z T 734 3 K 0.020 GD  157 VS 4.11 DE 3.07 Q0400.0 QA 0.70 Q1 1.00 3
 SPEC MADRBH Z MO 13.9 ST  1.3 OM  2.4 f0 2.27 R0.6699 AL-0.00 WI 20.0 MW  3.2 3
 SPEC MADRBH Z T 734 3 K 0.020 GD  157 VS 4.11 DE 3.07 Q0400.0 QA 0.70 Q1 1.00 3
 SPEC JIDRBH Z MO 13.8 ST  3.1 OM  2.3 f0 3.27 R0.4650 AL-0.00 WI 20.0 MW  3.2 3
 SPEC JIDRBH Z T 734 5 K 0.020 GD  158 VS 4.11 DE 3.07 Q0400.0 QA 0.70 Q1 1.00 3
 SPEC SMDRBH Z MO 13.9 ST0.046 OM  2.3 f00.796 R1.9104 AL-0.00 WI 20.0 MW  3.2 3
 SPEC SMDRBH Z T 734 6 K 0.020 GD  164 VS 4.11 DE 3.07 Q0400.0 QA 0.70 Q1 1.00 3
 SPEC LUDRBH Z MO 13.9 ST  2.8 OM  2.3 f0 2.99 R0.5086 AL-0.00 WI 20.0 MW  3.2 3
 SPEC LUDRBH Z T 73413 K 0.020 GD  184 VS 4.11 DE 3.07 Q0400.0 QA 0.70 Q1 1.00 3
 SPEC PCDRBH Z MO 13.9 ST  1.6 OM  2.2 f0 2.57 R0.5917 AL-0.00 WI 20.0 MW  3.2 3
 SPEC PCDRBH Z T 73421 K 0.020 GD  211 VS 4.11 DE 3.07 Q0400.0 QA 0.70 Q1 1.00 3
 SPEC ABDRBH Z MO 13.6 ST  9.1 OM  2.5 f0 5.48 R0.2775 AL-0.00 WI 20.0 MW  3.0 3
 SPEC ABDRBH Z T 73338 K 0.020 GD 62.3 VS 4.11 DE 3.07 Q0400.0 QA 0.70 Q1 1.00 3
 2017-02-19-0732-00S.MAN___100                                                 6
 OLDACT:UP  17-02-19 14:19 OP:AMMR STATUS:               ID:20170219073200     3
 OLDACT:ARG 17-02-19 13:59 OP:jrdn STATUS:               ID:20170219073200     3
 ACTION:UP  18-03-02 17:06 OP:JMLC STATUS:               ID:20170219073323 L   I
 OLDACT:UP  17-02-19 14:23 OP:AMMR STATUS:               ID:20170219073200     3
 STAT SP IPHASW D HRMM SECON CODA AMPLIT PERI AZIMU VELO AIN AR TRES W  DIS CAZ7
 BADR BZ EPg    C  733 26.55   71                        153    0.0010 8.05   7 
 BADR BE ESg    D  733 28.85                             153    0.0810 8.05   7 
 BADR BZ  IAML     733 30.78      4772.5 0.50                          8.05   7 
 SD01 HN ESg    C  733 38.42                             101    0.3410 50.3  72 
 ABDR BZ EPg    C  733 32.93  102                        100   -0.6210 60.2 333 
 ABDR BE ESg    D  733 39.98                             100   -0.9710 60.2 333 
 ABDR BZ  IAML     733 41.05       464.2 0.40                          60.2 333 
 PODR BZ EPg    D  733 38.82   67                         94   -0.3410 97.9 260 
 PODR BE ESg    D  733 51.68                              94    0.9610 97.9 260 
 PODR BZ  IAML     733 52.98       388.2 0.30                          97.9 260 
 SDDR BZ EPg    D  733 42.18   65                         93   -0.4110  121 307 
 SDDR BN ESg    C  733 56.21                              93   -0.4810  121 307 
 SDDR BZ  IAML     733 58.96       321.9 0.20                           121 307 
 NADR BZ EPg    C  733 42.60   69                         92   -0.7310  126  25 
 NADR BE ESg    C  733 58.14                              92    0.1710  126  25 
 NADR BZ  IAML     734  1.57       316.3 0.65                           126  25 
 SC01 BZ EPg    C  733 43.45   80                         92   -0.1110  128 343 
 SC01 BE ESg    D  733 59.36                              92    0.9910  128 343 
 SC01 BZ  IAML     734  2.66       145.2 0.30                           128 343 
 CADR BE ESg    D  734  6.74                              92    1.1010  155  17 
 CADR BZ  IAML     734 47.61       379.8 1.50                           155  17 
 MADR BZ  IAML     734 12.62       131.6 0.35                           157 331 
 MIDR BZ EPg    D  733 46.51   74                         92   -1.5310  157  62 
 MIDR BE ESg    C  734  4.67                              92   -1.5010  157  62 
 MIDR BZ  IAML     734  6.19       133.8 0.45                           157  62 
 MADR BZ EPg    D  733 47.76   95                         92   -0.3110  157 331 
 MADR BE ESg    D  734  5.42                              92   -0.8010  157 331 
 JIDR BZ EPg    C  733 47.44   85                         92   -0.6910  158 277 
 JIDR BE ESg    C  734  7.29                              92    0.9710  158 277 
 JIDR BZ  IAML     734  9.42       146.5 0.35                           158 277 
 SMDR BZ EPg    D  733 48.03   66                         92   -1.0510  164  49 
 SMDR BE ESg    C  734  8.15                              92    0.1710  164  49 
 SMDR BZ  IAML     734 10.60        37.9 0.45                           164  49 
 LUDR BZ EPg    C  733 51.95   75                         92   -0.1510  184 341 
 LUDR BN ESg    C  734 14.91                              92    1.6910  184 341 
 LUDR BZ  IAML     734 46.89       170.6 1.20                           184 341 
 PCDR BZ EPg    C  733 56.87   82                         91    0.6510  211  84 
 PCDR BE ESg    C  734 22.66                              91    2.2510  211  84 
 PCDR BZ  IAML     734 31.11       157.3 0.65                           211  84 
 MCDR BZ EPg    C  733 57.48   70                         91   -0.0610  220 322 
 MCDR BE ESg    D  734 23.10                              91    0.4010  220 322 
 MCDR BZ  IAML     734 32.10       125.3 0.35                           220 322 
                                                                                
 2017  219 1833  0.0 L                       DOM  0                            1
 ACTION:ARG 18-03-02 17:06 OP:JMLC STATUS:               ID:20170219183300 L   I
 2017-02-19-1833-00S.MAN___168                                                 6
 STAT SP IPHASW D HRMM SECON CODA AMPLIT PERI AZIMU VELO AIN AR TRES W  DIS CAZ7
                                                                                
 2017  220 0234 36.8 L  19.038 -68.352 15.0  DOM  7 0.6 2.1LDOM 3.5CDOM        1
 GAP=186        1.71       7.8     4.0 81.1  0.1672E+02 -0.1490E+03 -0.3419E+03E
 ACTION:UP  18-03-02 17:06 OP:JMLC STATUS:               ID:20170220023436 L   I
 OLDACT:UP  17-02-20 12:44 OP:FMGP STATUS:               ID:20170220023400     3
 OLDACT:UP  17-02-20 12:32 OP:FMGP STATUS:               ID:20170220023400     3
 OLDACT:ARG 17-02-20 12:30 OP:fmgp STATUS:               ID:20170220023400     3
 2017-02-20-0234-00S.MAN___100                                                 6
 STAT SP IPHASW D HRMM SECON CODA AMPLIT PERI AZIMU VELO AIN AR TRES W  DIS CAZ7
 HIDR BZ EPg    D  234 46.60   61                         96   -0.4010 62.5 218 
 HIDR BE ESg    D  234 55.14                              96    0.6310 62.5 218 
 HIDR BE  IAML     234 58.27       135.5 0.20                          62.5 218 
 MIDR BZ EPg    D  234 47.35   64                         94   -1.3310 73.7 265 
 MIDR BN ESg    C  234 56.89                              94   -0.5610 73.7 265 
 MIDR BN  IAML     234 58.51        56.0 0.15                          73.7 265 
 SMDR BZ EPg    D  234 51.37   46                         93   -0.1210 92.2 288 
 SMDR BE ESg       235  2.46                              93    0.1310 92.2 288 
 SMDR BE  IAML     235  4.40        36.5 0.85                          92.2 288 
 NADR BZ EPg    C  235  1.73                              91   -0.3210  162 283 
 NADR BN ESg    D  235 21.83                              91    1.1210  162 283 
 NADR BN  IAML     235 27.51         3.7 0.30                           162 283 
 AOPR BZ EPg    C  235  5.82   94                         91    0.2410  185 114 
 AOPR BN ESg    C  235 26.91                              91    0.0510  185 114 
 AOPR BN  IAML     235 34.28        52.9 0.25                           185 114 
 BADR BZ EPg    C  235 12.10   93                         91    0.6910  223 252 
 BADR BN ESg    D  235 36.18                              91   -0.8110  223 252 
 BADR BN  IAML     235 47.58        39.9 0.80                           223 252 
 ABDR BZ EPg       235 14.16   94                         91    0.0010  241 264 
 ABDR BN ESg    D  235 42.43                              91    0.6610  241 264 
 ABDR BN  IAML     235 50.87        19.7 0.60                           241 264 
                                                                                
