 2017  126 0941 14.4 L  18.219 -68.527 37.5  DOM 21 1.3 3.9LDOM 4.0CDOM 4.0WDOM1
 SPEC AVERAGE  MO 15.1 ST 29.4 OM  3.6 f0 2.56 R0.9681 AL 0.00 WI 20.0 MW  4.0 3
 SPEC SD       MO  0.4 ST 50.8 OM  0.5 f0 1.61 R0.6573 AL      WI      MW  0.2 3
 GAP=171        3.54      21.7    10.5 58.0  0.7350E+02  0.2283E+03  0.4759E+03E
  357.5700   10.0000  -90.0000                               0    DOM FOCMEC   F
     180.2      50.7    -129.8 32.8 31.2      0.42 0.16 0.00      DOM HASH     F
       0.0      10.0    -102.0  2.0  1.0 24.0  0.0  0.0           DOM FPFIT    F
      55.2      23.8     -18.5                               1    DOM PINV     F
 SPEC PCDRBH Z MO 15.1 ST 14.8 OM  3.9 f0 2.26 R0.7367 AL-0.00 WI 20.0 MW  4.0 3
 SPEC PCDRBH Z T 94129 K 0.020 GD 52.1 VS 4.50 DE 3.40 Q0400.0 QA 0.70 Q1 1.00 3
 SPEC MIDRBH Z MO 14.5 ST 26.1 OM  3.0 f0 4.28 R0.3890 AL-0.00 WI 20.0 MW  3.6 3
 SPEC MIDRBH Z T 94139 K 0.020 GD  107 VS 4.50 DE 3.40 Q0400.0 QA 0.70 Q1 1.00 3
 SPEC CRPRBH Z MO 15.2 ST  8.6 OM  3.5 f0 1.77 R0.9407 AL-0.00 WI 20.0 MW  4.1 3
 SPEC CRPRBH Z T 94156 K 0.020 GD  158 VS 4.50 DE 3.40 Q0400.0 QA 0.70 Q1 1.00 3
 SPEC BANIBH Z MO 14.8 ST 31.4 OM  3.0 f0 3.71 R0.4488 AL-0.00 WI 20.0 MW  3.8 3
 SPEC BANIBH Z T 942 1 K 0.020 GD  198 VS 4.50 DE 3.40 Q0400.0 QA 0.70 Q1 1.00 3
 SPEC AOPRBH Z MO 14.9 ST179.6 OM  3.1 f0 6.22 R0.2677 AL-0.00 WI 20.0 MW  3.9 3
 SPEC AOPRBH Z T 942 5 K 0.020 GD  191 VS 4.50 DE 3.40 Q0400.0 QA 0.70 Q1 1.00 3
 SPEC CADRBH Z MO 15.8 ST  6.5 OM  3.9 f0 1.06 R1.5708 AL-0.00 WI 20.0 MW  4.5 3
 SPEC CADRBH Z T 94213 K 0.020 GD  222 VS 4.50 DE 3.40 Q0400.0 QA 0.70 Q1 1.00 3
 SPEC ABDRBH Z MO 15.2 ST  6.6 OM  3.3 f0 1.66 R1.0030 AL-0.00 WI 20.0 MW  4.1 3
 SPEC ABDRBH Z T 94214 K 0.020 GD  234 VS 4.50 DE 3.40 Q0400.0 QA 0.70 Q1 1.00 3
 SPEC SC01BH Z MO 15.2 ST  8.5 OM  3.3 f0 1.72 R0.9680 AL-0.00 WI 20.0 MW  4.1 3
 SPEC SC01BH Z T 94226 K 0.020 GD  270 VS 4.50 DE 3.40 Q0400.0 QA 0.70 Q1 1.00 3
 SPEC SDDRBH Z MO 15.7 ST  1.2 OM  3.7 f00.634 R2.6262 AL-0.00 WI 20.0 MW  4.4 3
 SPEC SDDRBH Z T 94236 K 0.020 GD  306 VS 4.50 DE 3.40 Q0400.0 QA 0.70 Q1 1.00 3
 SPEC MCDRBH Z MO 15.0 ST 11.1 OM  2.9 f0 2.28 R0.7303 AL-0.00 WI 20.0 MW  3.9 3
 SPEC MCDRBH Z T 94257 K 0.020 GD  379 VS 4.50 DE 3.40 Q0400.0 QA 0.70 Q1 1.00 3
 2017-01-26-0940-00S.MAN___100                                                 6
 OLDACT:ARG 17-01-26 14:04 OP:fmgp STATUS:               ID:20170126094000     3
 ACTION:UP  18-03-02 17:06 OP:JMLC STATUS:               ID:20170126094114 L   I
 OLDACT:UP  17-01-26 16:13 OP:FMGP STATUS:               ID:20170126094000     3
 OLDACT:UP  17-01-26 14:09 OP:FMGP STATUS:               ID:20170126094000     3
 STAT SP IPHASW D HRMM SECON CODA AMPLIT PERI AZIMU VELO AIN AR TRES W  DIS CAZ7
 PCDR BZ EPg    C  941 22.88   71                        126    0.8410 36.1  25 
 PCDR BZ  IAML     941 32.23      8160.4 0.25                          36.1  25 
 SPM1 HZ EPg    C  941 26.18   70                         99   -1.7010 86.2 287 
 SPM1 BZ  IAML     941 41.24      1494.3 0.38                          86.2 287 
 MIDR BZ EPg    D  941 28.32   86                         97   -1.3810  101 327 
 MIDR BZ  IAML     941 41.71      1482.1 0.45                           101 327 
 SMDR BZ EPg    C  941 33.40  112                         94   -0.8110  138 330 
 SDD  BZ EPg    C  941 33.22  100                         94   -2.4810  150 281 
 CRPR BZ EPg    C  941 35.77  109                         93   -0.4910  154  99 
 CRPR BZ  IAML     942  0.62      1455.8 0.55                           154  99 
 NADR BZ EPg    C  941 40.98  112                         93    0.4710  188 312 
 AOPR BZ EPg    C  941 40.87  104                         93    0.3610  188  85 
 AOPR BZ  IAML     942  9.53      2314.9 0.25                           188  85 
 BANI BZ EPg    C  941 41.35  112                         92   -0.0910  195 276 
 BANI BZ  IAML     942  8.76       938.2 0.35                           195 276 
 CADR BZ EPg    C  941 45.18  106                         92    0.8910  219 317 
 CADR BZ  IAML     942 14.54      1656.8 0.65                           219 317 
 ABDR BZ EPg    C  941 44.48  109                         92   -1.6510  231 287 
 ABDR BZ  IAML     942 17.32       707.7 0.55                           231 287 
 SJG  BZ EPg    C  941 48.31  116                         92   -0.1310  252  92 
 SC01 BZ EPg       941 50.91  126                         92    0.5110  268 300 
 SC01 BZ  IAML     942 31.91       736.7 0.85                           268 300 
 SODR BZ EPg    C  941 51.69  156                         92    0.4710  275 309 
 PODR BZ EPg    C  941 52.40  137                         92   -1.0910  291 269 
 SDDR BZ EPg    C  941 58.63  117                         91    3.7510  304 287 
 SDDR BZ  IAML     942 39.47       577.1 0.65                           304 287 
 NEDR BZ EPg    C  941 56.88  134                         91    0.9810  312 276 
 JIDR BZ EPg    C  942  2.26  160                         91    1.3110  353 275 
 MCDR BZ EPg    C  942  3.60  143                         91   -0.4610  378 300 
 PAPH BZ EPg    C  942  7.67  148                         91    0.8410  400 275 
 GRTK BZ EPg    C  942 13.53                              91   -0.1410  455 324 
                                                                                
 2017  131 0347 52.6 L  19.388 -73.699 50.0  DOM 23 0.9 4.4LDOM 4.6CDOM        1
 GAP=130        2.37      10.6     5.6 54.5  0.2342E+02 -0.4706E+02 -0.4853E+02E
  252.3700   52.8400   64.5900                               0    DOM FOCMEC   F
     113.4      48.4     130.0 19.9 18.7      0.06 0.18 0.00      DOM HASH     F
     111.0      48.0     118.0  2.0  4.0  2.0  0.0  0.0           DOM FPFIT    F
     118.7      62.7     128.2                               2    DOM PINV     F
 ACTION:UP  18-03-02 17:06 OP:JMLC STATUS:               ID:20170131034752 L   I
 OLDACT:UP  17-01-31 17:06 OP:AMMR STATUS:               ID:20170131034700     3
 OLDACT:UP  17-01-31 17:04 OP:AMMR STATUS:               ID:20170131034700     3
 OLDACT:UP  17-01-31 10:48 OP:AMMR STATUS:               ID:20170131034700     3
 OLDACT:ARG 17-01-31 10:20 OP:amrz STATUS:               ID:20170131034700     3
 2017-01-31-0347-00S.MAN___100                                                 6
 STAT SP IPHASW D HRMM SECON CODA AMPLIT PERI AZIMU VELO AIN AR TRES W  DIS CAZ7
 GTBY BZ EPg    C  348 14.27  264                         99   -1.0810  160 292 
 GTBY BN ESg    D  348 33.87                              99    1.6910  160 292 
 GTBY BE  IAML     348 36.20      2025.5 0.35                           160 292 
 GTBY BN  IAML     348 41.66      1853.3 1.20                           160 292 
 PAPH BZ EPg    D  348 15.90  159                         98   -1.4510  176 123 
 PAPH BE ESg       348 35.25                              98   -0.4210  176 123 
 PAPH BN  IAML     348 38.45     12144.5 0.24                           176 123 
 PAPH BE  IAML     348 46.45     10264.4 0.32                           176 123 
 REDR BZ EPg    C  348 20.49  137                         97   -1.1610  210  93 
 REDR BN ESg    D  348 42.20                              97   -0.9510  210  93 
 REDR BE  IAML     348 47.29      5822.8 0.25                           210  93 
 REDR BN  IAML     348 47.31      3308.0 0.20                           210  93 
 JIDR BZ EPg    D  348 22.96  168                         96    0.4110  218 117 
 JIDR BE ESg    D  348 45.69                              96    0.9810  218 117 
 JIDR BN  IAML     348 57.36      3048.5 0.70                           218 117 
 JIDR BE  IAML     348 57.79      2955.4 0.50                           218 117 
 MCDR BZ EPg    D  348 22.16  174                         96   -0.7810  221  75 
 MCDR BE ESg    C  348 46.37                              96    0.9810  221  75 
 MCDR BN  IAML     348 50.21      2118.8 0.25                           221  75 
 MCDR BE  IAML     348 52.05      1517.2 0.25                           221  75 
 NEDR BZ EPg    D  348 27.33  177                         95    0.1710  255 113 
 NEDR BN  IAML     349  9.90      2090.6 0.70                           255 113 
 NEDR BE  IAML     349 13.00      2713.4 0.55                           255 113 
 SDDR BZ EPg    C  348 26.28  139                         95   -1.1710  257 100 
 SDDR BE ESg    C  348 53.61                              95    0.3710  257 100 
 SDDR BE  IAML     349 10.82      1913.0 1.05                           257 100 
 SDDR BN  IAML     349 13.36      1966.7 0.60                           257 100 
 PODR BZ EPg    D  348 32.22  164                         94    0.8010  288 118 
 PODR BN  IAML     349 21.64      1368.7 0.50                           288 118 
 PODR BE  IAML     349 21.65      1349.6 0.50                           288 118 
 LUDR BZ EPg    C  348 31.66  167                         94   -0.1910  293  79 
 LUDR BE  IAML     349  4.45      4432.5 0.35                           293  79 
 LUDR BN  IAML     349  5.27      6476.8 0.35                           293  79 
 SC01 BZ EPg    C  348 35.47  191                         94    1.2810  312  89 
 ABDR BZ EPg    C  348 36.52  154                         94   -0.1010  329 101 
 ABDR BE  IAML     349 23.46       844.0 0.65                           329 101 
 ABDR BN  IAML     349 37.45      1259.1 1.65                           329 101 
 SODR BZ EPg    C  348 36.68  178                         94    0.2810  330  82 
 GRTK BZ EPg    D  348 39.10  156                         93   -0.5510  356  48 
 GRTK BN  IAML     349 26.23       471.5 0.85                           356  48 
 GRTK BE  IAML     349 44.04       582.8 0.90                           356  48 
 BADR BZ EPg    C  348 42.47  227                         93    1.2210  368 107 
 BADR BE  IAML     349 41.03       796.0 0.50                           368 107 
 BADR BN  IAML     349 48.26       854.5 0.70                           368 107 
 CADR BZ EPg    C  348 43.60  139                         93   -0.9410  396  85 
 NADR BZ EPg    C  348 45.83  209                         93    0.3010  404  90 
 SDD  BZ EPg    C  348 47.05                              93    0.5910  411 104 
 MTDJ BZ EPg    C  348 47.53  182                         93   -0.7810  425 253 
 SMDR BZ EPg    C  348 53.39  157                         93   -0.8710  474  91 
 MIDR BZ EPg    C  348 55.91  152                         92   -0.4510  491  94 
 PCDR BZ EPg    C  349  6.31  195                         92    0.3410  568  99 
 CRPR BZ EPg    C  349 25.36  207                         92    1.3410  714 101 
 AOPR BZ EPg    C  349 27.55  199                         92    0.1410  741  98 
                                                                                
