 2017  1 8 0314  9.4 L  18.613 -71.524 17.8  DOM  7 0.8 3.0CDOM                1
 GAP= 92        2.09       5.3     4.2 14.2  0.3194E+00  0.9234E+00 -0.3988E+02E
 ACTION:UP  18-03-02 17:06 OP:JMLC STATUS:               ID:20170108031409 L   I
 OLDACT:UP  17-01-08 23:54 OP:JMLC STATUS:               ID:20170108031300     3
 OLDACT:UP  17-01-08 23:51 OP:JMLC STATUS:               ID:20170108031300     3
 OLDACT:UP  17-01-08 23:50 OP:JMLC STATUS:               ID:20170108031300     3
 OLDACT:ARG 17-01-08 10:37 OP:amrz STATUS:               ID:20170108031300     3
 2017-01-08-0313-00S.MAN___095                                                 6
 STAT SP IPHASW D HRMM SECON CODA AMPLIT PERI AZIMU VELO AIN AR TRES W  DIS CAZ7
 NEDR BZ EPg       314 12.58   23                        137   -0.5710 15.5 158 
 NEDR BN ESg       314 16.05                             137    0.1410 15.5 158 
 JIDR BZ EPg       314 15.56   44                        111   -0.3710 37.2 249 
 JIDR BE ESg       314 21.73                             111    0.9710 37.2 249 
 SDDR BZ EPg       314 15.66   50                        106   -1.7910 47.5  31 
 PODR BZ EPg    D  314 18.05   67                        103   -0.6710 55.7 153 
 PODR BN ESg    C  314 25.62                             103    0.0110 55.7 153 
 REDR BZ EPg       314 21.88   56                         98    0.2110 75.8 346 
 REDR BE ESg       314 30.90                              98    0.1710 75.8 346 
 PAPH BZ EPg       314 22.19   48                         96   -0.4510 82.5 263 
 PAPH BZ ESg       314 32.89                              96    0.4610 82.5 263 
 ABDR BZ EPg    C  314 25.39   60                         96    0.3910 97.1  77 
 ABDR BE ESg       314 38.04                              96    1.5010 97.1  77 
                                                                                
 2017  125 2112 41.7 L  19.203 -69.793 30.9  DOM  7 0.8 2.3LDOM 3.3CDOM        1
 GAP=180        2.02      14.2     6.9 27.3 -0.4589E+02  0.9071E+02 -0.2571E+01E
 ACTION:UP  18-03-02 17:06 OP:JMLC STATUS:               ID:20170125211241 L   I
 OLDACT:ARG 17-01-25 21:53 OP:AMMR STATUS:               ID:20170125211100     3
 2017-01-25-2111-00S.MAN___100                                                 6
 STAT SP IPHASW D HRMM SECON CODA AMPLIT PERI AZIMU VELO AIN AR TRES W  DIS CAZ7
 NADR BE  IAML    2112 49.68      3770.2 0.30                          18.0 338 
 SMDR BZ EPg    D 2112 51.65   42                        107   -0.8810 64.3  81 
 SMDR BN ESg      2113  1.42                             107    0.8910 64.3  81 
 SMDR BE  IAML    2113  2.21        63.1 0.25                          64.3  81 
 SMDR BN  IAML    2113  4.84        54.9 0.55                          64.3  81 
 MIDR BZ EPg      2112 54.16   65                        102   -0.7710 81.9 107 
 MIDR BN ESg      2113  4.84                             102    0.1410 81.9 107 
 MIDR BN  IAML    2113  7.47        21.9 0.30                          81.9 107 
 ABDR BZ EPg    D 2112 56.74   73                         99   -0.6310 97.9 244 
 ABDR BN ESg    D 2113  9.18                              99    0.2210 97.9 244 
 ABDR BN  IAML    2113  9.60       144.2 0.40                          97.9 244 
 ABDR BE  IAML    2113 10.41       112.6 0.30                          97.9 244 
 BANI BZ EPg    C 2112 58.69   53                         98    0.1510  107 214 
 BANI BN ESg      2113 12.04                              98    1.0410  107 214 
 BANI BE  IAML    2113 12.20       144.6 0.55                           107 214 
 BANI BN  IAML    2113 13.29       134.0 0.20                           107 214 
 HIDR BZ EPg      2113  0.82   66                         95   -1.1310  132 121 
 SDDR BZ EPg      2113  6.78   84                         94    0.9710  159 261 
                                                                                
 2017  126 0234 14.0 L  18.653 -71.713 23.0  DOM  7 0.8 2.1LDOM 3.3CDOM 2.8WDOM1
 SPEC AVERAGE  MO 13.2 ST  2.5 OM  2.8 f0 5.16 R0.3756 AL 0.00 WI 20.0 MW  2.8 3
 SPEC SD       MO  0.3 ST  2.1 OM  1.0 f0 2.17 R0.1471 AL      WI      MW  0.2 3
 GAP=154        2.15       6.9     4.3 14.2 -0.4341E+01 -0.1731E+02 -0.3392E+02E
 SPEC JIDRBH Z MO 13.6 ST  1.2 OM  2.6 f0 3.15 R0.5203 AL-0.00 WI 20.0 MW  3.0 3
 SPEC JIDRBH Z T 23421 K 0.020 GD 32.6 VS 4.43 DE 3.34 Q0400.0 QA 0.70 Q1 1.00 3
 SPEC NEDRBH Z MO 13.2 ST  1.6 OM  2.1 f0 4.77 R0.3436 AL-0.00 WI 20.0 MW  2.7 3
 SPEC NEDRBH Z T 23423 K 0.020 GD 39.3 VS 4.43 DE 3.34 Q0400.0 QA 0.70 Q1 1.00 3
 SPEC PAPHBH Z MO 13.3 ST  6.7 OM  2.0 f0 6.88 R0.2382 AL-0.00 WI 20.0 MW  2.8 3
 SPEC PAPHBH Z T 23432 K 0.020 GD 67.6 VS 4.43 DE 3.34 Q0400.0 QA 0.70 Q1 1.00 3
 SPEC PODRBH Z MO 13.3 ST  1.6 OM  1.9 f0 4.47 R0.3667 AL-0.00 WI 20.0 MW  2.8 3
 SPEC PODRBH Z T 23433 K 0.020 GD 74.2 VS 4.43 DE 3.34 Q0400.0 QA 0.70 Q1 1.00 3
 SPEC ABDRBH Z MO 12.7 ST  3.3 OM  1.1 f0 9.00 R0.1821 AL-0.00 WI 20.0 MW  2.4 3
 SPEC ABDRBH Z T 23444 K 0.020 GD  118 VS 4.43 DE 3.34 Q0400.0 QA 0.70 Q1 1.00 3
 SPEC BANIBH Z MO 13.3 ST0.450 OM  1.7 f0 2.72 R0.6026 AL-0.00 WI 20.0 MW  2.8 3
 SPEC BANIBH Z T 23453 K 0.020 GD  146 VS 4.43 DE 3.34 Q0400.0 QA 0.70 Q1 1.00 3
 2017-01-26-0234-00S.MAN___100                                                 6
 OLDACT:UP  17-01-26 13:05 OP:FME  STATUS:               ID:20170126023400     3
 OLDACT:UP  17-01-26 11:56 OP:FME  STATUS:               ID:20170126023400     3
 OLDACT:ARG 17-01-26 08:25 OP:amrz STATUS:               ID:20170126023400     3
 ACTION:UP  18-03-02 17:06 OP:JMLC STATUS:               ID:20170126023414 L   I
 OLDACT:UP  17-01-26 13:14 OP:FME  STATUS:               ID:20170126023400     3
 STAT SP IPHASW D HRMM SECON CODA AMPLIT PERI AZIMU VELO AIN AR TRES W  DIS CAZ7
 JIDR BZ EP     D  234 17.88   45                        133   -1.2210 23.1 220 
 JIDR BN ES     D  234 22.52                             133   -0.3510 23.1 220 
 JIDR BZ  IAML     234 23.47       545.9 0.30                          23.1 220 
 NEDR BZ EPg    C  234 19.58   72                        123   -0.5710 31.9 126 
 NEDR BN ESg    D  234 25.34                             123    0.6310 31.9 126 
 NEDR BZ  IAML     234 26.01       159.9 0.30                          31.9 126 
 SDDR BZ EPg    C  234 22.85   64                        109   -0.8410 57.4  51 
 SDDR BN ESg    D  234 31.56                             109    0.7010 57.4  51 
 SDDR BZ  IAML     234 34.66        57.0 0.30                          57.4  51 
 PAPH BZ EPg    D  234 24.43   55                        106   -0.1210 63.6 257 
 PAPH BN ESg    D  234 34.11                             106    1.7410 63.6 257 
 PAPH BZ  IAML     234 36.63       216.4 0.56                          63.6 257 
 PODR BZ EPg    C  234 24.85   61                        105   -0.8210 70.5 140 
 PODR BN ESg    D  234 34.76                             105    0.4410 70.5 140 
 PODR BZ  IAML     234 36.56       105.8 0.30                          70.5 140 
 ABDR BZ EPg    D  234 31.80   72                         98   -0.6910  116  81 
 ABDR BN ESg    D  234 46.33                              98    0.1510  116  81 
 ABDR BZ  IAML     235  0.01        14.7 0.80                           116  81 
 BANI BZ EPg    C  234 36.75   79                         96   -0.0910  145 101 
 BANI BN ESg    D  234 54.79                              96    1.0510  145 101 
 BANI BZ  IAML     234 58.32        33.5 0.25                           145 101 
                                                                                
 2017  128 0705  2.2 L  19.228 -68.109  1.4  DOM  7 0.7 2.8LDOM 3.7CDOM        1
 GAP=209        1.99      16.1     8.1 96.1  0.1183E+03 -0.6575E+03 -0.1316E+04E
 ACTION:UP  18-03-02 17:06 OP:JMLC STATUS:               ID:20170128070502 L   I
 OLDACT:ARG 17-01-28 11:07 OP:nr   STATUS:               ID:20170128070500     3
 2017-01-28-0705-00S.MAN___100                                                 6
 STAT SP IPHASW D HRMM SECON CODA AMPLIT PERI AZIMU VELO AIN AR TRES W  DIS CAZ7
 PCDR BZ EPg    D  7 5 16.17   77                         91    0.4410 84.1 200 
 PCDR BE ESg    D  7 5 25.96                              91    0.1910 84.1 200 
 PCDR BE  IAML     7 5 31.22       214.1 0.30                          84.1 200 
 PCDR BN  IAML     7 5 34.44       603.1 0.90                          84.1 200 
 MIDR BZ EPg    C  7 5 18.65   77                         91   -0.0810  103 255 
 MIDR BE ESg    D  7 5 32.51                              91    1.5310  103 255 
 MIDR BE  IAML     7 5 33.23       189.7 0.15                           103 255 
 MIDR BN  IAML     7 5 33.88       149.0 0.35                           103 255 
 SMDR BZ EPg    D  7 5 20.53   86                         91    0.0210  114 274 
 SMDR BE ESg    C  7 5 34.47                              91    0.3910  114 274 
 SMDR BE  IAML     7 5 36.91        92.8 1.30                           114 274 
 SMDR BN  IAML     7 5 43.77        79.9 0.50                           114 274 
 AGPR BZ EPg    C  7 5 24.51   87                         91    0.6310  135 128 
 AGPR BE ESg    C  7 5 38.67                              91   -1.2710  135 128 
 AGPR BE  IAML     7 5 43.82       309.8 0.35                           135 128 
 AGPR BN  IAML     7 5 46.59       303.2 0.20                           135 128 
 CRPR BE ESg    D  7 5 50.54                              90   -0.1210  173 141 
 CRPR BN  IAML     7 5 55.10       196.1 0.50                           173 141 
 CRPR BE  IAML     7 5 58.44       135.4 0.30                           173 141 
 AOPR BE E      C  7 5 52.54                                            173 124 
 CRPR BZ EPg    C  7 5 29.70   91                         90   -0.3410  173 141 
 AOPR BZ EPg    C  7 5 30.03  107                         91   -0.0410  173 124 
 AOPR BE ESg    C  7 5 50.81                              91    0.1010  173 124 
 AOPR BE  IAML     7 5 59.68       474.3 0.30                           173 124 
 AOPR BN  IAML     7 6  2.22       166.8 0.30                           173 124 
 NADR BZ EPg    C  7 5 30.22   91                         90   -1.6610  184 275 
 NADR BE ESg    D  7 5 54.08                              90    0.2110  184 275 
 NADR BE  IAML     7 6  1.71       418.6 0.45                           184 275 
 NADR BN  IAML     7 6  2.09         7.1 0.30                           184 275 
                                                                                
 2017  130 1843 57.7 L  18.570 -68.638 78.7  DOM  7 0.6 2.4LDOM 3.3CDOM        1
 GAP=167        1.57      13.9    10.0  7.9  0.1085E+03 -0.1603E+01  0.5930E+01E
 ACTION:UP  18-03-02 17:06 OP:JMLC STATUS:               ID:20170130184357 L   I
 OLDACT:ARG 17-01-30 19:39 OP:AMMR STATUS:               ID:20170130184300     3
 2017-01-30-1843-00S.MAN___100                                                 6
 STAT SP IPHASW D HRMM SECON CODA AMPLIT PERI AZIMU VELO AIN AR TRES W  DIS CAZ7
 HIDR BZ EPg    C 1844  7.33   40                        173   -1.0410 8.43 286 
 HIDR BE ESg      1844 16.23                             173   -0.0110 8.43 286 
 HIDR BE  IAML    1844 18.14       176.6 0.25                          8.43 286 
 HIDR BN  IAML    1844 18.76       143.0 0.25                          8.43 286 
 PCDR BZ EPg      1844  8.25   60                        159   -0.6910 27.9 103 
 PCDR HN ESg      1844 18.01                             159    0.7810 27.9 103 
 PCDR HN  IAML    1844 19.26       101.8 0.54                          27.9 103 
 PCDR BN  IAML    1844 19.28       128.9 0.55                          27.9 103 
 MIDR BZ EPg      1844 10.69   63                        137   -0.5210 63.0 317 
 MIDR BN ESg      1844 21.57                             137    0.3810 63.0 317 
 MIDR BE  IAML    1844 21.73        62.0 0.60                          63.0 317 
 MIDR BN  IAML    1844 22.59        55.6 0.45                          63.0 317 
 SMDR BZ EPg      1844 13.97   62                        123   -0.5410 98.4 324 
 SMDR BN ESg      1844 27.22                             123    0.3010 98.4 324 
 SMDR BN  IAML    1844 30.82        37.5 0.55                          98.4 324 
 SMDR BE  IAML    1844 30.99        51.1 0.90                          98.4 324 
 CRPR BZ EPg      1844 23.04   77                        108    0.0610  175 111 
 CRPR BE  IAML    1844 48.68        21.7 1.20                           175 111 
 AOPR BZ EPg      1844 26.42   68                        105    0.4610  201  97 
 AOPR BE  IAML    1844 51.98       116.4 0.30                           201  97 
 AOPR BN  IAML    1844 55.18        88.0 0.25                           201  97 
 ABDR BZ EPg      1844 28.33   60                        104    0.8210  211 278 
 ABDR BN  IAML    1845  0.43        42.3 0.25                           211 278 
                                                                                
 2017  131 2213 34.9 L  18.342 -68.769117.0  DOM  7 0.8 2.5LDOM 3.6CDOM        1
 GAP=184        2.00      19.8     9.3 17.4  0.1362E+03  0.7283E+02  0.2167E+03E
 ACTION:UP  18-03-02 17:06 OP:JMLC STATUS:               ID:20170131221334 L   I
 OLDACT:ARG 17-01-31 22:37 OP:plst STATUS:               ID:20170131221200     3
 2017-01-31-2212-00S.MAN___100                                                 6
 STAT SP IPHASW D HRMM SECON CODA AMPLIT PERI AZIMU VELO AIN AR TRES W  DIS CAZ7
 PCDR BZ EPg      2213 49.86   74                        157   -1.1510 45.2  65 
 PCDR HZ ESg      2214  3.29                             157    0.3210 45.2  65 
 PCDR HZ  IAML    2214  4.10        48.5 0.58                          45.2  65 
 MIDR BZ EPg      2213 51.49   58                        144   -1.3710 76.9 337 
 MIDR BN ESg      2214  5.75                             144   -0.4310 76.9 337 
 MIDR BN  IAML    2214  9.54        47.4 0.15                          76.9 337 
 SMDR BZ EPg      2213 55.54   46                        132   -0.2510  114 337 
 SMDR BN ESg      2214 12.31                             132    1.0310  114 337 
 SMDR BN  IAML    2214 16.62        42.5 0.35                           114 337 
 AGPR BE  IAML    2214 28.42       106.7 2.65                           176  85 
 CRPR BZ EPg    C 2214  2.01   91                        117   -0.3810  182 102 
 CRPR BN ESg    D 2214 23.46                             117    0.6910  182 102 
 CRPR BN  IAML    2214 31.77        52.2 1.70                           182 102 
 ABDR BZ EPg      2214  5.07  135                        115    0.0910  203 285 
 ABDR BN ESg      2214 28.00                             115    0.7310  203 285 
 ABDR BN  IAML    2214 37.26        25.5 3.45                           203 285 
 AOPR BZ EPg      2214  6.49   78                        113    0.7110  213  90 
 AOPR BN  IAML    2214 36.04        59.7 0.25                           213  90 
                                                                                
 2017  112 2257 13.8 L  19.750 -70.078 22.5  DOM  8 0.6 2.6LDOM 3.5CDOM        1
 GAP=236        1.73      14.8     3.3 57.5  0.3341E+01  0.4431E+02 -0.4254E+02E
 ACTION:UP  18-03-02 17:06 OP:JMLC STATUS:               ID:20170112225713 L   I
 OLDACT:UP  17-01-12 23:35 OP:AMMR STATUS:               ID:20170112225600     3
 OLDACT:UP  17-01-12 23:34 OP:AMMR STATUS:               ID:20170112225600     3
 OLDACT:UP  17-01-12 23:23 OP:AMMR STATUS:               ID:20170112225600     3
 OLDACT:ARG 17-01-12 23:16 OP:plst STATUS:               ID:20170112225600     3
 2017-01-12-2256-00S.MAN___100                                                 6
 STAT SP IPHASW D HRMM SECON CODA AMPLIT PERI AZIMU VELO AIN AR TRES W  DIS CAZ7
 SC01 BZ EPg    D 2257 27.09   61                        102    0.8210 76.9 242 
 SC01 BN  IAML    2257 44.39       106.9 0.60                          76.9 242 
 SMDR BZ EPg      2257 30.18   63                         98   -0.4810  106 118 
 SMDR BN ESg      2257 44.55                              98    1.3910  106 118 
 SMDR BN  IAML    2257 45.21        84.2 0.60                           106 118 
 ABDR BZ EPg      2257 31.40   65                         97   -1.2710  119 209 
 ABDR BN  IAML    2257 46.04       172.1 0.20                           119 209 
 MIDR BZ EPg      2257 34.63   85                         96   -0.6910  137 128 
 MIDR BN ESg      2257 51.29                              96    0.0210  137 128 
 MIDR BN  IAML    2257 54.41        45.1 0.10                           137 128 
 SDDR BZ EPg    D 2257 37.46   83                         95   -0.2810  153 236 
 SDDR BN ESg      2257 55.52                              95    0.0410  153 236 
 SDDR BN  IAML    2257 56.05        50.5 0.35                           153 236 
 PODR BZ EPg    D 2257 47.48   88                         93    0.1510  216 216 
 PODR BN  IAML    2258 17.06        45.2 1.50                           216 216 
 PCDR BZ EPg      2257 48.67   85                         93    0.1210  225 127 
 PCDR HZ ESg      2258 13.90                              93   -0.3910  225 127 
 PCDR HZ  IAML    2258 17.77       144.8 1.24                           225 127 
 JIDR BZ EPg      2257 49.84   71                         93    0.0910  233 234 
 JIDR BN ESg      2258 16.86                              93    0.4810  233 234 
 JIDR BN  IAML    2258 19.44       101.7 0.45                           233 234 
                                                                                
