 2017  115 2327 57.9 L  19.847 -65.431 21.8  DOM  8 2.0 3.7LDOM 4.2CDOM 3.6WDOM1
 SPEC AVERAGE  MO 14.5 ST 35.7 OM  2.9 f0 4.34 R0.7364 AL 0.00 WI 20.0 MW  3.6 3
 SPEC SD       MO  0.6 ST 73.7 OM  0.8 f0 4.88 R0.4440 AL      WI      MW  0.4 3
 GAP=300        5.30      93.9    31.7999.9  0.1937E+04 -0.3091E+05 -0.1472E+06E
 SPEC AOPRBH Z MO 15.0 ST 16.7 OM  3.2 f0 2.53 R0.6376 AL-0.00 WI 20.0 MW  3.9 3
 SPEC AOPRBH Z T232853 K 0.020 GD  218 VS 4.36 DE 3.28 Q0400.0 QA 0.70 Q1 1.00 3
 SPEC AGPRBH Z MO 14.5 ST  7.1 OM  2.7 f0 2.73 R0.5909 AL-0.00 WI 20.0 MW  3.6 3
 SPEC AGPRBH Z T232860 K 0.020 GD  234 VS 4.36 DE 3.28 Q0400.0 QA 0.70 Q1 1.00 3
 SPEC CRPRBH Z MO 15.3 ST  2.2 OM  3.4 f0 1.03 R1.5662 AL-0.00 WI 20.0 MW  4.1 3
 SPEC CRPRBH Z T232910 K 0.020 GD  268 VS 4.36 DE 3.28 Q0400.0 QA 0.70 Q1 1.00 3
 SPEC PCDRBH Z MO 14.5 ST  1.8 OM  2.5 f0 1.78 R0.9063 AL-0.00 WI 20.0 MW  3.6 3
 SPEC PCDRBH Z T232934 K 0.020 GD  344 VS 4.36 DE 3.28 Q0400.0 QA 0.70 Q1 1.00 3
 SPEC MIDRBH Z MO 13.6 ST  4.8 OM  1.6 f0 4.68 R0.3447 AL-0.00 WI 20.0 MW  3.0 3
 SPEC MIDRBH Z T232943 K 0.020 GD  392 VS 4.36 DE 3.28 Q0400.0 QA 0.70 Q1 1.00 3
 SPEC ABDRBH Z MO 13.7 ST215.8 OM  1.5 f0 16.0 R0.1008 AL-0.00 WI 20.0 MW  3.1 3
 SPEC ABDRBH Z T233023 K 0.020 GD  558 VS 4.36 DE 3.28 Q0400.0 QA 0.70 Q1 1.00 3
 SPEC SDDRBH Z MO 14.5 ST  1.5 OM  2.3 f0 1.60 R1.0082 AL-0.00 WI 20.0 MW  3.6 3
 SPEC SDDRBH Z T233040 K 0.020 GD  623 VS 4.36 DE 3.28 Q0400.0 QA 0.70 Q1 1.00 3
 2017-01-15-2327-00S.MAN___100                                                 6
 OLDACT:ARG 17-01-15 23:56 OP:plst STATUS:               ID:20170115232700     3
 OLDACT:UP  17-01-16 13:31 OP:FMGP STATUS:               ID:20170115232700     3
 OLDACT:UP  17-09-04 15:02 OP:jmlc STATUS:               ID:20170115232759     3
 ACTION:UP  18-03-02 17:06 OP:JMLC STATUS:               ID:20170115232757 L   I
 OLDACT:UP  18-01-11 13:09 OP:JMLC STATUS:               ID:20170115232759     3
 STAT SP IPHASW D HRMM SECON CODA AMPLIT PERI AZIMU VELO AIN AR TRES W  DIS CAZ7
 SJG  BZ EPg      2328 29.70  113                         93   -0.2110  206 202 
 SJG  BN ESg      2328 50.25                              93   -3.3410  206 202 
 AOPR BZ EPg      2328 32.49  109                         93    1.0410  217 220 
 AOPR BN ESg      2328 55.08                              93   -1.2010  217 220 
 AOPR BZ  IAML    2329  1.01       764.4 0.50                           217 220 
 AOPR BN  IAML    2329  8.07      1777.7 0.35                           217 220 
 AGPR BZ EPg      2328 36.34  119                         93    2.3910  233 229 
 AGPR BN ESg      2329  1.59                              93    0.9610  233 229 
 AGPR BZ  IAML    2329 21.56       361.2 1.35                           233 229 
 AGPR BN  IAML    2329 24.97       502.7 0.75                           233 229 
 CRPR BZ EPg      2328 40.47  126                         92    1.2210  268 221 
 CRPR BN ESg      2329 11.63                              92    1.7810  268 221 
 CRPR BZ  IAML    2329 20.93       568.8 0.45                           268 221 
 PCDR BZ EPg      2328 52.14  129                         92    1.4910  344 245 
 PCDR BZ  IAML    2330 20.47       210.6 1.45                           344 245 
 MIDR BZ EPg      2328 59.79  130                         92    1.8210  392 256 
 MIDR BN ESg      2329 44.85                              92    2.4310  392 256 
 MIDR BE  IAML    2329 53.48        48.3 2.00                           392 256 
 MIDR BZ  IAML    2330  8.25        41.9 3.60                           392 256 
 ABDR BZ EPg      2329 21.44  139                         91   -1.8210  558 259 
 ABDR BN ESg      2330 25.26                              91   -1.1610  558 259 
 ABDR BZ  IAML    2330 43.51        55.2 1.10                           558 259 
 SDDR BZ EPg      2329 29.05  148                         91   -3.9210  623 262 
 SDDR BN ESg      2330 41.84                              91   -1.4810  623 262 
 SDDR BZ  IAML    2330 42.86        36.6 0.55                           623 262 
                                                                                
 2017  117 0717 39.1 L  18.390 -68.819189.5  DOM  8 0.4 2.7LDOM 3.6CDOM 2.7WDOM1
 SPEC AVERAGE  MO 13.1 ST  6.4 OM  2.1 f0 7.51 R0.2236 AL 0.00 WI 20.0 MW  2.7 3
 SPEC SD       MO  0.3 ST  3.9 OM  0.8 f0 1.56 R0.0619 AL      WI      MW  0.2 3
 GAP=162        0.98      11.4     3.3  9.0  0.1226E+02  0.2698E+01  0.6416E+02E
 SPEC SDDRBH Z MO 12.9 ST  2.3 OM  0.9 f0 6.54 R0.2501 AL-0.00 WI 20.0 MW  2.5 3
 SPEC SDDRBH Z T 71849 K 0.020 GD  329 VS 4.42 DE 3.40 Q0400.0 QA 0.70 Q1 1.00 3
 SPEC AOPRBH Z MO 13.5 ST 10.6 OM  1.6 f0 6.67 R0.2452 AL-0.00 WI 20.0 MW  3.0 3
 SPEC AOPRBH Z T 71840 K 0.020 GD  288 VS 4.42 DE 3.40 Q0400.0 QA 0.70 Q1 1.00 3
 SPECBANDRBH Z MO 13.0 ST 11.4 OM  1.1 f0 10.7 R 0.153 AL-0.00 WI 20.0 MW  2.6 3
 SPECBANDRBH Z T 71831 K 0.020 GD224.3 VS 4.42 DE 3.40 Q0400.0 QA 0.70 Q1 1.00 3
 SPEC MIDRBH Z MO 12.9 ST  6.3 OM  1.1 f0 9.31 R0.1757 AL-0.00 WI 20.0 MW  2.5 3
 SPEC MIDRBH Z T 71820 K 0.020 GD  202 VS 4.42 DE 3.40 Q0400.0 QA 0.70 Q1 1.00 3
 2017-01-17-0715-00S.MAN___100                                                 6
 OLDACT:ARG 17-01-17 07:24 OP:amrz STATUS:               ID:20170117071500     3
 ACTION:UP  18-03-02 17:06 OP:JMLC STATUS:               ID:20170117071739 L   I
 OLDACT:UP  17-01-17 23:36 OP:FMGP STATUS:               ID:20170117071500     3
 OLDACT:UP  17-01-17 12:46 OP:FMGP STATUS:               ID:20170117071500     3
 STAT SP IPHASW D HRMM SECON CODA AMPLIT PERI AZIMU VELO AIN AR TRES W  DIS CAZ7
 PCDR BZ EPg    C  718  2.78   63                        165   -0.7210 48.2  73 
 PCDR BN ESg       718 21.49                             165   -0.0410 48.2  73 
 MIDR BZ EPg       718  3.83   56                        159   -0.4610 70.0 340 
 MIDR BN ESg       718 22.85                             159   -0.0610 70.0 340 
 MIDR BE  IAML     718 26.54        35.1 0.95                          70.0 340 
 SMDR BN  IAML     718 26.06        18.0 0.40                           107 339 
 SMDR BE ESg    D  718 26.32                             149    0.0810  107 339 
 SMDR BE  IAML     718 30.07        29.0 0.95                           107 339 
 AGPR BZ EPg       718 11.98   65                        134    0.3210  181  87 
 AGPR BN  IAML     718 38.86       117.4 2.50                           181  87 
 AGPR BE  IAML     718 42.74        69.7 1.30                           181  87 
 CRPR BZ EPg    C  718 12.35   94                        133    0.0910  188 103 
 CRPR BE  IAML     718 38.36        52.4 1.50                           188 103 
 AOPR BZ EPg       718 14.79   82                        128   -0.2210  218  91 
 AOPR BN ESg       718 42.09                             128    0.5210  218  91 
 AOPR BE  IAML     718 46.29        94.4 0.55                           218  91 
 AOPR BN  IAML     718 48.33        82.2 0.25                           218  91 
 PODR BN ESg       718 49.03                             123   -0.0310  262 265 
 PODR BE  IAML     718 49.26        52.8 1.90                           262 265 
 PODR BN  IAML     718 49.91        41.5 2.70                           262 265 
 SDDR BN ESg       718 50.55                             122    0.5110  269 284 
 SDDR BE  IAML     718 56.46         4.5 0.15                           269 284 
 SDDR BN  IAML     718 59.09        27.7 2.30                           269 284 
                                                                                
 2017  129 0114 34.6 L  19.410 -69.232 69.1  DOM  9 0.9 3.4LDOM 3.4CDOM        1
 GAP=207        2.41      14.3     8.9 12.0  0.8955E+02  0.3211E+02  0.1027E+02E
 ACTION:UP  18-03-02 17:06 OP:JMLC STATUS:               ID:20170129011434 L   I
 OLDACT:ARG 17-01-29 01:31 OP:nr   STATUS:               ID:20170129011400     3
 2017-01-29-0114-00S.MAN___100                                                 6
 STAT SP IPHASW D HRMM SECON CODA AMPLIT PERI AZIMU VELO AIN AR TRES W  DIS CAZ7
 SMDR BZ EPg    D  114 43.52   45                        167   -0.6610 14.1 161 
 SMDR BE ESg    C  114 51.62                             167    0.3410 14.1 161 
 SMDR BE  IAML     114 51.69      1782.9 0.45                          14.1 161 
 SMDR BN  IAML     114 51.73       950.4 0.15                          14.1 161 
 MIDR BZ EPg    C  114 45.51   48                        139   -0.7210 51.0 158 
 MIDR BE ESg    D  114 54.74                             139   -0.1110 51.0 158 
 MIDR BN  IAML     114 54.84      1558.7 0.20                          51.0 158 
 MIDR BE  IAML     114 54.89      2046.7 0.15                          51.0 158 
 NADR BZ EPg    D  114 46.64   64                        131   -0.8710 65.9 265 
 NADR BE ESg    C  114 57.27                             131    0.2010 65.9 265 
 NADR BE  IAML     114 57.85      2312.0 0.25                          65.9 265 
 NADR BN  IAML     114 58.27        43.5 0.30                          65.9 265 
 CADR BZ EPg    C  114 48.25   59                        125   -0.5610 79.6 291 
 CADR BE ESg    C  114 58.92                             125   -0.4210 79.6 291 
 CADR BE  IAML     115  1.08      1467.2 0.20                          79.6 291 
 CADR BN  IAML     115  1.27      1707.5 0.25                          79.6 291 
 PCDR BZ EPg    D  114 54.72   68                        110    0.0410  134 138 
 PCDR BE ESg    D  115 11.01                             110    1.4610  134 138 
 PCDR BE  IAML     115 11.67       229.3 0.25                           134 138 
 PCDR BN  IAML     115 12.66       499.2 0.60                           134 138 
 SC01 BZ EPg    D  114 58.61   95                        106    1.2010  157 271 
 SC01 BE ESg    D  115 15.95                             106    1.6510  157 271 
 SC01 BN  IAML     115 22.95       399.9 0.65                           157 271 
 SC01 BE  IAML     115 23.52       301.0 0.50                           157 271 
 ABDR BZ EPg    D  114 57.21   78                        106   -0.9410  161 246 
 ABDR BE ESg    C  115 15.21                             106   -0.3910  161 246 
 ABDR BN  IAML     115 16.69       457.1 0.40                           161 246 
 ABDR BE  IAML     115 17.89       549.9 0.20                           161 246 
 LUDR BZ EPg    C  115  0.69   70                        102   -0.3610  188 287 
 LUDR BE ESg    D  115 22.42                             102    1.7810  188 287 
 LUDR BE  IAML     115 23.32      1059.0 0.30                           188 287 
 LUDR BN  IAML     115 24.56      1882.8 0.30                           188 287 
 REDR BZ EPg    C  115  8.88   82                         97   -0.8110  260 267 
 REDR BE E      D  115 34.84                                            260 267 
 REDR BE ESg    D  115 34.84                              97   -0.8310  260 267 
 REDR BN  IAML     115 37.09       394.2 0.15                           260 267 
 REDR BE  IAML     115 37.17       408.6 0.15                           260 267 
                                                                                
 2017  129 1937 57.3 L  18.580 -68.802 27.9  DOM  9 0.9 2.2LDOM 3.5CDOM        1
 GAP=179        2.33       9.4     4.8  9.8  0.2678E+02  0.1244E+02  0.1242E+02E
 ACTION:UP  18-03-02 17:06 OP:JMLC STATUS:               ID:20170129193757 L   I
 OLDACT:ARG 17-01-30 00:07 OP:plst STATUS:               ID:20170129193700     3
 2017-01-29-1937-00S.MAN___100                                                 6
 STAT SP IPHASW D HRMM SECON CODA AMPLIT PERI AZIMU VELO AIN AR TRES W  DIS CAZ7
 HIDR BZ EPg      1938  1.63   35                        160   -0.1810 9.29  82 
 HIDR BN ESg      1938  5.90                             160    0.7310 9.29  82 
 HIDR BN  IAML    1938  6.84      1667.4 0.20                          9.29  82 
 PCDR BZ EPg      1938  4.43   62                        114   -0.9810 45.0  99 
 PCDR HZ ESg      1938 10.80                             114   -0.6210 45.0  99 
 PCDR HZ  IAML    1938 12.21       149.9 1.28                          45.0  99 
 MIDR BZ EPg      1938  5.49   72                        109   -0.7910 51.7 330 
 MIDR BN ESg      1938 12.78                             109   -0.1610 51.7 330 
 MIDR BN  IAML    1938 13.77        50.4 0.10                          51.7 330 
 SMDR BZ EPg      1938 11.82   55                         97    0.4910 88.4 333 
 SMDR BN ESg      1938 21.86                              97    0.1210 88.4 333 
 SMDR BN  IAML    1938 25.76        23.7 0.85                          88.4 333 
 AGPR BZ EPg      1938 25.65   73                         92    1.5710  179  94 
 AGPR BN ESg      1938 44.96                              92    1.0410  179  94 
 AGPR BN  IAML    1938 47.61       108.2 3.10                           179  94 
 ABDR BZ EPg    D 1938 25.89   81                         92   -0.5210  194 278 
 ABDR BN ESg    D 1938 48.20                              92    0.2210  194 278 
 ABDR BN  IAML    1938 56.45        34.9 0.45                           194 278 
 AOPR BZ EPg      1938 28.76   86                         92   -0.8010  218  96 
 AOPR BN ESg      1938 52.77                              92   -0.6810  218  96 
 SDDR BZ EPg      1938 38.31   89                         91    1.9610  266 280 
 SDDR BN  IAML    1939 13.74         9.3 0.95                           266 280 
 REDR BZ EPg      1938 42.34  101                         91   -0.9210  315 285 
 REDR BN ESg      1939 16.80                              91   -0.4910  315 285 
 REDR BN  IAML    1939 25.28         9.5 0.15                           315 285 
                                                                                
 2017  112 0720 43.6 L  19.417 -69.570108.5  DOM 10 0.7 2.7LDOM 3.3CDOM        1
 GAP=199        1.89      14.2     5.8 13.0  0.3403E+02  0.4067E+02  0.4218E+02E
 ACTION:UP  18-03-02 17:06 OP:JMLC STATUS:               ID:20170112072043 L   I
 OLDACT:ARG 17-01-12 18:14 OP:AMMR STATUS:               ID:20170112072000     3
 2017-01-12-0720-00S.MAN___100                                                 6
 STAT SP IPHASW D HRMM SECON CODA AMPLIT PERI AZIMU VELO AIN AR TRES W  DIS CAZ7
 SMDR BN ESg       721 10.16                             157    0.2510 42.5 109 
 SMDR BE  IAML     721 10.27       188.7 0.45                          42.5 109 
 SMDR BN  IAML     721 10.39       167.7 0.45                          42.5 109 
 MIDR BZ EPg       720 59.84   58                        143   -0.6910 72.7 131 
 MIDR BN ESg       721 11.72                             143   -1.3210 72.7 131 
 MIDR BE  IAML     721 11.76       174.4 0.20                          72.7 131 
 MIDR BN  IAML     721 12.29       180.0 0.15                          72.7 131 
 SDD  BZ EPg       721  5.07   46                        130    1.3410  112 199 
 SDD  BN  IAML     721 13.54        30.8 0.35                           112 199 
 SC01 BZ EPg       721  5.18   52                        127    0.5210  122 271 
 SC01 BN ESg       721 21.03                             127    0.8010  122 271 
 SC01 BN  IAML     721 22.46       142.3 1.10                           122 271 
 SC01 BE  IAML     721 22.54       167.1 0.25                           122 271 
 ABDR BE  IAML     721 21.42       176.6 0.30                           130 239 
 PCDR HZ EPg       721  8.90   59                        118    0.4410  160 128 
 PCDR BZ EPg       721  8.97   58                        118            160 128 
 PCDR BE  IAML     721 26.42        56.4 1.15                           160 128 
 PCDR BE ESg       721 27.47                             118    0.6210  160 128 
 PCDR HE  IAML     721 31.65       121.8 1.46                           160 128 
 PCDR HN  IAML     721 36.66        87.7 1.64                           160 128 
 PCDR BN E         724 12.92                                            160 128 
 SDDR BZ EPg       721 11.73   61                        114    0.3310  187 255 
 SDDR BN ESg       721 32.09                             114    0.1410  187 255 
 SDDR BE  IAML     721 33.96        37.3 0.25                           187 255 
 SDDR BN  IAML     721 34.36        55.8 0.30                           187 255 
 REDR BZ EPg       721 14.95   67                        109   -0.5510  225 266 
 REDR BN ESg       721 38.29                             109   -0.7910  225 266 
 REDR BN  IAML     721 39.98       116.9 0.15                           225 266 
 REDR BE  IAML     721 39.99       192.9 0.10                           225 266 
 PODR BZ EPg    C  721 15.20   49                        109   -0.7310  227 233 
 PODR BE  IAML     721 38.91        50.1 1.00                           227 233 
 PODR BE ESg       721 39.40                             109   -0.4310  227 233 
 PODR BN  IAML     721 44.31        25.1 1.50                           227 233 
 JIDR BZ EPg       721 19.07   87                        105   -0.4810  261 247 
 JIDR BE  IAML     721 24.63        43.9 2.40                           261 247 
 JIDR BN  IAML     721 45.55        33.3 2.20                           261 247 
 JIDR BN ESg       721 46.68                             105    0.5410  261 247 
                                                                                
