 2017  216 1251 56.0 L  18.720 -69.407106.9  DOM 16 0.7 4.5LDOM 4.1CDOM        1
 GAP= 81        1.78       7.1     4.1  7.2 -0.1469E+01  0.5119E+01  0.4072E+01E
  340.4700   54.3700   58.6700                               0    DOM FOCMEC   F
     185.2      42.5     108.0 25.0 30.2      0.00 0.48 0.00      DOM HASH     F
       0.0      52.0      38.0  5.0  6.0 27.0  0.0  0.0           DOM FPFIT    F
     344.3      48.8      72.5                               0    DOM PINV     F
 ACTION:UP  18-03-02 17:06 OP:JMLC STATUS:               ID:20170216125156 L   I
 OLDACT:UP  17-02-16 19:00 OP:AMMR STATUS:               ID:20170216125100     3
 OLDACT:UP  17-02-16 18:22 OP:AMMR STATUS:               ID:20170216125100     3
 OLDACT:UP  17-02-16 18:07 OP:AMMR STATUS:               ID:20170216125100     3
 OLDACT:UP  17-02-16 18:06 OP:AMMR STATUS:               ID:20170216125100     3
 OLDACT:UP  17-02-16 18:05 OP:AMMR STATUS:               ID:20170216125100     3
 OLDACT:UP  17-02-16 17:58 OP:AMMR STATUS:               ID:20170216125100     3
 OLDACT:ARG 17-02-16 17:34 OP:jmlc STATUS:               ID:20170216125100     3
 2017-02-16-1251-00S.MAN___100                                                 6
 STAT SP IPHASW D HRMM SECON CODA AMPLIT PERI AZIMU VELO AIN AR TRES W  DIS CAZ7
 SPM1 HZ EPg    C 1252  9.76   83                        162   -0.7510 32.1 161 
 SPM1 HN ESg    D 1252 21.44                             162    0.2010 32.1 161 
 MIDR BZ EPg    C 1252 10.65  114                        154   -0.5510 47.6  52 
 MIDR BE ESg    C 1252 22.49                             154    0.0410 47.6  52 
 MIDR BE  IAML    1252 24.01     12366.7 0.55                          47.6  52 
 MIDR BN  IAML    1252 24.06     16142.9 0.40                          47.6  52 
 SDD  BZ EPg    C 1252 10.96  130                        147   -1.0210 61.0 242 
 SDD  BN ESg    D 1252 22.76                             147   -1.0410 61.0 242 
 SDD  BN  IAML    1252 23.34      7435.2 0.90                          61.0 242 
 SDD  BE  IAML    1252 26.17      4367.9 0.80                          61.0 242 
 SMDR BZ EPg      1252 11.66   84                        145   -0.7210 67.1  20 
 SMDR BN ESg    D 1252 25.35                             145    0.8610 67.1  20 
 SMDR BE  IAML    1252 29.55     20972.8 1.10                          67.1  20 
 SMDR BN  IAML    1252 29.98     10712.7 0.90                          67.1  20 
 HIDR BZ EPg    C 1252 12.46  111                        142   -0.4410 74.4 101 
 HIDR BN ESg    D 1252 25.93                             142    0.5310 74.4 101 
 HIDR BE  IAML    1252 26.81     36026.6 0.30                          74.4 101 
 HIDR BN  IAML    1252 28.66     31366.6 0.25                          74.4 101 
 NADR BZ EPg    C 1252 13.01  160                        138   -0.6610 84.6 326 
 NADR BN ESg    D 1252 27.48                             138    0.7410 84.6 326 
 NADR BN  IAML    1252 30.20       206.6 0.65                          84.6 326 
 NADR BE  IAML    1252 34.73     15146.3 0.40                          84.6 326 
 BADR BZ EPg    D 1252 15.53  123                        131   -0.1410  107 251 
 BADR BE ESg    D 1252 31.29                             131    1.0610  107 251 
 BADR BE  IAML    1252 33.28     18550.7 0.55                           107 251 
 BADR BN  IAML    1252 33.52     31811.0 0.25                           107 251 
 PCDR BZ EPg    D 1252 15.85  136                        129   -0.0510  111 102 
 PCDR BE  IAML    1252 34.51      4590.1 1.00                           111 102 
 PCDR BN  IAML    1252 35.86     11361.1 0.40                           111 102 
 ABDR BZ EPg    D 1252 17.40  131                        125   -0.5810  129 275 
 ABDR BN ESg    C 1252 34.02                             125   -0.2110  129 275 
 ABDR BN  IAML    1252 39.28      9995.1 1.05                           129 275 
 ABDR BE  IAML    1252 41.21      9416.7 1.05                           129 275 
 SC01 BZ EPg      1252 21.18  175                        118    0.4710  159 300 
 SC01 BN  IAML    1252 46.66      5634.1 0.85                           159 300 
 SC01 BE  IAML    1252 50.92      5722.3 0.85                           159 300 
 SDDR BZ EPg    D 1252 25.54  178                        111    0.4010  200 279 
 SDDR BE  IAML    1252 51.75      2013.3 1.00                           200 279 
 SDDR BN  IAML    1252 57.65      3006.9 0.95                           200 279 
 PODR BZ EPg    D 1252 25.74  153                        111   -0.2810  207 253 
 PODR BE ESg    D 1252 49.32                             111    1.1010  207 253 
 PODR BN  IAML    1252 52.44      1730.1 0.65                           207 253 
 PODR BE  IAML    1252 52.52      2654.8 0.75                           207 253 
 LUDR BZ EPg      1252 25.14  193                        110   -0.7610  208 309 
 LUDR BN  IAML    1253  4.91      9010.9 0.40                           208 309 
 LUDR BE  IAML    1253  5.50      7046.1 0.30                           208 309 
 AGPR BZ EPg    D 1252 30.62  124                        106    0.6810  244  96 
 AGPR BN  IAML    1253  8.04      3774.5 0.50                           244  96 
 AGPR BE  IAML    1253  8.31      6026.4 0.50                           244  96 
 CRPR BZ EPg    D 1252 32.08  174                        105    0.6310  257 108 
 CRPR BE  IAML    1253  9.58      1879.2 0.70                           257 108 
 CRPR BN  IAML    1253 11.24      2305.0 0.35                           257 108 
 JIDR BZ EPg    D 1252 32.15  197                        105    0.4810  259 265 
 JIDR BN  IAML    1253  2.62      1057.1 1.05                           259 265 
 JIDR BE  IAML    1253 14.29      1158.1 1.10                           259 265 
                                                                                
 2017  216 1726 29.3 L  19.027 -70.370 22.0  DOM  5 0.5 2.6LDOM 3.2CDOM 2.5WDOM1
 SPEC AVERAGE  MO 12.8 ST 33.9 OM  2.6 f0 11.0 R0.1342 AL 0.00 WI 20.0 MW  2.5 3
 SPEC SD       MO  0.5 ST 32.2 OM  0.8 f0 5.64 R0.1078 AL      WI      MW  0.3 3
 GAP=124        1.37       5.6     3.6 17.1  0.5856E+01 -0.2962E+02 -0.6071E+02E
 SPEC SC01BH Z MO 13.0 ST0.306 OM  2.3 f0 2.20 R0.5382 AL-0.00 WI 20.0 MW  2.6 3
 SPEC SC01BH Z T172646 K 0.020 GD 61.0 VS 3.20 DE 2.60 Q0400.0 QA 0.70 Q1 1.00 3
 SPEC SDDRBH Z MO 12.7 ST  2.1 OM  1.8 f0 5.21 R0.2273 AL-0.00 WI 20.0 MW  2.4 3
 SPEC SDDRBH Z T172654 K 0.020 GD 99.5 VS 3.20 DE 2.60 Q0400.0 QA 0.70 Q1 1.00 3
 SPEC ABDRBH Z MO 12.8 ST 64.8 OM  2.2 f0 16.0 R0.0740 AL-0.00 WI 20.0 MW  2.5 3
 SPEC ABDRBH Z T172639 K 0.020 GD 42.2 VS 3.20 DE 2.60 Q0400.0 QA 0.70 Q1 1.00 3
 SPEC BADRBH Z MO 12.9 ST 34.8 OM  2.1 f0 11.7 R0.1012 AL-0.00 WI 20.0 MW  2.6 3
 SPEC BADRBH Z T172648 K 0.020 GD 73.0 VS 3.20 DE 2.60 Q0400.0 QA 0.70 Q1 1.00 3
 2017-02-16-1725-00S.MAN___100                                                 6
 ACTION:UP  18-03-02 17:06 OP:JMLC STATUS:               ID:20170216172629 L   I
 OLDACT:UP  17-02-16 18:50 OP:AMMR STATUS:               ID:20170216172500     3
 OLDACT:UP  17-02-16 18:47 OP:AMMR STATUS:               ID:20170216172500     3
 OLDACT:UP  17-02-16 17:46 OP:JMLC STATUS:               ID:20170216172500     3
 OLDACT:ARG 17-02-16 17:36 OP:jmlc STATUS:               ID:20170216172500     3
 STAT SP IPHASW D HRMM SECON CODA AMPLIT PERI AZIMU VELO AIN AR TRES W  DIS CAZ7
 ABDR BZ EP     D 1726 35.90   39                        122   -0.2610 36.0 229 
 ABDR BN ES     C 1726 41.17                             122   -0.0810 36.0 229 
 ABDR BE  IAML    1726 42.01       677.6 0.15                          36.0 229 
 ABDR BN  IAML    1726 42.58       650.9 0.15                          36.0 229 
 BADR BZ EPg    D 1726 40.67   56                        104   -0.0810 69.6 179 
 BADR BN ESg      1726 49.97                             104    0.7410 69.6 179 
 BADR BE  IAML    1726 51.29       658.5 0.15                          69.6 179 
 BADR BN  IAML    1726 51.36       612.8 0.20                          69.6 179 
 SDDR BZ EPg      1726 44.06   81                         99   -0.7410 97.0 267 
 SDDR BN ESg      1726 56.14                              99   -0.1310 97.0 267 
 SDDR BN  IAML    1726 58.68        54.1 0.25                          97.0 267 
 SDDR BE  IAML    1727  1.38        76.1 0.40                          97.0 267 
 LUDR BZ EPg    D 1726 48.34   46                         97    1.0610  114 328 
 LUDR BE  IAML    1727  4.51       522.9 0.70                           114 328 
 LUDR BN  IAML    1727  5.77       652.3 0.30                           114 328 
 MIDR BZ EPg      1726 50.80   66                         95   -0.3010  139  92 
 MIDR BN ESg    C 1727  7.03                              95   -0.2110  139  92 
 MIDR BE  IAML    1727  7.43        28.8 0.20                           139  92 
 MIDR BN  IAML    1727 11.53        20.2 0.90                           139  92 
                                                                                
 2017  217 0120  7.0 L  18.689 -69.392 76.5  DOM 12 0.9 2.8LDOM 3.6CDOM        1
 GAP=146        2.44      12.6     5.6 16.6  0.9106E+00  0.9442E+01 -0.7936E+02E
 ACTION:UP  18-03-02 17:06 OP:JMLC STATUS:               ID:20170217012007 L   I
 OLDACT:UP  17-02-17 01:57 OP:AMMR STATUS:               ID:20170217012000     3
 OLDACT:ARG 17-02-17 01:33 OP:plst STATUS:               ID:20170217012000     3
 2017-02-17-0120-00S.MAN___100                                                 6
 STAT SP IPHASW D HRMM SECON CODA AMPLIT PERI AZIMU VELO AIN AR TRES W  DIS CAZ7
 SDD  BZ EPg    C  120 18.99   51                        137   -1.1210 60.9 246 
 SDD  BN ESg    C  120 29.88                             137    0.0610 60.9 246 
 SDD  BE  IAML     120 30.15       153.3 0.50                          60.9 246 
 SDD  BN  IAML     120 30.64       142.3 0.15                          60.9 246 
 SMDR BZ EPg    C  120 19.72   58                        133   -1.1510 69.9  18 
 SMDR BE  IAML     120 33.52       105.6 0.60                          69.9  18 
 SMDR BN  IAML     120 36.57       150.5 0.55                          69.9  18 
 HIDR BZ EPg    D  120 20.66   70                        132   -0.4310 72.2  98 
 HIDR BN ESg    C  120 32.40                             132    0.8810 72.2  98 
 HIDR BN  IAML     120 34.49       418.3 0.25                          72.2  98 
 HIDR BE  IAML     120 34.57       485.5 0.25                          72.2  98 
 BADR BZ EPg    C  120 23.78   77                        120   -0.8810  107 253 
 BADR BN ESg    C  120 38.39                             120    0.6510  107 253 
 BADR BN  IAML     120 41.66       471.9 0.20                           107 253 
 BADR BE  IAML     120 42.29       394.4 0.40                           107 253 
 PCDR BZ EPg    D  120 24.33   93                        119   -0.3410  108 100 
 PCDR BN  IAML     120 46.89       130.3 0.65                           108 100 
 ABDR BZ EPg    D  120 25.92  103                        114   -1.5110  131 276 
 ABDR BN ESg    D  120 42.57                             114    0.0110  131 276 
 ABDR BE  IAML     120 43.59       228.6 0.20                           131 276 
 ABDR BN  IAML     120 44.44       214.5 0.30                           131 276 
 SC01 BZ EPg    C  120 31.19   76                        108    0.4810  163 300 
 SC01 BN ESg       120 49.33                             108    1.0610  163 300 
 SC01 BE  IAML     120 52.67       155.2 0.30                           163 300 
 SC01 BN  IAML     120 54.16       158.5 0.25                           163 300 
 SDDR BZ EPg    D  120 34.97   93                        104   -0.4410  203 279 
 SDDR BN  IAML     121  1.39        62.9 0.40                           203 279 
 SDDR BE  IAML     121  1.49        52.5 0.80                           203 279 
 MADR BZ EPg    C  120 35.43   88                        104   -0.1510  204 299 
 PODR BZ EPg       120 35.25                             103   -0.9010  208 254 
 PODR BN ESg    D  120 59.25                             103    1.5210  208 254 
 PODR BE  IAML     121  2.90        59.5 0.20                           208 254 
 PODR BN  IAML     121  3.89        44.8 0.40                           208 254 
 LUDR BZ EPg    C  120 37.09   92                        103    0.7010  211 309 
 AGPR BZ EPg       120 41.58   90                        101    1.5410  242  95 
 AGPR BN  IAML     121 17.38        64.5 0.15                           242  95 
 AGPR BE  IAML     121 17.46        56.0 0.30                           242  95 
                                                                                
 2017  217 0821 40.9 L  18.239 -68.438 77.3  DOM  6 0.6 1.9LDOM 3.2CDOM        1
 GAP=186        1.70      21.9     8.6 14.5  0.1565E+03  0.7560E+02  0.2353E+03E
 ACTION:UP  18-03-02 17:06 OP:JMLC STATUS:               ID:20170217082140 L   I
 OLDACT:UP  17-02-17 18:06 OP:AMMR STATUS:               ID:20170217081900     3
 OLDACT:ARG 17-02-17 17:50 OP:AMMR STATUS:               ID:20170217081900     3
 2017-02-17-0819-00S.MAN___100                                                 6
 STAT SP IPHASW D HRMM SECON CODA AMPLIT PERI AZIMU VELO AIN AR TRES W  DIS CAZ7
 PCDR BZ EPg    C  821 51.82   53                        156   -0.3010 31.0  11 
 PCDR BN ESg       822  1.27                             156    0.8710 31.0  11 
 PCDR BN  IAML     822  1.92        73.9 0.60                          31.0  11 
 PCDR BE  IAML     822  2.39        37.5 0.35                          31.0  11 
 HIDR BZ EPg    D  821 52.20   49                        144   -0.9910 48.8 323 
 HIDR BN ESg    C  822  1.92                             144   -0.3610 48.8 323 
 HIDR BN  IAML     822  2.29        90.6 0.25                          48.8 323 
 HIDR BE  IAML     822  3.54       122.9 0.25                          48.8 323 
 MIDR BZ EPg    D  821 57.46   52                        121   -0.7810  105 322 
 MIDR BE ESg    C  822 11.36                             121    0.2910  105 322 
 MIDR BE  IAML     822 11.39         7.7 1.15                           105 322 
 MIDR BN  IAML     822 12.49        12.8 0.30                           105 322 
 CRPR BN EPg       822  1.88   52                        112   -0.7710  145 100 
 CRPR BE  IAML     822 18.87        20.4 2.00                           145 100 
 CRPR BE ESg       822 18.98                             112    0.2410  145 100 
 AOPR BZ EPg       822  7.30                             107    0.7910  178  86 
 ABDR BZ EPg       822 14.64   62                        101    0.6510  240 286 
 ABDR BE ESg       822 38.85                             101    0.3810  240 286 
                                                                                
