 2017  1 1 1023 21.1 L  19.502 -69.527 31.1  DOM  5 0.6 2.0LDOM 3.2CDOM 2.7WDOM1
 SPEC AVERAGE  MO 13.2 ST  9.7 OM  2.3 f0 6.70 R0.7680 AL 0.00 WI 20.0 MW  2.7 3
 SPEC SD       MO  0.5 ST 15.8 OM  0.9 f0 5.79 R0.8431 AL      WI      MW  0.3 3
 GAP=217        1.55      18.7     7.8 45.2  0.1189E+03  0.2202E+03  0.2772E+03E
 SPEC SMDRBH Z MO 13.7 ST0.022 OM  2.5 f00.755 R2.2053 AL-0.00 WI 20.0 MW  3.1 3
 SPEC SMDRBH Z T102333 K 0.020 GD 52.7 VS 4.50 DE 3.40 Q0400.0 QA 0.70 Q1 1.00 3
 SPEC MIDRBH Z MO 12.5 ST  1.0 OM  1.1 f0 6.83 R0.2438 AL-0.00 WI 20.0 MW  2.3 3
 SPEC MIDRBH Z T102341 K 0.020 GD 82.3 VS 4.50 DE 3.40 Q0400.0 QA 0.70 Q1 1.00 3
 SPEC SC01BH Z MO 13.4 ST0.838 OM  1.8 f0 3.21 R0.5187 AL-0.00 WI 20.0 MW  2.9 3
 SPEC SC01BH Z T102352 K 0.020 GD  129 VS 4.50 DE 3.40 Q0400.0 QA 0.70 Q1 1.00 3
 SPEC REDRBH Z MO 13.0 ST 37.0 OM  1.1 f0 16.0 R0.1041 AL-0.00 WI 20.0 MW  2.6 3
 SPEC REDRBH Z T102414 K 0.020 GD  232 VS 4.50 DE 3.40 Q0400.0 QA 0.70 Q1 1.00 3
 2017-01-01-1022-00S.MAN___096                                                 6
 OLDACT:ARG 17-01-01 10:41 OP:nr   STATUS:               ID:20170101102200     3
 ACTION:UP  18-03-02 17:06 OP:JMLC STATUS:               ID:20170101102321 L   I
 OLDACT:UP  17-09-04 15:02 OP:jmlc STATUS:               ID:20170101102321     3
 STAT SP IPHASW D HRMM SECON CODA AMPLIT PERI AZIMU VELO AIN AR TRES W  DIS CAZ7
 SMDR BZ EPg    C 1023 29.74   48                        102    0.6610 42.6 123 
 SMDR BE ESg    D 1023 34.51                             102   -0.5010 42.6 123 
 SMDR BE  IAML    1023 40.20        79.3 0.35                          42.6 123 
 SMDR BZ  IAML    1023 40.61        37.8 0.40                          42.6 123 
 MIDR BZ EPg    C 1023 32.82   51                         90   -0.4210 76.2 139 
 MIDR BE ESg    C 1023 42.83                              90    0.5710 76.2 139 
 MIDR BZ  IAML    1023 43.46        30.5 0.70                          76.2 139 
 MIDR BE  IAML    1023 45.81        19.2 0.55                          76.2 139 
 SC01 BZ EPg    C 1023 38.89   61                         90   -0.6010  126 266 
 SC01 BE ESg    C 1023 54.26                              90    1.1210  126 266 
 SC01 BE  IAML    1023 56.33        69.1 0.30                           126 266 
 SC01 BZ  IAML    1024 27.18        48.9 2.85                           126 266 
 SDDR BZ EPg    C 1023 47.76   60                         90   -0.2010  194 253 
 SDDR BE ESg    C 1024  7.15                              90   -0.7110  194 253 
 SDDR BZ  IAML    1024 14.93        25.8 0.30                           194 253 
 SDDR BE  IAML    1024 15.85        16.9 0.35                           194 253 
 REDR BZ EPg    D 1023 52.28   53                         90   -0.1110  230 264 
 REDR BE ESg    D 1024 15.79                              90    0.2010  230 264 
 REDR BE  IAML    1024 19.40        90.5 0.20                           230 264 
 REDR BZ  IAML    1024 24.01        15.2 2.00                           230 264 
                                                                                
 2017  1 2 2238 41.3 L  18.028 -71.517 30.8  DOM  5 0.2 1.7LDOM 3.2CDOM 2.6WDOM1
 SPEC AVERAGE  MO 13.0 ST  1.4 OM  2.5 f0 5.24 R0.3274 AL 0.00 WI 20.0 MW  2.6 3
 SPEC SD       MO  0.1 ST0.481 OM  0.8 f00.844 R0.0589 AL      WI      MW  0.1 3
 GAP=267        0.50       3.4     3.1  4.3  0.4476E+01  0.7164E+01 -0.8936E-01E
 SPEC PODRBH Z MO 12.8 ST  1.4 OM  1.7 f0 6.00 R0.2775 AL-0.00 WI 20.0 MW  2.5 3
 SPEC PODRBH Z T223851 K 0.020 GD 42.4 VS 4.50 DE 3.40 Q0400.0 QA 0.70 Q1 1.00 3
 SPEC NEDRBH Z MO 13.1 ST0.774 OM  1.8 f0 4.06 R0.4101 AL-0.00 WI 20.0 MW  2.7 3
 SPEC NEDRBH Z T223855 K 0.020 GD 59.2 VS 4.50 DE 3.40 Q0400.0 QA 0.70 Q1 1.00 3
 SPEC JIDRBH Z MO 13.1 ST  2.0 OM  1.7 f0 5.65 R0.2947 AL-0.00 WI 20.0 MW  2.6 3
 SPEC JIDRBH Z T223858 K 0.020 GD 69.8 VS 4.50 DE 3.40 Q0400.0 QA 0.70 Q1 1.00 3
 2017-01-02-2237-00S.MAN___096                                                 6
 OLDACT:ARG 17-01-02 22:47 OP:fmgp STATUS:               ID:20170102223700     3
 ACTION:UP  18-03-02 17:06 OP:JMLC STATUS:               ID:20170102223841 L   I
 OLDACT:UP  17-01-02 22:56 OP:FMGP STATUS:               ID:20170102223700     3
 STAT SP IPHASW D HRMM SECON CODA AMPLIT PERI AZIMU VELO AIN AR TRES W  DIS CAZ7
 PODR BZ EPg      2238 47.73   51                        134   -0.2410 29.2  58 
 PODR BN ESg    C 2238 53.03                             134    0.1210 29.2  58 
 PODR BZ  IAML    2238 57.35        64.1 1.10                          29.2  58 
 NEDR BZ EPg    D 2238 50.16   50                        114   -0.1510 50.6   6 
 NEDR BN ESg    C 2238 56.98                             114    0.0110 50.6   6 
 NEDR BZ  IAML    2239  1.95        69.6 0.35                          50.6   6 
 JIDR BZ EPg    D 2238 51.92   58                        108    0.0410 62.6 325 
 JIDR BN ESg      2238 59.80                             108    0.0810 62.6 325 
 JIDR BZ  IAML    2239  0.38        92.5 0.20                          62.6 325 
 SDDR BZ EPg    C 2238 58.53   70                         97    0.3510  108  13 
 SDDR BE ESg  4 D 2239 11.17                              97    0.49 0  108  13 
 SDDR BZ  IAML    2239 42.85        13.7 1.75                           108  13 
 REDR BZ EPg    D 2239  2.58                              95   -0.0310  140 352 
 REDR BN ESg    C 2239 18.20                              95   -0.1910  140 352 
 REDR BZ  IAML    2239 30.17        14.0 1.55                           140 352 
                                                                                
 2017  119 0245 48.8 L  18.992 -68.013 10.7  DOM  5 0.8 2.2LDOM 3.2CDOM        1
 GAP=208        2.18      17.6     7.1118.3  0.9726E+02 -0.6618E+03 -0.1662E+04E
 ACTION:UP  18-03-02 17:06 OP:JMLC STATUS:               ID:20170119024548 L   I
 OLDACT:ARG 17-01-19 10:30 OP:nr   STATUS:               ID:20170119024400     3
 2017-01-19-0244-00S.MAN___100                                                 6
 STAT SP IPHASW D HRMM SECON CODA AMPLIT PERI AZIMU VELO AIN AR TRES W  DIS CAZ7
 PCDR BZ EPg    C  245 58.57                              99   -0.9110 65.6 216 
 PCDR BN  IAML     246  7.65       104.5 0.90                          65.6 216 
 PCDR BE ESg    D  246  7.65                              99    0.2410 65.6 216 
 PCDR BE  IAML     246  9.85        48.7 0.95                          65.6 216 
 MIDR BZ EPg    C  246  6.09   54                         96   -0.3610  109 270 
 MIDR BE ESg    D  246 20.99                              96    1.4510  109 270 
 MIDR BE  IAML     246 23.88        16.0 0.60                           109 270 
 MIDR BN  IAML     246 45.16        25.0 2.50                           109 270 
 AGPR BZ EPg    C  246  6.61   49                         96   -0.2010  111 121 
 AGPR BE ESg    D  246 21.07                              96    0.9010  111 121 
 AGPR BN  IAML     246 26.67        62.4 0.15                           111 121 
 AGPR BE  IAML     246 31.46        95.6 1.40                           111 121 
 CRPR BZ EPg    D  246 13.20   62                         94    0.7710  146 138 
 CRPR BE ESg    C  246 30.01                              94    0.0610  146 138 
 CRPR BN  IAML     246 30.66        55.0 1.85                           146 138 
 CRPR BE  IAML     246 33.18        65.5 1.90                           146 138 
 AOPR BZ EPg    C  246 11.73   65                         94   -1.4310  151 118 
 AOPR BE ESg    C  246 30.70                              94   -0.5110  151 118 
 AOPR BN  IAML     246 34.67        70.8 0.20                           151 118 
 AOPR BE  IAML     246 41.06        98.5 0.25                           151 118 
                                                                                
 2017  120 0148 38.4 L  19.999 -75.660 31.1  DOM  5 0.8 3.7LDOM 4.2CDOM        1
 GAP=337        2.04      20.8    15.1 17.7  0.1165E+03  0.4375E+02  0.1346E+03E
 ACTION:UP  18-03-02 17:06 OP:JMLC STATUS:               ID:20170120014838 L   I
 OLDACT:UP  17-01-20 23:28 OP:FMGP STATUS:               ID:20170120014800     3
 OLDACT:UP  17-01-20 23:26 OP:FMGP STATUS:               ID:20170120014800     3
 OLDACT:UP  17-01-20 23:18 OP:FMGP STATUS:               ID:20170120014800     3
 OLDACT:UP  17-01-20 23:17 OP:FMGP STATUS:               ID:20170120014800     3
 OLDACT:UP  17-01-20 02:29 OP:FMGP STATUS:               ID:20170120014800     3
 OLDACT:ARG 17-01-20 02:15 OP:nr   STATUS:               ID:20170120014800     3
 2017-01-20-0148-00S.MAN___100                                                 6
 STAT SP IPHASW D HRMM SECON CODA AMPLIT PERI AZIMU VELO AIN AR TRES W  DIS CAZ7
 GTBY BZ EPg       148 49.63   83                        122    0.4910 58.0  98 
 GTBY BN ESg       148 57.94                             122    0.8910 58.0  98 
 GTBY BN  IAML     148 58.60      2261.9 0.15                          58.0  98 
 PAPH BZ EPg    D  149 34.26  105                         93   -0.6610  389 114 
 PAPH BE ESg    D  150 18.11                              93    1.4110  389 114 
 PAPH BE  IAML     150 22.53       306.9 0.28                           389 114 
 PAPH BN  IAML     150 22.79       542.4 0.32                           389 114 
 MCDR BZ EPg    D  149 38.55  152                         93   -0.5710  419  91 
 MCDR BE ESg    D  150 23.75                              93   -0.2610  419  91 
 MCDR BE  IAML     150 31.67       106.3 0.90                           419  91 
 MCDR BN  IAML     150 33.31       180.5 0.60                           419  91 
 JIDR BZ EPg    D  149 40.67  125                         93   -0.4510  433 112 
 JIDR BN ESg       150 26.69                              93   -0.8110  433 112 
 JIDR BE  IAML     150 36.64       103.3 0.45                           433 112 
 JIDR BN  IAML     150 37.84        61.1 0.45                           433 112 
 PODR BZ EPg       149 51.87  137                         92    0.7810  503 113 
 PODR BE ESg       150 44.02                              92   -0.8310  503 113 
 PODR BE  IAML     150 57.59        27.9 0.90                           503 113 
 PODR BN  IAML     151  1.50        32.0 0.60                           503 113 
                                                                                
 2017  124 0614 14.1 L  18.457 -67.303 64.0  DOM  5 0.8 3.2LDOM 3.5CDOM        1
 GAP=151        1.98      13.5     8.9 17.0  0.4815E+02  0.9154E+02 -0.3528E+02E
 ACTION:UP  18-03-02 17:06 OP:JMLC STATUS:               ID:20170124061414 L   I
 OLDACT:ARG 17-01-24 11:02 OP:nr   STATUS:               ID:20170124061400     3
 2017-01-24-0614-00S.MAN___100                                                 6
 STAT SP IPHASW D HRMM SECON CODA AMPLIT PERI AZIMU VELO AIN AR TRES W  DIS CAZ7
 AGPR BZ EPg    D  614 22.52   61                        160   -0.8010 20.4  86 
 AGPR BE ESg    C  614 30.81                             160    0.6510 20.4  86 
 AGPR BE  IAML     614 31.21      6356.0 0.25                          20.4  86 
 AGPR BN  IAML     614 31.32      4851.9 0.20                          20.4  86 
 CRPR BZ EPg    C  614 26.66   66                        134    1.0610 54.7 156 
 CRPR BE ESg    C  614 34.39                             134    0.2710 54.7 156 
 CRPR BE  IAML     614 38.37       848.4 0.20                          54.7 156 
 CRPR BN  IAML     614 39.52       684.7 0.15                          54.7 156 
 AOPR BZ EPg    C  614 25.28   86                        132   -0.7610 59.3 102 
 AOPR BE ESg    C  614 34.64                             132   -0.2510 59.3 102 
 AOPR BN  IAML     614 35.58      2637.3 0.30                          59.3 102 
 AOPR BE  IAML     614 36.87      2905.6 0.35                          59.3 102 
 PCDR BZ EPg    D  614 31.14   76                        111   -0.6010  114 273 
 PCDR BE ESg    C  614 43.73                             111   -1.0810  114 273 
 PCDR BE  IAML     614 49.09       170.4 0.20                           114 273 
 PCDR BN  IAML     614 52.10       303.6 0.65                           114 273 
 SMDR BZ EPg    C  614 44.63   84                         98    0.5210  219 295 
 SMDR BE ESg    D  615  7.33                              98    0.9910  219 295 
 SMDR BN  IAML     615 13.13        63.7 0.40                           219 295 
 SMDR BE  IAML     615 17.38        58.3 0.50                           219 295 
                                                                                
 2017  127 0754 35.2 L  18.793 -66.486138.5  DOM  5 0.9 2.8LDOM 3.8CDOM 3.2WDOM1
 SPEC AVERAGE  MO 13.8 ST  3.1 OM  3.9 f0 3.55 R0.4881 AL 0.00 WI 20.0 MW  3.2 3
 SPEC SD       MO  0.0 ST  1.5 OM  1.8 f00.715 R0.0982 AL      WI      MW  0.0 3
 GAP=293        2.36      41.9    18.4 29.2  0.4255E+03 -0.1050E+03 -0.9918E+03E
 SPEC AOPRBH Z MO 13.8 ST  4.5 OM  2.1 f0 4.27 R0.3899 AL-0.00 WI 20.0 MW  3.1 3
 SPEC AOPRBH Z T 755 7 K 0.020 GD  149 VS 4.50 DE 3.40 Q0400.0 QA 0.70 Q1 1.00 3
 SPEC CRPRBH Z MO 13.9 ST  1.6 OM  2.1 f0 2.84 R0.5863 AL-0.00 WI 20.0 MW  3.2 3
 SPEC CRPRBH Z T 75512 K 0.020 GD  175 VS 4.50 DE 3.40 Q0400.0 QA 0.70 Q1 1.00 3
 2017-01-27-0754-00S.MAN___100                                                 6
 OLDACT:ARG 17-01-27 10:14 OP:amrz STATUS:               ID:20170127075400     3
 ACTION:UP  18-03-02 17:06 OP:JMLC STATUS:               ID:20170127075435 L   I
 OLDACT:UP  17-01-27 22:45 OP:FME  STATUS:               ID:20170127075400     3
 OLDACT:UP  17-01-27 18:11 OP:FME  STATUS:               ID:20170127075400     3
 OLDACT:UP  17-01-27 18:00 OP:FME  STATUS:               ID:20170127075400     3
 OLDACT:UP  17-01-27 12:33 OP:FME  STATUS:               ID:20170127075400     3
 OLDACT:UP  17-01-27 11:51 OP:FME  STATUS:               ID:20170127075400     3
 STAT SP IPHASW D HRMM SECON CODA AMPLIT PERI AZIMU VELO AIN AR TRES W  DIS CAZ7
 AOPR BZ EPg       754 52.40   65                        156   -1.8910 56.9 210 
 AOPR BE ESg    C  755  9.13                             156    0.7310 56.9 210 
 AOPR BZ  IAML     755 17.48       112.1 0.25                          56.9 210 
 CRPR BZ EPg       754 57.58   55                        139    0.1110  108 216 
 CRPR BE ESg       755 13.75                             139   -0.1910  108 216 
 CRPR BZ  IAML     755 16.18        97.9 0.35                           108 216 
 PCDR BZ EPg       755  6.98   91                        120    0.8710  202 262 
 PCDR BN ESg       755 29.38                             120    0.4010  202 262 
 PCDR BN  IAML     755 29.39        72.9 3.20                           202 262 
 MIDR BZ EPg    C  755 14.10  115                        112    0.7410  271 275 
 MIDR BN ESg       755 41.53                             112   -0.0610  271 275 
 MIDR BN  IAML     755 49.81        18.1 2.05                           271 275 
 REDR BZ EPg       755 46.11  117                         99    0.7210  552 276 
 REDR BN  IAML     756 35.36        10.0 1.40                           552 276 
 REDR BN ESg       756 35.92                              99   -1.4010  552 276 
                                                                                
 2017  130 1842 46.1 L  19.444 -70.636102.5  DOM  5 0.3 2.1LDOM 3.3CDOM        1
 GAP=244        0.77       8.6     7.8 11.3  0.5050E+02 -0.3587E+02 -0.5324E+02E
 ACTION:UP  18-03-02 17:06 OP:JMLC STATUS:               ID:20170130184246 L   I
 OLDACT:ARG 17-01-30 19:17 OP:AMMR STATUS:               ID:20170130184200     3
 2017-01-30-1842-00S.MAN___100                                                 6
 STAT SP IPHASW D HRMM SECON CODA AMPLIT PERI AZIMU VELO AIN AR TRES W  DIS CAZ7
 ABDR BZ EPg      1843  2.87   60                        143    0.1710 69.9 179 
 ABDR BN ESg      1843 15.08                             143    0.1210 69.9 179 
 ABDR BN  IAML    1843 16.15        29.8 0.80                          69.9 179 
 ABDR BE  IAML    1843 16.19        37.4 0.40                          69.9 179 
 SDDR BZ EPg      1843  3.26   68                        136   -0.3410 85.8 233 
 SDDR BE ESg      1843 16.13                             136   -0.3910 85.8 233 
 SDDR BN  IAML    1843 16.53        18.3 0.70                          85.8 233 
 SDDR BE  IAML    1843 24.96        17.4 3.10                          85.8 233 
 REDR BZ EPg      1843  6.14   56                        127    0.0810  113 261 
 REDR BN ESg    C 1843 21.28                             127    0.4810  113 261 
 REDR BN  IAML    1843 21.47        61.7 0.50                           113 261 
 REDR BE  IAML    1843 22.07        94.2 0.15                           113 261 
 MCDR BE ESg      1843 21.26                             126   -0.1310  118 295 
 MCDR BE  IAML    1843 23.12        44.3 0.25                           118 295 
 PODR BN  IAML    1843 44.51        36.7 1.65                           157 206 
                                                                                
