 2017  128 0705  2.1 L  19.227 -68.107 11.6  DOM  7 0.7 2.8LDOM 3.7CDOM        1
 GAP=209        1.91      15.5     7.8 92.0  0.1090E+03 -0.6044E+03 -0.1210E+04E
 ACTION:UP  17-01-28 11:17 OP:FME  STATUS:               ID:20170128070500     I
 OLDACT:ARG 17-01-28 11:07 OP:nr   STATUS:               ID:20170128070500     3
 2017-01-28-0705-00S.MAN___100                                                 6
 STAT SP IPHASW D HRMM SECON CODA AMPLIT PERI AZIMU VELO AIN AR TRES W  DIS CAZ7
 PCDR BZ EPg    D  7 5 16.17   77                         98    0.4210 84.0 200 
 PCDR BE ESg    D  7 5 25.96                              98    0.0910 84.0 200 
 PCDR BE  IAML     7 5 31.22       214.1 0.30                          84.0 200 
 PCDR BN  IAML     7 5 34.44       603.1 0.90                          84.0 200 
 MIDR BZ EPg    C  7 5 18.65   77                         96   -0.1010  103 255 
 MIDR BE ESg    D  7 5 32.51                              96    1.4210  103 255 
 MIDR BE  IAML     7 5 33.23       189.7 0.15                           103 255 
 MIDR BN  IAML     7 5 33.88       149.0 0.35                           103 255 
 SMDR BZ EPg    D  7 5 20.53   86                         96    0.0010  114 274 
 SMDR BE ESg    C  7 5 34.47                              96    0.2810  114 274 
 SMDR BE  IAML     7 5 36.91        92.8 1.30                           114 274 
 SMDR BN  IAML     7 5 43.77        79.9 0.50                           114 274 
 AGPR BZ EPg    C  7 5 24.51   87                         95    0.6910  134 128 
 AGPR BE ESg    C  7 5 38.67                              95   -1.2410  134 128 
 AGPR BE  IAML     7 5 43.82       309.8 0.35                           134 128 
 AGPR BN  IAML     7 5 46.59       303.2 0.20                           134 128 
 AOPR BZ EPg    C  7 5 30.03  107                         94    0.0410  173 124 
 AOPR BE ESg    C  7 5 50.81                              94    0.1510  173 124 
 AOPR BE  IAML     7 5 59.68       474.3 0.30                           173 124 
 AOPR BN  IAML     7 6  2.22       166.8 0.30                           173 124 
 CRPR BZ EPg    C  7 5 29.70   91                         94   -0.2610  173 141 
 AOPR BE E      C  7 5 52.54                                            173 124 
 CRPR BE ESg    D  7 5 50.54                              94   -0.0710  173 141 
 CRPR BN  IAML     7 5 55.10       196.1 0.50                           173 141 
 CRPR BE  IAML     7 5 58.44       135.4 0.30                           173 141 
 NADR BZ EPg    C  7 5 30.22   91                         94   -1.6210  184 275 
 NADR BE ESg    D  7 5 54.08                              94    0.2010  184 275 
 NADR BE  IAML     7 6  1.71       418.6 0.45                           184 275 
 NADR BN  IAML     7 6  2.09         7.1 0.30                           184 275 
                                                                                
 2017  129 0055 29.4 L  19.099 -67.964 95.7  DOM  4 0.5 2.3LDOM 3.3CDOM 2.7WDOM1
 SPEC AVERAGE  MO 13.2 ST  3.0 OM  1.6 f0 5.28 R0.3045 AL 0.00 WI 20.0 MW  2.7 3
 SPEC SD       MO  0.3 ST  1.4 OM  0.4 f00.589 R0.0349 AL      WI      MW  0.2 3
 GAP=208        1.24      26.0    15.4 37.9  0.3596E+03 -0.5097E+03 -0.8831E+03E
 SPEC PCDRBH Z MO 13.6 ST  4.2 OM  2.1 f0 4.53 R0.3504 AL-0.00 WI 20.0 MW  3.0 3
 SPEC PCDRBH Z T 05556 K 0.020 GD  123 VS 4.29 DE 3.23 Q0400.0 QA 0.70 Q1 1.00 3
 SPEC MIDRBH Z MO 12.8 ST  1.1 OM  1.2 f0 5.34 R0.2972 AL-0.00 WI 20.0 MW  2.5 3
 SPEC MIDRBH Z T 056 1 K 0.020 GD  149 VS 4.29 DE 3.23 Q0400.0 QA 0.70 Q1 1.00 3
 SPEC AGPRBH Z MO 13.2 ST  3.7 OM  1.6 f0 5.97 R0.2659 AL-0.00 WI 20.0 MW  2.7 3
 SPEC AGPRBH Z T 056 1 K 0.020 GD  148 VS 4.29 DE 3.23 Q0400.0 QA 0.70 Q1 1.00 3
 SPEC AOPRBH Z MO 13.2 ST  3.3 OM  1.6 f0 5.54 R0.2865 AL-0.00 WI 20.0 MW  2.8 3
 SPEC AOPRBH Z T 05618 K 0.020 GD  165 VS 4.29 DE 3.23 Q0400.0 QA 0.70 Q1 1.00 3
 2017-01-29-0054-00S.MAN___100                                                 6
 OLDACT:UP  17-01-29 21:39 OP:FME  STATUS:               ID:20170129005400     3
 OLDACT:UP  17-01-29 21:37 OP:FME  STATUS:               ID:20170129005400     3
 OLDACT:UP  17-01-29 21:34 OP:FME  STATUS:               ID:20170129005400     3
 OLDACT:UP  17-01-29 21:31 OP:FME  STATUS:               ID:20170129005400     3
 OLDACT:ARG 17-01-29 21:25 OP:jrdn STATUS:               ID:20170129005400     3
 ACTION:UP  17-01-30 00:18 OP:FME  STATUS:               ID:20170129005400     I
 OLDACT:UP  17-01-29 21:43 OP:FME  STATUS:               ID:20170129005400     3
 OLDACT:UP  17-01-29 21:43 OP:FME  STATUS:               ID:20170129005400     3
 STAT SP IPHASW D HRMM SECON CODA AMPLIT PERI AZIMU VELO AIN AR TRES W  DIS CAZ7
 PCDR BZ EPg    D  055 46.15   69                        136    0.5910 78.2 214 
 PCDR BN ESg       055 57.65                             136    0.1210 78.2 214 
 PCDR BZ  IAML     056  1.97       154.2 0.50                          78.2 214 
 PCDR BN  IAML     056  2.54       117.2 0.30                          78.2 214 
 MIDR BZ EPg    C  055 48.63   50                        124   -0.2410  115 264 
 MIDR BE ESg       056  2.44                             124   -0.8610  115 264 
 MIDR BE  IAML     056  3.25        40.7 0.15                           115 264 
 MIDR BZ  IAML     056  3.62        34.0 0.40                           115 264 
 SMDR BZ EPg    D  055 50.50   51                        120    0.0810  130 280 
 SMDR BE ESg    C  056  6.58                             120    0.5810  130 280 
 SMDR BZ  IAML     056 17.90         8.4 0.35                           130 280 
 AGPR BZ EPg       055 48.49   64                        124   -0.2810  114 128 
 AGPR BZ  IAML     056 25.08        87.9 1.25                           114 128 
                                                                                
 2017  129 0114 34.7 L  19.367 -69.260 69.7  DOM  9 0.8 3.4LDOM 3.4CDOM        1
 GAP=200        2.29      12.8     8.1 11.4  0.7115E+02  0.3557E+02  0.2316E+02E
 ACTION:UP  17-01-29 01:40 OP:FME  STATUS:               ID:20170129011400     I
 OLDACT:ARG 17-01-29 01:31 OP:nr   STATUS:               ID:20170129011400     3
 2017-01-29-0114-00S.MAN___100                                                 6
 STAT SP IPHASW D HRMM SECON CODA AMPLIT PERI AZIMU VELO AIN AR TRES W  DIS CAZ7
 SMDR BZ EPg    D  114 43.52   45                        170   -0.8110 11.4 138 
 SMDR BE ESg    C  114 51.62                             170    0.1910 11.4 138 
 SMDR BE  IAML     114 51.69      1782.9 0.45                          11.4 138 
 SMDR BN  IAML     114 51.73       950.4 0.15                          11.4 138 
 MIDR BZ EPg    C  114 45.51   48                        142   -0.6810 47.9 152 
 MIDR BE ESg    D  114 54.74                             142    0.0710 47.9 152 
 MIDR BN  IAML     114 54.84      1558.7 0.20                          47.9 152 
 MIDR BE  IAML     114 54.89      2046.7 0.15                          47.9 152 
 NADR BZ EPg    D  114 46.64   64                        133   -0.7510 62.5 269 
 NADR BE ESg    C  114 57.27                             133    0.5110 62.5 269 
 NADR BE  IAML     114 57.85      2312.0 0.25                          62.5 269 
 NADR BN  IAML     114 58.27        43.5 0.30                          62.5 269 
 CADR BZ EPg    C  114 48.25   59                        126   -0.6610 78.7 295 
 CADR BE ESg    C  114 58.92                             126   -0.4910 78.7 295 
 CADR BE  IAML     115  1.08      1467.2 0.20                          78.7 295 
 CADR BN  IAML     115  1.27      1707.5 0.25                          78.7 295 
 PCDR BZ EPg    D  114 54.72   68                        110    0.0410  132 135 
 PCDR BE ESg    D  115 11.01                             110    1.5610  132 135 
 PCDR BE  IAML     115 11.67       229.3 0.25                           132 135 
 PCDR BN  IAML     115 12.66       499.2 0.60                           132 135 
 SC01 BZ EPg    D  114 58.61   95                        107    0.8710  154 273 
 SC01 BE ESg    D  115 15.95                             107    1.1810  154 273 
 SC01 BN  IAML     115 22.95       399.9 0.65                           154 273 
 SC01 BE  IAML     115 23.52       301.0 0.50                           154 273 
 ABDR BE ESg    C  115 15.21                             106   -0.5710  161 243 
 ABDR BN  IAML     115 16.69       457.1 0.40                           161 243 
 ABDR BE  IAML     115 17.89       549.9 0.20                           161 243 
 LUDR BZ EPg    C  115  0.69   70                        103   -0.3510  187 288 
 LUDR BE ESg    D  115 22.42                             103    1.9010  187 288 
 LUDR BE  IAML     115 23.32      1059.0 0.30                           187 288 
 LUDR BN  IAML     115 24.56      1882.8 0.30                           187 288 
 REDR BZ EPg    C  115  8.88   82                         98   -0.5810  257 268 
 REDR BE ESg    D  115 34.84                              98   -0.3210  257 268 
 REDR BE E      D  115 34.84                                            257 268 
 REDR BN  IAML     115 37.09       394.2 0.15                           257 268 
 REDR BE  IAML     115 37.17       408.6 0.15                           257 268 
 ABDR BZ EPg    D  114 57.21   78                        106   -1.1110  161 243 
                                                                                
 2017  129 1937 57.1 L  18.567 -68.810 28.1  DOM  9 0.9 2.2LDOM 3.5CDOM        1
 GAP=178        2.43       9.6     4.8 10.4  0.2633E+02  0.1540E+02  0.1887E+02E
 ACTION:UP  17-01-30 00:13 OP:FME  STATUS:               ID:20170129193700     I
 OLDACT:ARG 17-01-30 00:07 OP:plst STATUS:               ID:20170129193700     3
 2017-01-29-1937-00S.MAN___100                                                 6
 STAT SP IPHASW D HRMM SECON CODA AMPLIT PERI AZIMU VELO AIN AR TRES W  DIS CAZ7
 AGPR BN ESg      1938 44.96                              92    1.0010  180  93 
 AGPR BN  IAML    1938 47.61       108.2 3.10                           180  93 
 AOPR BZ EPg      1938 28.76   86                         92   -0.7610  219  96 
 AOPR BN ESg      1938 52.77                              92   -0.7110  219  96 
 HIDR BZ EPg      1938  1.63   35                        158   -0.1210 10.4  75 
 HIDR BN ESg      1938  5.90                             158    0.7210 10.4  75 
 HIDR BN  IAML    1938  6.84      1667.4 0.20                          10.4  75 
 MIDR BZ EPg      1938  5.49   72                        109   -0.7610 52.5 331 
 MIDR BN ESg      1938 12.78                             109   -0.2110 52.5 331 
 MIDR BN  IAML    1938 13.77        50.4 0.10                          52.5 331 
 PCDR BZ EPg      1938  4.43   62                        114   -0.9310 45.7  97 
 PCDR HZ ESg      1938 10.80                             114   -0.6510 45.7  97 
 PCDR HZ  IAML    1938 12.21       149.9 1.28                          45.7  97 
 REDR BZ EPg      1938 42.34  101                         91   -0.7110  314 285 
 REDR BN ESg      1939 16.80                              91   -0.2310  314 285 
 REDR BN  IAML    1939 25.28         9.5 0.15                           314 285 
 SDDR BZ EPg      1938 38.31   89                         91    2.1910  265 280 
 SDDR BN  IAML    1939 13.74         9.3 0.95                           265 280 
 SMDR BZ EPg      1938 11.82   55                         97    0.5110 89.3 334 
 SMDR BN ESg      1938 21.86                              97    0.0510 89.3 334 
 SMDR BN  IAML    1938 25.76        23.7 0.85                          89.3 334 
 ABDR BZ EPg    D 1938 25.89   81                         92            192 275 
 ABDR BN ESg    D 1938 48.20                              92            192 275 
 ABDR BN  IAML    1938 56.45        34.9 0.45                           192 275 
 AGPR BZ EPg      1938 25.65   73                         92    1.6010  180  93 
                                                                                
 2017  130 1739 42.1 L  18.437 -70.092 66.2  DOM 11 0.6 2.9LDOM 3.4CDOM        1
 GAP=174        1.58       9.0     4.0  7.4 -0.8906E+01  0.5311E+01 -0.2268E+02E
 ACTION:UP  17-01-30 18:29 OP:FMGP STATUS:               ID:20170130173800     I
 OLDACT:ARG 17-01-30 17:49 OP:fmgp STATUS:               ID:20170130173800     3
 2017-01-30-1738-00S.MAN___100                                                 6
 STAT SP IPHASW D HRMM SECON CODA AMPLIT PERI AZIMU VELO AIN AR TRES W  DIS CAZ7
 SDD  BZ EPg      1739 50.83   57                        162   -0.6410 18.7  81 
 SDD  BN ESg    C 1739 58.26                             162   -0.1710 18.7  81 
 SDD  BE  IAML    1739 58.47       326.1 0.45                          18.7  81 
 SDD  BN  IAML    1739 59.86       131.7 0.45                          18.7  81 
 BADR BZ EPg    C 1739 51.49   42                        154   -0.5910 28.8 261 
 BADR BN ESg    D 1739 59.92                             154    0.4310 28.8 261 
 BADR BE  IAML    1740  0.66      1890.8 0.15                          28.8 261 
 BADR BN  IAML    1740  1.91      3151.0 0.30                          28.8 261 
 ABDR BZ EPg    C 1739 54.33   68                        131   -0.6510 64.1 298 
 ABDR BE ESg    D 1740  5.02                             131    0.4910 64.1 298 
 ABDR BE  IAML    1740  5.33      1050.1 0.20                          64.1 298 
 ABDR BN  IAML    1740  6.01       867.9 0.30                          64.1 298 
 NADR BZ EPg      1739 58.41   78                        115   -0.3410  104  14 
 MIDR BZ EPg      1740  0.80   75                        110   -0.3110  125  61 
 MIDR BN ESg    D 1740 15.80                             110    0.6110  125  61 
 MIDR BE  IAML    1740 16.03       178.2 0.45                           125  61 
 MIDR BN  IAML    1740 16.06       145.6 0.45                           125  61 
 PODR BZ EPg      1740  1.20   84                        109   -0.5510  129 257 
 PODR BN ESg    C 1740 17.29                             109    0.9810  129 257 
 PODR BE  IAML    1740 20.53       171.8 0.65                           129 257 
 PODR BN  IAML    1740 20.97       149.3 0.35                           129 257 
 SDDR BZ EPg      1740  2.39   62                        107   -0.4510  140 296 
 HIDR BZ EPg      1740  4.39   64                        106    0.8610  146  83 
 HIDR BE  IAML    1740 23.36       267.1 0.25                           146  83 
 JIDR BZ EPg    C 1740  8.42   91                        101    0.2010  186 272 
 JIDR BE  IAML    1740 30.49       116.1 0.50                           186 272 
 JIDR BN  IAML    1740 31.09        91.9 0.65                           186 272 
 REDR BZ EPg    C 1740  8.39   67                        100   -0.7710  193 299 
 REDR BE ESg    D 1740 29.25                             100    0.0510  193 299 
 REDR BN  IAML    1740 38.07        78.2 0.65                           193 299 
 REDR BE  IAML    1740 38.91       114.2 0.15                           193 299 
 MCDR BZ EPg      1740 14.35   90                         98    0.8510  230 315 
 MCDR BN  IAML    1740 42.69       100.0 1.15                           230 315 
 MCDR BE  IAML    1740 46.08        54.1 0.20                           230 315 
                                                                                
 2017  130 1842 46.1 L  19.474 -70.543 90.4  DOM  5 0.1 2.1LDOM 3.3CDOM        1
 GAP=254        0.41       4.7     4.5  8.0  0.1717E+02 -0.1951E+02 -0.2560E+02E
 ACTION:UP  17-01-30 19:38 OP:AMMR STATUS:               ID:20170130184200     I
 OLDACT:ARG 17-01-30 19:17 OP:AMMR STATUS:               ID:20170130184200     3
 2017-01-30-1842-00S.MAN___100                                                 6
 STAT SP IPHASW D HRMM SECON CODA AMPLIT PERI AZIMU VELO AIN AR TRES W  DIS CAZ7
 ABDR BZ EPg      1843  2.87   60                        132    0.1410 84.8 186 
 ABDR BN ESg      1843 15.08                             132    0.0010 84.8 186 
 ABDR BN  IAML    1843 16.15        29.8 0.80                          84.8 186 
 ABDR BE  IAML    1843 16.19        37.4 0.40                          84.8 186 
 SDDR BZ EPg      1843  3.26   68                        128   -0.1510 95.7 235 
 SDDR BE ESg      1843 16.13                             128   -0.1310 95.7 235 
 SDDR BN  IAML    1843 16.53        18.3 0.70                          95.7 235 
 SDDR BE  IAML    1843 24.96        17.4 3.10                          95.7 235 
 REDR BZ EPg      1843  6.14   56                        119   -0.0410  124 260 
 REDR BN ESg    C 1843 21.28                             119    0.2110  124 260 
 REDR BN  IAML    1843 21.47        61.7 0.50                           124 260 
 REDR BE  IAML    1843 22.07        94.2 0.15                           124 260 
 MCDR BE ESg      1843 21.26                             119   -0.0310  126 292 
 MCDR BE  IAML    1843 23.12        44.3 0.25                           126 292 
 PODR BN  IAML    1843 44.51        36.7 1.65                           165 208 
                                                                                
 2017  130 1843 57.8 L  18.580 -68.631 78.4  DOM  7 0.6 2.3LDOM 3.3CDOM        1
 GAP=163        1.61      13.7     9.9  8.1  0.1045E+03 -0.2836E+01  0.4832E+01E
 ACTION:UP  17-01-30 19:47 OP:AMMR STATUS:               ID:20170130184300     I
 OLDACT:ARG 17-01-30 19:39 OP:AMMR STATUS:               ID:20170130184300     3
 2017-01-30-1843-00S.MAN___100                                                 6
 STAT SP IPHASW D HRMM SECON CODA AMPLIT PERI AZIMU VELO AIN AR TRES W  DIS CAZ7
 HIDR BZ EPg    C 1844  7.33   40                        173   -1.0710 8.96 278 
 HIDR BE ESg      1844 16.23                             173   -0.0310 8.96 278 
 HIDR BE  IAML    1844 18.14       176.6 0.25                          8.96 278 
 HIDR BN  IAML    1844 18.76       143.0 0.25                          8.96 278 
 PCDR BZ EPg      1844  8.25   60                        159   -0.7010 27.4 105 
 PCDR HN ESg      1844 18.01                             159    0.8010 27.4 105 
 PCDR HN  IAML    1844 19.26       101.8 0.54                          27.4 105 
 PCDR BN  IAML    1844 19.28       128.9 0.55                          27.4 105 
 MIDR BZ EPg      1844 10.69   63                        137   -0.5410 62.8 315 
 MIDR BN ESg      1844 21.57                             137    0.3910 62.8 315 
 MIDR BE  IAML    1844 21.73        62.0 0.60                          62.8 315 
 MIDR BN  IAML    1844 22.59        55.6 0.45                          62.8 315 
 SMDR BZ EPg      1844 13.97   62                        123   -0.5410 98.0 323 
 SMDR BN ESg      1844 27.22                             123    0.3410 98.0 323 
 SMDR BN  IAML    1844 30.82        37.5 0.55                          98.0 323 
 SMDR BE  IAML    1844 30.99        51.1 0.90                          98.0 323 
 CRPR BZ EPg      1844 23.04   77                        108    0.0510  175 111 
 CRPR BE  IAML    1844 48.68        21.7 1.20                           175 111 
 AOPR BZ EPg      1844 26.42   68                        105    0.4810  200  97 
 AOPR BE  IAML    1844 51.98       116.4 0.30                           200  97 
 AOPR BN  IAML    1844 55.18        88.0 0.25                           200  97 
 ABDR BZ EPg      1844 28.33   60                        104    0.8210  211 274 
 ABDR BN  IAML    1845  0.43        42.3 0.25                           211 274 
                                                                                
