 2017  125 2112 41.3 L  19.225 -69.799 30.5  DOM  7 0.9 2.3LDOM 3.3CDOM        1
 GAP=183        2.37      16.6     8.5 38.6 -0.7470E+02  0.1696E+03 -0.2400E+02E
 ACTION:UP  17-01-25 23:00 OP:FME  STATUS:               ID:20170125211100     I
 OLDACT:ARG 17-01-25 21:53 OP:AMMR STATUS:               ID:20170125211100     3
 2017-01-25-2111-00S.MAN___100                                                 6
 STAT SP IPHASW D HRMM SECON CODA AMPLIT PERI AZIMU VELO AIN AR TRES W  DIS CAZ7
 ABDR BZ EPg    D 2112 56.74   73                         98   -1.1010  104 237 
 ABDR BN ESg    D 2113  9.18                              98   -0.8710  104 237 
 ABDR BN  IAML    2113  9.60       144.2 0.40                           104 237 
 ABDR BE  IAML    2113 10.41       112.6 0.30                           104 237 
 BANI BZ EPg    C 2112 58.69   53                         97    0.3010  109 213 
 BANI BN ESg      2113 12.04                              97    1.0210  109 213 
 BANI BN  IAML    2113 13.29       134.0 0.20                           109 213 
 BANI BE  IAML    2113 12.20       144.6 0.55                           109 213 
 HIDR BZ EPg      2113  0.82   66                         95   -1.0010  134 121 
 MIDR BZ EPg      2112 54.16   65                        101   -0.5810 83.3 109 
 MIDR BN ESg      2113  4.84                             101    0.1910 83.3 109 
 MIDR BN  IAML    2113  7.47        21.9 0.30                          83.3 109 
 NADR BE  IAML    2112 49.68      3770.2 0.30                          15.4 338 
 SDDR BZ EPg      2113  6.78   84                         94    1.3810  159 260 
 SMDR BZ EPg    D 2112 51.65   42                        107   -0.5410 64.7  84 
 SMDR BN ESg      2113  1.42                             107    1.2110 64.7  84 
 SMDR BN  IAML    2113  4.84        54.9 0.55                          64.7  84 
 SMDR BE  IAML    2113  2.21        63.1 0.25                          64.7  84 
                                                                                
 2017  126 0234 14.0 L  18.653 -71.715 23.0  DOM  7 0.8 2.1LDOM 3.3CDOM 2.8WDOM1
 SPEC AVERAGE  MO 13.2 ST  2.5 OM  1.9 f0 5.16 R0.3756 AL 0.00 WI 20.0 MW  2.8 3
 SPEC SD       MO  0.3 ST  2.1 OM  0.5 f0 2.17 R0.1471 AL      WI      MW  0.2 3
 GAP=154        2.16       7.1     4.3 14.1 -0.3862E+01 -0.1787E+02 -0.3386E+02E
 SPEC JIDRBH Z MO 13.6 ST  1.2 OM  2.6 f0 3.15 R0.5203 AL-0.00 WI 20.0 MW  3.0 3
 SPEC JIDRBH Z T 23421 K 0.020 GD 32.5 VS 4.43 DE 3.34 Q0400.0 QA 0.70 Q1 1.00 3
 SPEC NEDRBH Z MO 13.2 ST  1.6 OM  2.1 f0 4.77 R0.3436 AL-0.00 WI 20.0 MW  2.7 3
 SPEC NEDRBH Z T 23423 K 0.020 GD 38.7 VS 4.43 DE 3.34 Q0400.0 QA 0.70 Q1 1.00 3
 SPEC PAPHBH Z MO 13.3 ST  6.7 OM  2.0 f0 6.88 R0.2382 AL-0.00 WI 20.0 MW  2.8 3
 SPEC PAPHBH Z T 23432 K 0.020 GD 67.3 VS 4.43 DE 3.34 Q0400.0 QA 0.70 Q1 1.00 3
 SPEC PODRBH Z MO 13.3 ST  1.6 OM  1.9 f0 4.47 R0.3667 AL-0.00 WI 20.0 MW  2.8 3
 SPEC PODRBH Z T 23433 K 0.020 GD 74.6 VS 4.43 DE 3.34 Q0400.0 QA 0.70 Q1 1.00 3
 SPEC ABDRBH Z MO 12.7 ST  3.3 OM  1.1 f0 9.00 R0.1821 AL-0.00 WI 20.0 MW  2.4 3
 SPEC ABDRBH Z T 23444 K 0.020 GD  117 VS 4.43 DE 3.34 Q0400.0 QA 0.70 Q1 1.00 3
 SPEC BANIBH Z MO 13.4 ST0.453 OM  1.7 f0 2.72 R0.6026 AL-0.00 WI 20.0 MW  2.8 3
 SPEC BANIBH Z T 23453 K 0.020 GD  147 VS 4.43 DE 3.34 Q0400.0 QA 0.70 Q1 1.00 3
 2017-01-26-0234-00S.MAN___100                                                 6
 OLDACT:UP  17-01-26 13:05 OP:FME  STATUS:               ID:20170126023400     3
 OLDACT:UP  17-01-26 11:56 OP:FME  STATUS:               ID:20170126023400     3
 OLDACT:ARG 17-01-26 08:25 OP:amrz STATUS:               ID:20170126023400     3
 ACTION:UP  17-01-26 16:13 OP:FMGP STATUS:               ID:20170126023400     I
 OLDACT:UP  17-01-26 13:14 OP:FME  STATUS:               ID:20170126023400     3
 STAT SP IPHASW D HRMM SECON CODA AMPLIT PERI AZIMU VELO AIN AR TRES W  DIS CAZ7
 JIDR BZ EP     D  234 17.88   45                        133   -1.2310 22.9 220 
 JIDR BN ES     D  234 22.52                             133   -0.3510 22.9 220 
 JIDR BZ  IAML     234 23.47       545.9 0.30                          22.9 220 
 NEDR BZ EPg    C  234 19.58   72                        124   -0.5010 31.1 127 
 NEDR BN ESg    D  234 25.34                             124    0.7710 31.1 127 
 NEDR BZ  IAML     234 26.01       159.9 0.30                          31.1 127 
 SDDR BZ EPg    C  234 22.85   64                        108   -0.9010 57.6  51 
 SDDR BN ESg    D  234 31.56                             108    0.6110 57.6  51 
 SDDR BZ  IAML     234 34.66        57.0 0.30                          57.6  51 
 PAPH BZ EPg    D  234 24.43   55                        106   -0.1210 63.3 257 
 PAPH BN ESg    D  234 34.11                             106    1.7710 63.3 257 
 PAPH BZ  IAML     234 36.63       216.4 0.56                          63.3 257 
 PODR BZ EPg    C  234 24.85   61                        105   -0.9210 71.0 140 
 PODR BN ESg    D  234 34.76                             105    0.3010 71.0 140 
 PODR BZ  IAML     234 36.56       105.8 0.30                          71.0 140 
 ABDR BZ EPg    D  234 31.80   72                         98   -0.5910  115  87 
 ABDR BN ESg    D  234 46.33                              98    0.3510  115  87 
 ABDR BZ  IAML     235  0.01        14.7 0.80                           115  87 
 BANI BZ EPg    C  234 36.75   79                         96   -0.1610  146 101 
 BANI BN ESg    D  234 54.79                              96    0.9510  146 101 
 BANI BZ  IAML     234 58.32        33.5 0.25                           146 101 
                                                                                
 2017  126 0941 13.2 L  18.168 -68.612 31.0  DOM 11 0.7 3.8LDOM 3.5CDOM 4.1WDOM1
 SPEC AVERAGE  MO 15.2 ST 32.2 OM  3.4 f0 2.59 R0.9945 AL 0.00 WI 20.0 MW  4.1 3
 SPEC SD       MO  0.4 ST 55.7 OM  0.3 f0 1.70 R0.6878 AL      WI      MW  0.2 3
 GAP=182        1.90      17.8     6.3 29.0  0.6325E+02  0.6931E+02  0.2719E+03E
 SPEC PCDRBH Z MO 15.2 ST 15.6 OM  3.9 f0 2.26 R0.7367 AL-0.00 WI 20.0 MW  4.0 3
 SPEC PCDRBH Z T 94129 K 0.020 GD 54.9 VS 4.50 DE 3.40 Q0400.0 QA 0.70 Q1 1.00 3
 SPEC MIDRBH Z MO 14.5 ST 25.6 OM  3.0 f0 4.28 R0.3890 AL-0.00 WI 20.0 MW  3.6 3
 SPEC MIDRBH Z T 94139 K 0.020 GD  105 VS 4.50 DE 3.40 Q0400.0 QA 0.70 Q1 1.00 3
 SPEC CRPRBH Z MO 15.2 ST  8.9 OM  3.5 f0 1.77 R0.9407 AL-0.00 WI 20.0 MW  4.1 3
 SPEC CRPRBH Z T 94156 K 0.020 GD  164 VS 4.50 DE 3.40 Q0400.0 QA 0.70 Q1 1.00 3
 SPEC BANIBH Z MO 14.8 ST 29.9 OM  3.0 f0 3.71 R0.4488 AL-0.00 WI 20.0 MW  3.8 3
 SPEC BANIBH Z T 942 1 K 0.020 GD  189 VS 4.50 DE 3.40 Q0400.0 QA 0.70 Q1 1.00 3
 SPEC AOPRBH Z MO 14.9 ST187.8 OM  3.1 f0 6.22 R0.2677 AL-0.00 WI 20.0 MW  3.9 3
 SPEC AOPRBH Z T 942 5 K 0.020 GD  200 VS 4.50 DE 3.40 Q0400.0 QA 0.70 Q1 1.00 3
 SPEC CADRBH Z MO 15.8 ST  6.4 OM  3.9 f0 1.06 R1.5708 AL-0.00 WI 20.0 MW  4.4 3
 SPEC CADRBH Z T 94213 K 0.020 GD  219 VS 4.50 DE 3.40 Q0400.0 QA 0.70 Q1 1.00 3
 SPEC ABDRBH Z MO 15.2 ST  6.3 OM  3.3 f0 1.66 R1.0030 AL-0.00 WI 20.0 MW  4.1 3
 SPEC ABDRBH Z T 94214 K 0.020 GD  223 VS 4.50 DE 3.40 Q0400.0 QA 0.70 Q1 1.00 3
 SPEC SC01BH Z MO 15.2 ST  8.3 OM  3.3 f0 1.72 R0.9680 AL-0.00 WI 20.0 MW  4.1 3
 SPEC SC01BH Z T 94226 K 0.020 GD  264 VS 4.50 DE 3.40 Q0400.0 QA 0.70 Q1 1.00 3
 SPEC SDDRBH Z MO 15.7 ST  1.2 OM  3.7 f00.634 R2.6262 AL-0.00 WI 20.0 MW  4.4 3
 SPEC SDDRBH Z T 94236 K 0.020 GD  298 VS 4.50 DE 3.40 Q0400.0 QA 0.70 Q1 1.00 3
 SPEC MCDRBH Z MO 15.0 ST 10.9 OM  2.9 f0 2.28 R0.7303 AL-0.00 WI 20.0 MW  3.9 3
 SPEC MCDRBH Z T 94257 K 0.020 GD  373 VS 4.50 DE 3.40 Q0400.0 QA 0.70 Q1 1.00 3
 2017-01-26-0940-00S.MAN___100                                                 6
 OLDACT:ARG 17-01-26 14:04 OP:fmgp STATUS:               ID:20170126094000     3
 ACTION:UP  17-01-26 21:44 OP:FME  STATUS:               ID:20170126094000     I
 OLDACT:UP  17-01-26 16:13 OP:FMGP STATUS:               ID:20170126094000     3
 OLDACT:UP  17-01-26 14:09 OP:FMGP STATUS:               ID:20170126094000     3
 STAT SP IPHASW D HRMM SECON CODA AMPLIT PERI AZIMU VELO AIN AR TRES W  DIS CAZ7
 PCDR BZ EPg       941 22.92   46                        130    0.4710 45.3  33 
 PCDR BZ  IAML     941 32.23      8160.4 0.25                          45.3  33 
 SPM1 HZ EPg       941 26.51   70                        113   -0.0810 79.6 293 
 SPM1 BZ  IAML     941 41.24      1494.3 0.38                          79.6 293 
 MIDR BZ EPg       941 28.50   50                        107   -0.9810  101 333 
 MIDR BZ  IAML     941 41.71      1482.1 0.45                           101 333 
 CRPR BZ EPg       941 38.07   64                         99    0.2210  162  96 
 CRPR BZ  IAML     942  0.62      1455.8 0.55                           162  96 
 BANI BZ EPg       941 40.86                              98   -0.4710  187 278 
 BANI BZ  IAML     942  8.76       938.2 0.35                           187 278 
 AOPR BZ EPg       941 43.26   77                         97    0.4710  198  84 
 AOPR BZ  IAML     942  9.53      2314.9 0.25                           198  84 
 CADR BZ EPg       941 45.23   93                         96   -0.2510  217 320 
 CADR BZ  IAML     942 14.54      1656.8 0.65                           217 320 
 ABDR BZ EPg       941 46.84   84                         96    0.5410  221 286 
 ABDR BZ  IAML     942 17.32       707.7 0.55                           221 286 
 SJG  BZ EPg       941 50.83   86                         95   -0.8110  261  91 
 SC01 BZ EPg       941 54.02  102                         95    1.5710  263 302 
 SC01 BZ  IAML     942 31.91       736.7 0.85                           263 302 
 SDDR BZ EPg       941 56.01   84                         94   -0.6910  297 288 
 SDDR BZ  IAML     942 39.47       577.1 0.65                           297 288 
                                                                                
 2017  126 2214 38.9 L  18.713 -70.346109.6  DOM  6 0.9 2.4LDOM 3.4CDOM        1
 GAP=105        2.26      12.1     8.8 20.3  0.1763E+02 -0.2031E+02 -0.8635E+02E
 ACTION:UP  17-01-27 00:09 OP:FME  STATUS:               ID:20170126221300     I
 OLDACT:ARG 17-01-27 00:04 OP:plst STATUS:               ID:20170126221300     3
 2017-01-26-2213-00S.MAN___100                                                 6
 STAT SP IPHASW D HRMM SECON CODA AMPLIT PERI AZIMU VELO AIN AR TRES W  DIS CAZ7
 ABDR BZ EPg      2214 52.16   52                        164   -1.8910 29.6 270 
 ABDR BN  IAML    2215  4.22       111.0 0.25                          29.6 270 
 BANI BZ EPg      2214 53.77   69                        161   -0.1910 34.9 183 
 BANI BN ESg      2215  5.83                             161    0.7310 34.9 183 
 BANI BN  IAML    2215  7.92       122.8 0.15                          34.9 183 
 SDDR BZ EPg      2214 58.30   65                        132   -0.1410  104 287 
 SDDR BN ESg      2215 12.23                             132   -0.6810  104 287 
 SDDR BN  IAML    2215 16.59        30.6 0.40                           104 287 
 PODR BZ EPg      2215  1.05   71                        129    1.3610  116 239 
 PODR BN  IAML    2215 21.54        35.1 0.45                           116 239 
 MIDR BZ EPg      2215  1.56   92                        123   -0.1810  140  77 
 MIDR BN ESg      2215 18.77                             123    0.1310  140  77 
 MIDR BN  IAML    2215 21.25        11.7 0.20                           140  77 
 LUDR BZ EPg      2215  2.23   56                        122   -0.0610  145 334 
 LUDR BN ESg      2215 20.52                             122    0.9210  145 334 
 LUDR BN  IAML    2215 25.13       206.8 0.35                           145 334 
                                                                                
 2017  127 2145 23.2 L  19.329 -68.135 11.4  DOM  6 0.6 2.5LDOM 3.7CDOM        1
 GAP=231        1.62      20.9     3.8174.3  0.4809E+02 -0.3297E+03 -0.3347E+04E
 ACTION:UP  17-01-27 22:25 OP:FME  STATUS:               ID:20170127214500     I
 OLDACT:ARG 17-01-27 22:19 OP:plst STATUS:               ID:20170127214500     3
 2017-01-27-2145-00S.MAN___100                                                 6
 STAT SP IPHASW D HRMM SECON CODA AMPLIT PERI AZIMU VELO AIN AR TRES W  DIS CAZ7
 PCDR BZ EPg      2145 38.56   70                         97    0.1110 93.8 196 
 PCDR HZ ESg      2145 49.32                              97   -0.4110 93.8 196 
 PCDR HZ  IAML    2145 53.25       112.5 0.38                          93.8 196 
 MIDR BZ EPg    C 2145 41.15   83                         96    1.1510  104 248 
 MIDR BN  IAML    2145 56.09        47.8 0.15                           104 248 
 AGPR BZ EPg      2145 45.60   76                         95   -0.8710  144 131 
 AGPR BN ESg      2146  4.32                              95    0.6310  144 131 
 AGPR BN  IAML    2146  6.05       134.0 1.50                           144 131 
 AOPR BZ EPg      2145 52.40   97                         94   -0.1610  182 127 
 AOPR BN ESg      2146 14.62                              94    0.3410  182 127 
 AOPR BN  IAML    2146 18.03        57.5 0.20                           182 127 
 BANI BZ EPg      2146  4.14  100                         93   -0.4310  256 247 
 BANI BN ESg      2146 34.98                              93   -0.2110  256 247 
 BANI BN  IAML    2146 46.20        74.5 0.35                           256 247 
 ABDR BZ EPg      2146  6.19  102                         93   -0.7910  271 256 
 ABDR BN ESg      2146 40.04                              93    0.6610  271 256 
 ABDR BN  IAML    2146 43.37        28.9 0.35                           271 256 
                                                                                
 2017  127 2234 30.6 L  19.247 -69.792 23.0  DOM 12 0.8 2.6LDOM 3.5CDOM        1
 GAP=104        2.30       6.2     3.4 12.1  0.2555E+01  0.3399E+01  0.4234E+02E
 ACTION:UP  17-01-27 23:36 OP:FME  STATUS:               ID:20170127223400     I
 OLDACT:ARG 17-01-27 22:48 OP:plst STATUS:               ID:20170127223400     3
 2017-01-27-2234-00S.MAN___100                                                 6
 STAT SP IPHASW D HRMM SECON CODA AMPLIT PERI AZIMU VELO AIN AR TRES W  DIS CAZ7
 NADR BZ EPg      2234 34.01   58                        149   -0.7410 13.4 331 
 NADR BN ESg      2234 37.84                             149   -0.0010 13.4 331 
 NADR BN  IAML    2234 38.19        94.8 0.35                          13.4 331 
 CADR BZ EPg      2234 38.69   56                        112   -0.3410 48.9 342 
 CADR BN ESg      2234 46.22                             112    0.9310 48.9 342 
 CADR BN  IAML    2234 46.94       705.2 0.30                          48.9 342 
 SMDR BZ EPg      2234 40.35   51                        106   -0.8010 63.7  86 
 SMDR BN ESg      2234 49.95                             106    0.9810 63.7  86 
 SMDR BN  IAML    2234 50.59       174.0 0.40                          63.7  86 
 MIDR BZ EPg      2234 43.20   80                        101   -0.8610 83.4 110 
 MIDR BN ESg      2234 53.97                             101   -0.0610 83.4 110 
 MIDR BN  IAML    2234 56.07       123.9 0.25                          83.4 110 
 ABDR BZ EPg      2234 46.43   81                         99   -1.1710  106 236 
 ABDR BN  IAML    2235  4.09       124.3 0.35                           106 236 
 BANI BZ EPg      2234 48.53   72                         98    0.2210  111 213 
 BANI BN ESg      2235  2.66                              98    1.2310  111 213 
 BANI BN  IAML    2235  3.64       204.0 0.35                           111 213 
 LUDR BZ EPg      2234 53.32   73                         96    0.5910  141 301 
 LUDR BN  IAML    2235 14.86       759.4 0.40                           141 301 
 SDDR BZ EPg      2234 55.07  107                         95   -0.5810  160 260 
 SDDR BN ESg      2235 13.70                              95   -0.4910  160 260 
 SDDR BN  IAML    2235 21.50        62.1 0.55                           160 260 
 PCDR BZ EPg      2234 56.79   82                         95   -0.1910  169 118 
 PCDR HZ  IAML    2235 20.37        91.1 1.66                           169 118 
 PODR BZ EPg      2235  1.65   80                         94    0.3010  198 233 
 PODR BN  IAML    2235 31.53        27.4 0.45                           198 233 
 REDR BZ EPg      2235  1.69   89                         94   -0.0610  201 271 
 REDR BN ESg      2235 25.70                              94    0.8810  201 271 
 REDR BN  IAML    2235 26.69        66.7 0.15                           201 271 
 AOPR BZ EPg      2235 20.52   98                         92   -1.6110  335 107 
 AOPR BN ESg      2236  2.04                              92    1.7710  335 107 
 AOPR BN  IAML    2236  5.71        47.5 0.70                           335 107 
                                                                                
