 2017  1 5 1748 57.8 L  18.840 -68.080 29.5  DOM 11 0.5 2.7LDOM 3.6CDOM 3.1WDOM1
 SPEC AVERAGE  MO 13.7 ST 25.2 OM  2.0 f0 7.44 R0.3109 AL 0.00 WI 20.0 MW  3.1 3
 SPEC SD       MO  0.4 ST 28.7 OM  0.4 f0 4.20 R0.1810 AL      WI      MW  0.3 3
 GAP=178        1.38      17.0     6.5 44.4  0.9118E+02 -0.2038E+03 -0.5942E+03E
 SPEC PCDRBH Z MO 13.9 ST 15.8 OM  2.6 f0 6.10 R0.2730 AL-0.00 WI 20.0 MW  3.2 3
 SPEC PCDRBH Z T174912 K 0.020 GD 56.4 VS 4.50 DE 3.40 Q0400.0 QA 0.70 Q1 1.00 3
 SPEC HIDRBH Z MO 13.4 ST 99.2 OM  2.0 f0 16.0 R0.1041 AL-0.00 WI 20.0 MW  2.9 3
 SPEC HIDRBH Z T174917 K 0.020 GD 78.3 VS 4.50 DE 3.40 Q0400.0 QA 0.70 Q1 1.00 3
 SPEC MIDRBH Z MO 13.2 ST 32.4 OM  1.7 f0 12.5 R0.1332 AL-0.00 WI 20.0 MW  2.8 3
 SPEC MIDRBH Z T174924 K 0.020 GD  107 VS 4.50 DE 3.40 Q0400.0 QA 0.70 Q1 1.00 3
 SPEC AGPRBH Z MO 13.6 ST 49.5 OM  2.0 f0 11.2 R0.1487 AL-0.00 WI 20.0 MW  3.0 3
 SPEC AGPRBH Z T174925 K 0.020 GD  113 VS 4.50 DE 3.40 Q0400.0 QA 0.70 Q1 1.00 3
 SPEC SMDRBH Z MO 13.3 ST0.959 OM  1.7 f0 3.62 R0.4599 AL-0.00 WI 20.0 MW  2.8 3
 SPEC SMDRBH Z T174930 K 0.020 GD  130 VS 4.50 DE 3.40 Q0400.0 QA 0.70 Q1 1.00 3
 SPEC CRPRBH Z MO 13.8 ST  9.1 OM  2.1 f0 5.47 R0.3044 AL-0.00 WI 20.0 MW  3.1 3
 SPEC CRPRBH Z T174933 K 0.020 GD  143 VS 4.50 DE 3.40 Q0400.0 QA 0.70 Q1 1.00 3
 SPEC AOPRBH Z MO 13.9 ST 28.4 OM  2.2 f0 7.24 R0.2300 AL-0.00 WI 20.0 MW  3.2 3
 SPEC AOPRBH Z T174938 K 0.020 GD  152 VS 4.50 DE 3.40 Q0400.0 QA 0.70 Q1 1.00 3
 SPEC NADRBH Z MO 14.7 ST  6.1 OM  2.9 f0 2.32 R0.7177 AL-0.00 WI 20.0 MW  3.7 3
 SPEC NADRBH Z T174949 K 0.020 GD  197 VS 4.50 DE 3.40 Q0400.0 QA 0.70 Q1 1.00 3
 SPEC ABDRBH Z MO 13.7 ST  2.2 OM  1.8 f0 3.47 R0.4798 AL-0.00 WI 20.0 MW  3.1 3
 SPEC ABDRBH Z T175013 K 0.020 GD  270 VS 4.50 DE 3.40 Q0400.0 QA 0.70 Q1 1.00 3
 SPEC REDRBH Z MO 13.5 ST  8.0 OM  1.4 f0 6.45 R0.2581 AL-0.00 WI 20.0 MW  2.9 3
 SPEC REDRBH Z T175046 K 0.020 GD  385 VS 4.50 DE 3.40 Q0400.0 QA 0.70 Q1 1.00 3
 2017-01-05-1747-00S.MAN___095                                                 6
 OLDACT:ARG 17-01-05 17:56 OP:fmgp STATUS:               ID:20170105174700     3
 ACTION:UP  17-01-05 23:00 OP:FMGP STATUS:               ID:20170105174700     I
 OLDACT:UP  17-01-05 18:08 OP:FMGP STATUS:               ID:20170105174700     3
 STAT SP IPHASW D HRMM SECON CODA AMPLIT PERI AZIMU VELO AIN AR TRES W  DIS CAZ7
 PCDR BZ EPg    D 1749  6.71   65                        114    0.2510 48.1 221 
 PCDR BZ  IAML    1749 19.93       536.9 0.35                          48.1 221 
 HIDR BZ EPg    D 1749  9.56   55                        103   -0.1610 72.5 248 
 HIDR BZ  IAML    1749 19.33       153.4 0.20                          72.5 248 
 MIDR BZ EPg    D 1749 13.67   66                         97   -0.3510  103 279 
 MIDR BZ  IAML    1749 28.02        70.7 0.20                           103 279 
 AGPR BZ EPg    C 1749 14.05   72                         96   -0.9310  110 112 
 AGPR BZ  IAML    1749 35.08       241.4 0.20                           110 112 
 SMDR BZ EPg    D 1749 17.25   87                         95   -0.0510  127 293 
 SMDR BZ  IAML    1749 37.30        53.5 0.30                           127 293 
 CRPR BZ EPg    C 1749 18.84   69                         94   -0.2510  140 131 
 CRPR BZ  IAML    1749 46.83       182.7 0.40                           140 131 
 AOPR BZ EPg    D 1749 21.67   76                         94    1.0610  150 111 
 AOPR BZ  IAML    1749 46.39       193.1 0.20                           150 111 
 NADR BZ EPg    D 1749 27.46                              93    0.5410  195 287 
 NADR BZ  IAML    1750  2.64       300.8 0.30                           195 287 
 SJG  BZ EPg    D 1749 30.36  100                         92    0.0410  219 111 
 ABDR BZ EPg      1749 37.87   89                         92    0.3610  269 267 
 ABDR BZ  IAML    1750 23.76        33.0 0.30                           269 267 
 REDR BZ EPg    D 1749 53.08  117                         91   -0.5010  384 278 
 REDR BZ  IAML    1750 58.99        11.6 1.10                           384 278 
 REDR BZ E        1750 59.20                                            384 278 
                                                                                
 2017  1 6 2022 37.8 L  18.127 -68.788115.2  DOM  6 0.7 2.2LDOM 3.4CDOM 2.7WDOM1
 SPEC AVERAGE  MO 13.1 ST  4.9 OM  1.9 f0 6.11 R1.1304 AL 0.00 WI 20.0 MW  2.7 3
 SPEC SD       MO  1.0 ST  6.8 OM  0.9 f0 6.95 R1.1452 AL      WI      MW  0.6 3
 GAP=205        1.97      20.4     6.8 20.0  0.7388E+02  0.3846E+02  0.2837E+03E
 SPEC MIDRBH Z MO 12.1 ST 14.4 OM  1.0 f0 15.9 R0.0745 AL-0.00 WI 20.0 MW  2.0 3
 SPEC MIDRBH Z T202310 K 0.020 GD  151 VS 3.20 DE 2.60 Q0400.0 QA 0.70 Q1 1.00 3
 SPEC SMDRBH Z MO 12.7 ST0.105 OM  1.5 f0 1.99 R0.5950 AL-0.00 WI 20.0 MW  2.4 3
 SPEC SMDRBH Z T202316 K 0.020 GD  177 VS 3.20 DE 2.60 Q0400.0 QA 0.70 Q1 1.00 3
 SPEC AGPRBH Z MO 14.4 ST0.053 OM  3.1 f00.435 R2.7218 AL-0.00 WI 20.0 MW  3.5 3
 SPEC AGPRBH Z T202324 K 0.020 GD  214 VS 3.20 DE 2.60 Q0400.0 QA 0.70 Q1 1.00 3
 2017-01-06-2022-00S.MAN___095                                                 6
 ACTION:UP  17-01-06 21:23 OP:JMLC STATUS:               ID:20170106202200     I
 OLDACT:ARG 17-01-06 21:10 OP:jmlc STATUS:               ID:20170106202200     3
 STAT SP IPHASW D HRMM SECON CODA AMPLIT PERI AZIMU VELO AIN AR TRES W  DIS CAZ7
 HIDR BZ EPg      2022 53.55   51                        154   -0.5810 52.0   9 
 HIDR BN ESg      2023  5.75                             154   -0.4410 52.0   9 
 HIDR BZ  IAML    2023 41.78        36.9 1.05                          52.0   9 
 MIDR BZ EPg      2022 56.02   46                        136   -1.3010 98.7 344 
 MIDR BN ESg      2023 11.95                             136    0.2010 98.7 344 
 MIDR BZ  IAML    2023 13.45        19.7 0.70                          98.7 344 
 SMDR BZ EPg      2022 59.39   55                        126   -1.2110  135 342 
 SMDR BN ESg      2023 18.39                             126    0.9310  135 342 
 SMDR BZ  IAML    2023 22.92        10.8 1.40                           135 342 
 AGPR BZ EPg      2023  5.53   90                        117    0.2710  181  78 
 AGPR BE ESg      2023 26.29                             117    0.7310  181  78 
 AGPR BZ  IAML    2024  6.19        92.6 1.95                           181  78 
 ABDR BZ EPg      2023  8.49   68                        114    0.4310  205 289 
 ABDR BN ESg      2023 31.35                             114    0.9110  205 289 
 ABDR BZ  IAML    2023 38.70        28.9 2.70                           205 289 
 AOPR BZ EPg      2023  8.65   64                        112   -0.3910  217  83 
 AOPR BN ESg      2023 32.62                             112    0.4710  217  83 
 AOPR BZ  IAML    2023 37.17        23.4 1.05                           217  83 
                                                                                
 2017  1 6 2248 45.5 L  19.943 -71.787  0.1  DOM  3 0.5 1.5LDOM 2.7CDOM 1.9WDOM1
 SPEC AVERAGE  MO 11.9 ST  7.4 OM  1.3 f0 13.3 R0.0988 AL 0.00 WI 20.0 MW  1.9 3
 SPEC SD       MO  0.1 ST  5.5 OM  0.5 f0 3.78 R0.0351 AL      WI      MW  0.1 3
 GAP=300        1.18       9.3     7.5885.0 -0.3606E+02  0.1378E+04 -0.5100E+04E
 SPEC SDDRBH Z MO 11.8 ST0.827 OM  0.8 f0 7.98 R0.1484 AL-0.00 WI 20.0 MW  1.8 3
 SPEC SDDRBH Z T224917 K 0.020 GD  109 VS 3.20 DE 2.60 Q0400.0 QA 0.70 Q1 1.00 3
 SPEC MCDRBH Z MO 12.1 ST 14.2 OM  2.0 f0 16.0 R0.0740 AL-0.00 WI 20.0 MW  2.0 3
 SPEC MCDRBH Z T224848 K 0.020 GD 14.7 VS 3.20 DE 2.60 Q0400.0 QA 0.70 Q1 1.00 3
 SPEC REDRBH Z MO 11.8 ST  7.2 OM  1.0 f0 16.0 R0.0740 AL-0.00 WI 20.0 MW  1.8 3
 SPEC REDRBH Z T2249 4 K 0.020 GD 74.3 VS 3.20 DE 2.60 Q0400.0 QA 0.70 Q1 1.00 3
 2017-01-06-2248-00S.MAN___095                                                 6
 ACTION:UP  17-01-06 23:18 OP:JMLC STATUS:               ID:20170106224800     I
 OLDACT:ARG 17-01-06 23:05 OP:jmlc STATUS:               ID:20170106224800     3
 STAT SP IPHASW D HRMM SECON CODA AMPLIT PERI AZIMU VELO AIN AR TRES W  DIS CAZ7
 MCDR BZ EPg      2248 47.35   31                         90   -0.5310 14.7 113 
 MCDR BN ESg      2248 49.82                              90    0.1810 14.7 113 
 MCDR BZ  IAML    2248 49.97       132.1 0.15                          14.7 113 
 REDR BZ EPg      2248 57.22   38                         91   -0.2810 74.3 173 
 REDR BN ESg      2249  6.30                              91   -0.0710 74.3 173 
 REDR BZ  IAML    2249  7.53        17.0 0.20                          74.3 173 
 SDDR BZ EPg      2249  5.55   34                         90    0.9010  119 154 
 SDDR BN ESg      2249 18.61                              90   -0.2110  119 154 
 SDDR BZ  IAML    2249 35.04        16.9 1.85                           119 154 
                                                                                
 2017  1 7 0807  4.0 L  19.086 -68.758 19.6  DOM 14 1.1 2.7LDOM 3.6CDOM 3.2WDOM1
 SPEC AVERAGE  MO 13.9 ST 83.5 OM  2.7 f0 6.23 R1.4496 AL 0.00 WI 20.0 MW  3.2 3
 SPEC SD       MO  0.5 ST143.2 OM  0.4 f0 5.32 R2.0838 AL      WI      MW  0.4 3
 GAP=174        3.04      10.9     4.7 21.9  0.2918E+02 -0.2149E+02 -0.2690E+02E
 SPEC SMDRBH Z MO 13.3 ST  2.8 OM  2.6 f0 3.82 R0.3099 AL-0.00 WI 20.0 MW  2.8 3
 SPEC SMDRBH Z T 8 718 K 0.020 GD 54.2 VS 3.20 DE 2.60 Q0400.0 QA 0.70 Q1 1.00 3
 SPEC SDDRBH Z MO 14.6 ST0.019 OM  3.2 f00.265 R4.4679 AL-0.00 WI 20.0 MW  3.7 3
 SPEC SDDRBH Z T 8 952 K 0.020 GD  267 VS 3.20 DE 2.60 Q0400.0 QA 0.70 Q1 1.00 3
 SPEC AGPRBH Z MO 13.7 ST 97.5 OM  2.5 f0 8.85 R0.1338 AL-0.00 WI 20.0 MW  3.1 3
 SPEC AGPRBH Z T 8 753 K 0.020 GD  188 VS 3.20 DE 2.60 Q0400.0 QA 0.70 Q1 1.00 3
 SPEC AOPRBH Z MO 14.8 ST0.014 OM  3.5 f00.200 R5.9200 AL-0.00 WI 20.0 MW  3.8 3
 SPEC AOPRBH Z T 8 940 K 0.020 GD  227 VS 3.20 DE 2.60 Q0400.0 QA 0.70 Q1 1.00 3
 SPEC JIDRBH Z MO 14.4 ST0.225 OM  2.9 f00.711 R1.6653 AL-0.00 WI 20.0 MW  3.5 3
 SPEC JIDRBH Z T 8 833 K 0.020 GD  333 VS 3.20 DE 2.60 Q0400.0 QA 0.70 Q1 1.00 3
 SPEC MIDRBH Z MO 13.4 ST 98.0 OM  2.9 f0 11.1 R0.1067 AL-0.00 WI 20.0 MW  2.9 3
 SPEC MIDRBH Z T 8 712 K 0.020 GD 38.1 VS 3.20 DE 2.60 Q0400.0 QA 0.70 Q1 1.00 3
 SPEC PCDRBH Z MO 13.6 ST472.6 OM  2.8 f0 16.0 R0.0740 AL-0.00 WI 20.0 MW  3.0 3
 SPEC PCDRBH Z T 8 722 K 0.020 GD 77.3 VS 3.20 DE 2.60 Q0400.0 QA 0.70 Q1 1.00 3
 SPEC REDRBH Z MO 13.3 ST 67.6 OM  1.9 f0 10.5 R0.1128 AL-0.00 WI 20.0 MW  2.8 3
 SPEC REDRBH Z T 8 823 K 0.020 GD  310 VS 3.20 DE 2.60 Q0400.0 QA 0.70 Q1 1.00 3
 SPEC SC01BH Z MO 13.7 ST 12.4 OM  2.4 f0 4.63 R0.2557 AL-0.00 WI 20.0 MW  3.1 3
 SPEC SC01BH Z T 8 760 K 0.020 GD  210 VS 3.20 DE 2.60 Q0400.0 QA 0.70 Q1 1.00 3
 2017-01-07-0805-00S.MAN___095                                                 6
 ACTION:UP  17-01-07 22:15 OP:JMLC STATUS:               ID:20170107080500     I
 OLDACT:ARG 17-01-07 21:39 OP:jmlc STATUS:               ID:20170107080500     3
 STAT SP IPHASW D HRMM SECON CODA AMPLIT PERI AZIMU VELO AIN AR TRES W  DIS CAZ7
 MIDR BZ EPg       8 7  9.57   15                        118   -0.4210 32.7 250 
 MIDR BN ESg       8 7 13.86                             118   -0.5710 32.7 250 
 MIDR BZ  IAML     8 7 14.08      1388.4 0.40                          32.7 250 
 SMDR BZ EPg       8 7 12.25   59                        107   -0.2510 50.5 297 
 SMDR BN ESg       8 7 20.31                             107    1.5210 50.5 297 
 SMDR BZ  IAML     8 7 26.66       154.7 0.35                          50.5 297 
 PCDR BZ EPg       8 7 15.65   64                        100   -0.4410 74.8 148 
 PCDR BN ESg       8 7 24.42                             100   -0.6210 74.8 148 
 PCDR BZ  IAML     8 7 28.49       497.7 0.20                          74.8 148 
 NADR BZ EPg       8 7 23.52   78                         95    0.7810  119 285 
 NADR BZ  IAML     8 9 35.19       135.7 1.75                           119 285 
 AGPR BZ EPg       8 7 32.78   98                         93   -0.1910  187 111 
 AGPR BN ESg       8 7 55.47                              93    1.0510  187 111 
 AGPR BZ  IAML     8 8  1.69       145.3 0.20                           187 111 
 SC01 BZ EPg       8 7 37.08   90                         92    0.0110  210 281 
 SC01 BN ESg       8 8  1.94                              92    0.3810  210 281 
 SC01 BZ  IAML     8 8 11.39       105.6 0.65                           210 281 
 CRPR BZ EPg       8 7 37.38   88                         92    0.4410  213 124 
 CRPR BZ  IAML     8 9 47.71        41.4 2.45                           213 124 
 AOPR BZ EPg       8 7 38.27   98                         92   -0.7710  227 111 
 AOPR BZ  IAML     8 9 46.62        18.8 0.90                           227 111 
 SDDR BZ EPg       8 7 45.05   81                         92   -0.0710  267 268 
 SDDR BZ  IAML     810 28.89        20.2 3.55                           267 268 
 PODR BZ EPg       8 7 49.04   88                         92    1.0710  285 249 
 PODR BN ESg       8 8 21.14                              92    0.6110  285 249 
 PODR BZ  IAML     8 8 28.89        20.8 0.40                           285 249 
 NEDR BZ EPg       8 7 47.95  113                         92   -1.3610  295 257 
 NEDR BN ESg       8 8 23.95                              92    1.1110  295 257 
 NEDR BZ  IAML     8 9  0.40        37.0 2.75                           295 257 
 SJG  BZ EPg       8 7 48.21   71                         92   -1.2810  296 111 
 SJG  BN ESg       8 8 25.05                              92    1.8910  296 111 
 REDR BZ EPg       8 7 49.42   88                         92   -2.2910  310 274 
 REDR BN ESg       8 8 25.36                              92   -1.6710  310 274 
 REDR BZ  IAML     8 8 31.93        48.1 0.60                           310 274 
 JIDR BZ EPg       8 7 54.01  116                         91   -1.0910  333 259 
 JIDR BN ESg       8 8 35.10                              91    2.1810  333 259 
 JIDR BZ  IAML     8 8 53.60        40.1 1.55                           333 259 
                                                                                
 2017  1 7 0857 52.2 L  18.967 -67.695 12.1  DOM  3 0.5 3.2LDOM 3.6CDOM 3.1WDOM1
 SPEC AVERAGE  MO 13.7 ST150.6 OM  2.2 f0 12.4 R0.1113 AL 0.00 WI 20.0 MW  3.1 3
 SPEC SD       MO  0.0 ST0.000 OM  0.0 f00.000 R0.0000 AL      WI      MW  0.0 3
 GAP=199        1.29      18.9     6.8999.9  0.1109E+03  0.2821E+05  0.1351E+05E
 SPEC NADRBH Z MO 13.7 ST150.6 OM  2.2 f0 12.4 R0.1113 AL-0.00 WI 20.0 MW  3.1 3
 SPEC NADRBH Z T 85853 K 0.020 GD  193 VS 3.73 DE 2.83 Q0400.0 QA 0.70 Q1 1.00 3
 2017-01-07-0856-00S.MAN___095                                                 6
 OLDACT:ARG 17-01-07 21:39 OP:jmlc STATUS:               ID:20170107085600     3
 ACTION:UP  17-01-07 21:47 OP:JMLC STATUS:               ID:20170107085600     I
 OLDACT:UP  17-01-07 21:47 OP:JMLC STATUS:               ID:20170107085600     3
 OLDACT:UP  17-01-07 21:46 OP:JMLC STATUS:               ID:20170107085600     3
 STAT SP IPHASW D HRMM SECON CODA AMPLIT PERI AZIMU VELO AIN AR TRES W  DIS CAZ7
 SJG  BZ EPg    C  858 22.21   53                         90    0.7210  189 120 
 SJG  BN ESg       858 42.66                              90   -0.4810  189 120 
 NADR BZ EPg       858 27.18   96                         90   -0.7410  231 281 
 NADR BN ESg       858 54.62                              90    0.2810  231 281 
 NADR BZ  IAML     859  0.67       252.6 0.55                           231 281 
 ABDR BZ EPg       858 40.39   76                         90    0.3310  310 265 
 ABDR BN ESg       859 15.35                              90   -0.1110  310 265 
 ABDR BZ  IAML     859 21.35        72.4 0.60                           310 265 
                                                                                
 2017  1 8 0314  9.5 L  18.614 -71.530 17.3  DOM  7 0.9 3.0CDOM                1
 GAP= 89        2.33       5.8     4.6 15.7  0.1726E+01 -0.1841E+01 -0.4789E+02E
 ACTION:UP  17-01-08 23:54 OP:JMLC STATUS:               ID:20170108031300     I
 OLDACT:UP  17-01-08 23:54 OP:JMLC STATUS:               ID:20170108031300     3
 OLDACT:UP  17-01-08 23:51 OP:JMLC STATUS:               ID:20170108031300     3
 OLDACT:UP  17-01-08 23:50 OP:JMLC STATUS:               ID:20170108031300     3
 OLDACT:ARG 17-01-08 10:37 OP:amrz STATUS:               ID:20170108031300     3
 2017-01-08-0313-00S.MAN___095                                                 6
 STAT SP IPHASW D HRMM SECON CODA AMPLIT PERI AZIMU VELO AIN AR TRES W  DIS CAZ7
 NEDR BZ EPg       314 12.58   23                        136   -0.5910 15.4 160 
 NEDR BN ESg       314 16.05                             136    0.1710 15.4 160 
 JIDR BZ EPg       314 15.56   44                        110   -0.3610 36.7 249 
 JIDR BE ESg       314 21.73                             110    1.0610 36.7 249 
 SDDR BZ EPg       314 15.66   50                        105   -1.8910 47.7  32 
 PODR BZ EPg    D  314 18.05   67                        102   -0.8510 56.4 152 
 PODR BN ESg    C  314 25.62                             102   -0.2310 56.4 152 
 REDR BZ EPg       314 21.88   56                         97    0.1710 75.5 346 
 REDR BE ESg       314 30.90                              97    0.1610 75.5 346 
 PAPH BZ EPg       314 22.19   48                         96   -0.4410 81.9 263 
 PAPH BZ ESg       314 32.89                              96    0.5510 81.9 263 
 ABDR BZ EPg    C  314 25.39   60                         95    0.5010 95.9  83 
 ABDR BE ESg       314 38.04                              95    1.7610 95.9  83 
                                                                                
