 2017  2 3 0735  4.6 L  19.090 -69.397 22.7  DOM  5 0.4 1.7LDOM 2.8CDOM        1
 GAP=113        0.99       4.3     2.8 12.5  0.4755E+01  0.2055E+02  0.3397E+02E
 ACTION:UP  17-02-03 13:13 OP:AMMR STATUS:               ID:20170203073200     I
 OLDACT:ARG 17-02-03 12:56 OP:AMMR STATUS:               ID:20170203073200     3
 2017-02-03-0732-00S.MAN___100                                                 6
 STAT SP IPHASW D HRMM SECON CODA AMPLIT PERI AZIMU VELO AIN AR TRES W  DIS CAZ7
 SMDR BZ EPg    D  735 10.27   21                        124   -0.3710 31.1  45 
 SMDR BN ESg    C  735 15.40                             124    0.3010 31.1  45 
 SMDR BN  IAML     735 15.59       107.6 0.20                          31.1  45 
 SMDR BE  IAML     735 15.77        85.3 0.20                          31.1  45 
 MIDR BZ EPg    C  735 11.54   58                        118   -0.0510 38.4 108 
 MIDR BN ESg    C  735 16.54                             118   -0.2110 38.4 108 
 MIDR BE  IAML     735 16.91        55.3 0.20                          38.4 108 
 MIDR BN  IAML     735 17.01        29.2 0.20                          38.4 108 
 NADR BZ EPg    C  735 13.46   35                        108   -0.6310 56.3 301 
 NADR BN ESg    D  735 21.56                             108    0.4510 56.3 301 
 NADR BE  IAML     735 22.31       244.4 0.35                          56.3 301 
 NADR BN  IAML     735 22.66         4.5 0.25                          56.3 301 
 PCDR BZ EPg       735 24.73   64                         97    0.4810  125 121 
 BADR BN ESg    C  735 39.62                              97    0.0310  127 233 
 BADR BN  IAML     735 40.02        62.7 0.60                           127 233 
 BADR BE  IAML     735 40.72        43.3 0.80                           127 233 
                                                                                
 2017  2 3 0757 59.1 L  18.481 -70.327 31.1  DOM  9 0.5 2.2LDOM 3.1CDOM        1
 GAP=113        1.34       4.9     2.8  5.8  0.1835E+01 -0.1432E+01 -0.7696E+01E
 ACTION:UP  17-02-03 13:27 OP:AMMR STATUS:               ID:20170203075500     I
 OLDACT:ARG 17-02-03 12:56 OP:AMMR STATUS:               ID:20170203075500     3
 2017-02-03-0755-00S.MAN___100                                                 6
 STAT SP IPHASW D HRMM SECON CODA AMPLIT PERI AZIMU VELO AIN AR TRES W  DIS CAZ7
 BADR BZ EPg       758  5.59   31                        166   -0.1610 9.91 202 
 BADR BN ESg    C  758 10.32                             166   -0.3410 9.91 202 
 BADR BE  IAML     758 10.64       749.9 0.10                          9.91 202 
 BADR BN  IAML     758 10.69      1042.2 0.15                          9.91 202 
 ABDR BZ EPg    C  758  7.97   32                        135   -0.2510 40.7 309 
 ABDR BN ESg    C  758 14.22                             135   -0.7310 40.7 309 
 ABDR BN  IAML     758 14.34       412.2 0.20                          40.7 309 
 ABDR BE  IAML     758 14.82       410.3 0.25                          40.7 309 
 PODR BZ EPg    C  758 17.43   51                        107    1.1310  107 251 
 PODR BN  IAML     758 32.92        35.4 0.25                           107 251 
 SC01 BZ EPg       758 17.18   41                        105   -0.3010  113 338 
 SC01 BN ESg       758 31.01                             105   -0.0410  113 338 
 SC01 BN  IAML     758 32.46        42.1 1.50                           113 338 
 SDDR BZ EPg       758 17.69   50                        105    0.3110  116 299 
 SDDR BN ESg       758 30.66                             105   -0.2310  116 299 
 SDDR BE  IAML     758 36.44        30.9 0.40                           116 299 
 SDDR BN  IAML     758 37.83        36.7 0.35                           116 299 
 NEDR BZ EPg       758 17.99   69                        104   -0.1910  122 270 
 NEDR BN ESg       758 31.71                             104   -0.5710  122 270 
 NEDR BE  IAML     758 35.54        15.1 0.65                           122 270 
 NEDR BN  IAML     758 36.94        33.2 2.20                           122 270 
 MIDR BN EPg    D  758 21.76   56                        101    0.3010  146  67 
 MIDR BE ESg       758 38.33                             101    0.3410  146  67 
 MIDR BE  IAML     758 39.82        13.0 0.20                           146  67 
 REDR BZ EPg       758 25.42   52                         99    0.5910  169 302 
 REDR BN ESg    C  758 44.53                              99    0.6810  169 302 
 REDR BN  IAML     758 44.81        55.2 0.20                           169 302 
 REDR BE  IAML     758 45.47        72.0 0.15                           169 302 
 PCDR BZ EPg       758 29.24   73                         97   -0.5510  205  89 
                                                                                
 2017  2 3 1247 56.7 L  19.355 -68.855 23.0  DOM  3 0.6 1.6LDOM 3.2CDOM        1
 GAP=298        1.62      14.1    15.4 19.2  0.1634E+03 -0.1225E+03 -0.1854E+03E
 ACTION:UP  17-02-03 13:48 OP:AMMR STATUS:               ID:20170203124500     I
 OLDACT:UP  17-02-03 13:38 OP:AMMR STATUS:               ID:20170203124500     3
 OLDACT:ARG 17-02-03 12:56 OP:AMMR STATUS:               ID:20170203124500     3
 2017-02-03-1245-00S.MAN___100                                                 6
 STAT SP IPHASW D HRMM SECON CODA AMPLIT PERI AZIMU VELO AIN AR TRES W  DIS CAZ7
 SMDR BN ESg      1248  9.02                             120    0.7610 35.7 258 
 SMDR BN  IAML    1248  9.27        22.7 1.00                          35.7 258 
 SMDR BE  IAML    1248 10.76        25.2 1.65                          35.7 258 
 MIDR BZ EP     D 1248  5.73   33                        113    1.0010 46.0 206 
 MIDR BN ESg    D 1248 10.15                             113   -0.5210 46.0 206 
 MIDR BN ES     D 1248 10.16                             113   -0.5110 46.0 206 
 MIDR BN  IAML    1248 10.23        44.5 0.15                          46.0 206 
 MIDR BE  IAML    1248 10.87        38.4 0.10                          46.0 206 
 REDR BZ EPg      1248 42.28   78                         92   -0.4810  299 269 
 REDR BN ESg      1249 16.61                              92   -0.2510  299 269 
 REDR BE  IAML    1249 16.79        12.7 2.90                           299 269 
 REDR BN  IAML    1249 17.70         4.7 1.20                           299 269 
                                                                                
 2017  2 7 0415 24.6 L  19.273 -70.515  1.1  DOM  5 0.7 2.2LDOM 3.1CDOM        1
 GAP=224        1.92       5.0    11.7188.0 -0.1613E+02  0.1326E+04 -0.5262E+03E
 ACTION:UP  17-02-07 18:36 OP:AMMR STATUS:               ID:20170207041500     I
 OLDACT:UP  17-02-07 18:35 OP:AMMR STATUS:               ID:20170207041500     3
 OLDACT:UP  17-02-07 12:07 OP:AMMR STATUS:               ID:20170207041500     3
 OLDACT:ARG 17-02-07 11:55 OP:nr   STATUS:               ID:20170207041500     3
 2017-02-07-0415-00S.MAN___100                                                 6
 STAT SP IPHASW D HRMM SECON CODA AMPLIT PERI AZIMU VELO AIN AR TRES W  DIS CAZ7
 SDDR BE  IAML     415 50.81        12.1 0.50                          87.7 248 
 SDDR BN ESg       415 48.31                              91           87.7 248 
 SDDR BN  IAML     415 48.98        21.2 0.30                          87.7 248 
 SDDR BZ EPg    D  415 38.13   58                         91   -0.6210 87.7 248 
 SC01 BN  IAML     415 36.83      1666.8 0.60                          28.1 307 
 SC01 BE  IAML     415 37.10      1168.1 0.55                          28.1 307 
 SC01 BE ES        415 32.45                                                    
 ABDR BZ EPg    C  415 34.82   55                         94    0.0110 63.1 191 
 ABDR BN  IAML     415 43.68        84.8 0.25                          63.1 191 
 ABDR BE  IAML     415 43.24       113.0 0.15                          63.1 191 
 ABDR BE ESg    C  415 42.83                                                    
 JIDR BZ EPg    C  415 51.64   51                         90    0.3810  165 239 
 JIDR BN  IAML     416 27.51        30.0 3.95                           165 239 
 JIDR BE  IAML     416 13.89        25.3 0.75                           165 239 
 LUDR BZ EPg    D  415 37.41   53                         91   -0.5210 82.6 326 
 LUDR BN  IAML     415 50.03       532.3 0.35                          82.6 326 
 LUDR BE ESg       415 49.14                              91           82.6 326 
 LUDR BE  IAML     415 49.95       454.7 0.35                          82.6 326 
 MIDR BZ EPg       415 51.78   57                                               
 MIDR BN ESg       416 14.50                                                    
 NADR BZ EPg    C  415 37.97   57                                               
 NADR BN  IAML     415 59.37         1.5 0.80                                   
 SC01 BZ IP     C  415 28.62   51                                               
                                                                                
 2017  2 7 0452 43.7 L  18.830 -70.389113.0  DOM  7 0.7 2.4LDOM 2.9CDOM        1
 GAP= 93        1.96      10.1     7.2 15.3 -0.2690E+02 -0.3211E+02  0.4526E+02E
 ACTION:UP  17-02-07 11:13 OP:AMMR STATUS:               ID:20170207045000     I
 OLDACT:ARG 17-02-07 11:00 OP:nr   STATUS:               ID:20170207045000     3
 2017-02-07-0450-00S.MAN___100                                                 6
 STAT SP IPHASW D HRMM SECON CODA AMPLIT PERI AZIMU VELO AIN AR TRES W  DIS CAZ7
 SC01 BZ EPg    C  453  0.65   43                        143   -1.0410 75.0 332 
 SC01 BE ESg    C  453 15.56                             143    0.5310 75.0 332 
 SC01 BN  IAML     453 17.13        81.8 0.25                          75.0 332 
 SC01 BE  IAML     453 17.27       107.2 0.20                          75.0 332 
 NADR BZ EPg    D  453  1.32   41                        141   -0.2510 80.7  44 
 NADR BE ESg    C  453 15.74                             141    0.9210 80.7  44 
 NADR BN  IAML     453 17.40         6.2 0.15                          80.7  44 
 NADR BE  IAML     453 17.56       463.8 0.30                          80.7  44 
 SDDR BZ EPg    C  453  3.27   40                        136    0.4110 96.3 280 
 SDDR BE ESg    D  453 17.22                             136    0.1510 96.3 280 
 SDDR BN  IAML     453 24.68        33.0 0.30                          96.3 280 
 SDDR BE  IAML     453 24.73        36.3 2.25                          96.3 280 
 PODR BZ EPg    D  453  5.70   47                        129    0.6610  120 232 
 PODR BE ESg    C  453 21.50                             129    0.6410  120 232 
 PODR BN  IAML     453 25.96        50.0 0.35                           120 232 
 MIDR BE ESg    D  453 24.25                             123    0.0610  142  83 
 MIDR BE  IAML     453 25.66        37.4 0.40                           142  83 
 MIDR BN  IAML     453 25.95        28.0 0.25                           142  83 
 ABDR BZ EPg    D  452 57.31   38                        165   -1.8610 28.2 242 
 ABDR BN  IAML     453 10.75       209.9 0.25                          28.2 242 
 ABDR BE ESg    C  453  9.88                             165   -0.7610 28.2 242 
 ABDR BE  IAML     453 10.92       106.4 0.40                          28.2 242 
 BADR BZ EPg    C  452 59.83   40                        155    0.1610 47.9 176 
 BADR BN  IAML     453 13.12       243.6 0.30                          47.9 176 
 BADR BE EPg    C  452 59.97   34                        155    0.3010 47.9 176 
 MIDR BZ EPg    D  453  7.05   46                        123    0.1010  142  83 
                                                                                
 2017  2 7 1619 20.8 L  18.045 -67.949107.6  DOM  6 0.7 2.8LDOM 3.3CDOM        1
 GAP=187        1.95      22.4     8.3 21.2  0.1302E+03  0.1075E+03  0.2496E+03E
 ACTION:UP  17-02-07 18:19 OP:AMMR STATUS:               ID:20170207161700     I
 OLDACT:ARG 17-02-07 18:11 OP:AMMR STATUS:               ID:20170207161700     3
 2017-02-07-1617-00S.MAN___100                                                 6
 STAT SP IPHASW D HRMM SECON CODA AMPLIT PERI AZIMU VELO AIN AR TRES W  DIS CAZ7
 AGPR BZ EPg    C 1619 39.44   52                        133   -0.4010  100  62 
 AGPR BN ESg    D 1619 54.61                             133    0.6810  100  62 
 AGPR BN  IAML    1619 57.01       237.4 0.35                           100  62 
 AGPR BE  IAML    1619 55.41       196.3 0.15                           100  62 
 AOPR BZ EPg    D 1619 41.83   61                        124   -0.8410  131  75 
 AOPR BN  IAML    1620  2.06       497.9 0.35                           131  75 
 AOPR BE ESg    D 1619 59.50                             124    0.6510  131  75 
 AOPR BE  IAML    1620  1.48       956.7 0.30                           131  75 
 BADR BZ EPg      1619 58.00                             105    1.5410  258 279 
 CRPR BZ EPg      1619 38.78   69                        136   -0.2710 91.2  93 
 CRPR BN  IAML    1619 52.58        92.7 2.30                          91.2  93 
 CRPR BE ESg      1619 52.65                             136    0.1010 91.2  93 
 CRPR BE  IAML    1619 55.86        79.5 0.45                          91.2  93 
 HIDR BZ EPg      1619 38.95   64                        132   -0.9510  101 307 
 HIDR BN  IAML    1619 56.48       146.3 0.20                           101 307 
 HIDR BE ESg    D 1619 53.54                             132   -0.4810  101 307 
 HIDR BE  IAML    1619 56.49       238.5 0.20                           101 307 
 MIDR BZ EPg      1619 44.59   65                        119   -0.5610  156 312 
 MIDR BN ESg      1620  3.70                             119    0.5410  156 312 
 MIDR BN  IAML    1620  4.69        37.2 2.00                           156 312 
 MIDR BE  IAML    1620  9.09        36.0 1.30                           156 312 
                                                                                
 2017  2 8 0041 19.7 L  18.922 -73.239 11.6  DOM  6 0.5 2.7LDOM 3.4CDOM        1
 GAP=303        1.46       6.1    10.8118.1 -0.7486E+01  0.8591E+03 -0.2703E+03E
 ACTION:UP  17-02-08 11:04 OP:AMMR STATUS:               ID:20170208004100     I
 OLDACT:UP  17-02-08 10:41 OP:AMMR STATUS:               ID:20170208004100     3
 OLDACT:ARG 17-02-08 01:08 OP:plst STATUS:               ID:20170208004100     3
 2017-02-08-0041-00S.MAN___100                                                 6
 STAT SP IPHASW D HRMM SECON CODA AMPLIT PERI AZIMU VELO AIN AR TRES W  DIS CAZ7
 PAPH BZ EPg    D  041 36.94   64                         96   -0.3710  109 114 
 PAPH BN ESg    C  041 50.93                              96    0.5810  109 114 
 PAPH BN  IAML     041 52.61       608.3 0.20                           109 114 
 PAPH BE  IAML     041 53.19       459.8 0.16                           109 114 
 JIDR BZ EPg    C  041 44.10   62                         94   -0.4510  154 108 
 JIDR BN ESg    C  042  2.71                              94   -0.2410  154 108 
 JIDR BE  IAML     042  5.31       103.5 0.35                           154 108 
 JIDR BN  IAML     042  5.43        66.6 0.35                           154 108 
 NEDR BZ EPg    D  041 50.32   61                         93   -0.3710  192 104 
 NEDR BE ESg    C  042 13.87                              93    0.2410  192 104 
 NEDR BN  IAML     042 17.87        66.9 0.65                           192 104 
 NEDR BE  IAML     042 18.19        62.1 0.25                           192 104 
 MCDR BZ EPg    C  041 52.99   45                         93    1.3210  198  57 
 MCDR BE ESg    C  042 14.79                              93   -0.5410  198  57 
 MCDR BE  IAML     042 19.58       102.2 0.45                           198  57 
 MCDR BN  IAML     042 20.55       107.7 1.00                           198  57 
 SDDR BZ EPg    C  041 52.98   72                         93    0.1010  205  88 
 SDDR BE ESg    C  042 16.88                              93   -0.5610  205  88 
 SDDR BN  IAML     042 17.36        70.6 0.85                           205  88 
 SDDR BE  IAML     042 17.88        58.6 0.65                           205  88 
 PODR BZ EPg    C  041 55.55   71                         93   -0.2010  223 112 
 PODR BE ESg    C  042 22.91                              93    0.4910  223 112 
 PODR BE  IAML     042 38.31        45.4 0.60                           223 112 
 PODR BN  IAML     042 49.48        44.1 0.65                           223 112 
                                                                                
 2017  2 8 0836 27.5 L  18.221 -67.482 19.7  DOM  5 0.9 2.3LDOM 3.2CDOM        1
 GAP=168        2.41      12.8     9.1 25.5  0.6153E+01  0.1725E+03 -0.6272E+02E
 ACTION:UP  17-02-08 11:02 OP:AMMR STATUS:               ID:20170208083600     I
 OLDACT:UP  17-02-08 11:01 OP:AMMR STATUS:               ID:20170208083600     3
 OLDACT:ARG 17-02-08 10:32 OP:nr   STATUS:               ID:20170208083600     3
 2017-02-08-0836-00S.MAN___100                                                 6
 STAT SP IPHASW D HRMM SECON CODA AMPLIT PERI AZIMU VELO AIN AR TRES W  DIS CAZ7
 CRPR BZ EPg    D  836 35.58   43                        108   -0.0110 47.9 120 
 CRPR BE ESg    D  836 42.46                             108    0.8510 47.9 120 
 CRPR BN  IAML     836 43.07       455.4 0.15                          47.9 120 
 CRPR BE  IAML     836 43.24       454.2 0.20                          47.9 120 
 AGPR BZ EPg    C  836 35.76   60                        108    0.1510 48.0  55 
 AGPR BE ESg    C  836 42.65                             108    1.0010 48.0  55 
 AGPR BN  IAML     836 44.87       256.0 0.45                          48.0  55 
 AGPR BE  IAML     836 48.02       153.0 0.90                          48.0  55 
 AOPR BZ EPg    C  836 38.71   69                         99   -1.3810 78.2  80 
 AOPR BE ESg    D  836 48.19                              99   -1.2510 78.2  80 
 AOPR BE  IAML     836 48.30       584.2 0.25                          78.2  80 
 AOPR BN  IAML     836 48.79       371.1 0.25                          78.2  80 
 HIDR BZ EPg    C  836 49.35   54                         94    0.4810  137 288 
 HIDR BN  IAML     836 57.64        35.4 0.10                           137 288 
 HIDR BE ESg    C  837  3.37                              94   -1.3410  137 288 
 HIDR BE  IAML     837  4.91        33.8 2.05                           137 288 
 MIDR BZ EPg    C  836 56.90   61                         93    0.6110  186 297 
 MIDR BE ESg    D  837 18.51                              93    0.8810  186 297 
 MIDR BE  IAML     837 24.33         5.2 0.30                           186 297 
 MIDR BN  IAML     837 36.10        24.4 3.40                           186 297 
                                                                                
