 2017  111 1411 55.8 L  20.106 -70.804 12.1  DOM 16 1.0 3.0LDOM 3.6CDOM 3.1WDOM1
 SPEC AVERAGE  MO 13.7 ST 14.1 OM  2.6 f0 4.09 R1.1690 AL 0.00 WI 20.0 MW  3.1 3
 SPEC SD       MO  3.7 ST 31.3 OM  1.0 f0 4.11 R2.1536 AL      WI      MW  0.9 3
 GAP=130        2.66       6.2     4.7 43.2 -0.1092E+01 -0.4562E+02 -0.3107E+02E
 SPEC SDD BH Z MO 13.5 ST0.169 OM  2.3 f0 1.27 R0.9323 AL-0.00 WI 20.0 MW  2.9 3
 SPEC SDD BH Z T141249 K 0.020 GD  175 VS 3.20 DE 2.60 Q0400.0 QA 0.70 Q1 1.00 3
 SPEC SDDRBH Z MO 13.8 ST  1.1 OM  2.7 f0 1.94 R0.6103 AL-0.00 WI 20.0 MW  3.1 3
 SPEC SDDRBH Z T141230 K 0.020 GD  126 VS 3.20 DE 2.60 Q0400.0 QA 0.70 Q1 1.00 3
 SPEC SMDRBH Z MO 13.2 ST0.311 OM  2.0 f0 1.99 R0.5950 AL-0.00 WI 20.0 MW  2.7 3
 SPEC SMDRBH Z T141248 K 0.020 GD  166 VS 3.20 DE 2.60 Q0400.0 QA 0.70 Q1 1.00 3
 SPEC SC01BH Z MO 13.9 ST  1.2 OM  3.1 f0 1.76 R0.6727 AL-0.00 WI 20.0 MW  3.2 3
 SPEC SC01BH Z T141217 K 0.020 GD 76.6 VS 3.20 DE 2.60 Q0400.0 QA 0.70 Q1 1.00 3
 SPEC REDRBH Z MO 13.3 ST  7.0 OM  2.3 f0 4.93 R0.2402 AL-0.00 WI 20.0 MW  2.8 3
 SPEC REDRBH Z T141230 K 0.020 GD  123 VS 3.20 DE 2.60 Q0400.0 QA 0.70 Q1 1.00 3
 SPEC ABDRBH Z MO 13.2 ST 11.5 OM  2.1 f0 6.49 R0.1824 AL-0.00 WI 20.0 MW  2.7 3
 SPEC ABDRBH Z T141234 K 0.020 GD  140 VS 3.20 DE 2.60 Q0400.0 QA 0.70 Q1 1.00 3
 SPEC GRTKBH Z MO 13.1 ST124.1 OM  2.0 f0 15.4 R0.0769 AL-0.00 WI 20.0 MW  2.7 3
 SPEC GRTKBH Z T141241 K 0.020 GD  143 VS 3.20 DE 2.60 Q0400.0 QA 0.70 Q1 1.00 3
 SPEC HIDRBH Z MO 13.2 ST 12.7 OM  1.9 f0 6.71 R0.1765 AL-0.00 WI 20.0 MW  2.7 3
 SPEC HIDRBH Z T1413 9 K 0.020 GD  223 VS 3.20 DE 2.60 Q0400.0 QA 0.70 Q1 1.00 3
 SPEC LUDRBH Z MO 14.0 ST 20.9 OM  3.6 f0 4.16 R0.2846 AL-0.00 WI 20.0 MW  3.3 3
 SPEC LUDRBH Z T1412 2 K 0.020 GD 30.8 VS 3.20 DE 2.60 Q0400.0 QA 0.70 Q1 1.00 3
 SPEC MADRBH Z MO 14.1 ST0.966 OM  3.3 f0 1.44 R0.8222 AL-0.00 WI 20.0 MW  3.3 3
 SPEC MADRBH Z T141214 K 0.020 GD 68.6 VS 3.20 DE 2.60 Q0400.0 QA 0.70 Q1 1.00 3
 SPEC MCDRBH Z MO 13.0 ST 17.3 OM  2.1 f0 8.55 R0.1385 AL-0.00 WI 20.0 MW  2.6 3
 SPEC MCDRBH Z T141221 K 0.020 GD 93.2 VS 3.20 DE 2.60 Q0400.0 QA 0.70 Q1 1.00 3
 SPEC MIDRBH Z MO 15.3 ST0.015 OM  4.1 f00.138 R8.5797 AL-0.00 WI 20.0 MW  4.2 3
 SPEC MIDRBH Z T141256 K 0.020 GD  187 VS 3.20 DE 2.60 Q0400.0 QA 0.70 Q1 1.00 3
 SPEC NEDRBH Z MO 14.4 ST0.068 OM  3.2 f00.477 R2.4822 AL-0.00 WI 20.0 MW  3.5 3
 SPEC NEDRBH Z T141245 K 0.020 GD  167 VS 3.20 DE 2.60 Q0400.0 QA 0.70 Q1 1.00 3
 SPEC PAPHBH Z MO 14.6 ST0.064 OM  3.3 f00.389 R3.0437 AL-0.00 WI 20.0 MW  3.7 3
 SPEC PAPHBH Z T141256 K 0.020 GD  231 VS 3.20 DE 2.60 Q0400.0 QA 0.70 Q1 1.00 3
 SPEC PODRBH Z MO 13.4 ST0.621 OM  2.2 f0 2.07 R0.5720 AL-0.00 WI 20.0 MW  2.9 3
 SPEC PODRBH Z T141253 K 0.020 GD  186 VS 3.20 DE 2.60 Q0400.0 QA 0.70 Q1 1.00 3
 2017-01-11-1411-00S.MAN___098                                                 6
 ACTION:UP  17-01-12 00:16 OP:JMLC STATUS:               ID:20170111141100     I
 OLDACT:UP  17-01-11 17:14 OP:JMLC STATUS:               ID:20170111141100     3
 OLDACT:ARG 17-01-11 16:22 OP:jmlc STATUS:               ID:20170111141100     3
 STAT SP IPHASW D HRMM SECON CODA AMPLIT PERI AZIMU VELO AIN AR TRES W  DIS CAZ7
 LUDR BN ESg      1412  4.15                             102   -0.2910 28.3 214 
 LUDR BN  IAML    1412  4.68     17985.6 0.30                          28.3 214 
 LUDR BE  IAML    1412  4.86     18192.5 0.30                          28.3 214 
 MADR BE  IAML    1412 17.25      1394.4 0.50                          67.5 208 
 MADR BN  IAML    1412 17.26      1743.9 0.40                          67.5 208 
 SC01 BZ EPg      1412  8.71   80                         90    0.2810 75.6 174 
 SC01 BN ESg      1412 18.95                              90    1.1710 75.6 174 
 SC01 BE  IAML    1412 22.33       467.0 0.95                          75.6 174 
 SC01 BN  IAML    1412 26.20       436.4 0.45                          75.6 174 
 MCDR BN ESg      1412 22.78                              90    1.4610 92.4 255 
 MCDR BE  IAML    1412 28.51       209.4 0.70                          92.4 255 
 MCDR BN  IAML    1412 28.66       324.0 1.00                          92.4 255 
 NADR BN  IAML    1412 37.07         8.1 0.30                           130 130 
 NADR BE  IAML    1412 39.46       532.3 0.15                           130 130 
 REDR BZ EPg      1412 15.75   96                         90   -0.6810  131 226 
 REDR BN ESg      1412 32.18                              90    0.4810  131 226 
 REDR BE  IAML    1412 32.83       497.6 0.20                           131 226 
 REDR BN  IAML    1412 34.63       298.3 0.20                           131 226 
 SDDR BZ EPg      1412 16.27   88                         90   -0.6410  135 202 
 SDDR BN ESg      1412 32.46                              90   -0.0710  135 202 
 SDDR BE  IAML    1412 32.81       312.4 0.50                           135 202 
 SDDR BN  IAML    1412 33.11       362.2 0.50                           135 202 
 ABDR BE  IAML    1412 40.35       262.7 0.55                           155 173 
 ABDR BN  IAML    1412 43.40       234.9 0.35                           155 173 
 GRTK BE  IAML    1412 44.13       380.0 0.25                           159 348 
 GRTK BN  IAML    1412 45.01       429.7 0.30                           159 348 
 SMDR BZ EPg      1412 25.32   90                         90   -0.2410  192 118 
 SMDR BN ESg      1412 49.55                              90    1.9810  192 118 
 SMDR BN  IAML    1412 52.10        94.4 0.55                           192 118 
 SMDR BE  IAML    1412 59.00        83.0 1.50                           192 118 
 NEDR BN ESg      1412 47.08                              90   -0.8110  193 202 
 NEDR BN  IAML    1412 54.73       101.0 1.25                           193 202 
 SDD  BN ESg      1412 49.99                              90   -0.8510  204 153 
 SDD  BN  IAML    1412 53.25        75.3 0.70                           204 153 
 SDD  BE  IAML    1412 55.77       130.2 0.50                           204 153 
 JIDR BN ESg      1412 53.27                              90    0.9810  210 212 
 JIDR BN  IAML    1412 54.63       261.3 0.30                           210 212 
 JIDR BE  IAML    1412 54.80       292.4 0.50                           210 212 
 PODR BN ESg      1412 55.39                              90    0.0410  221 193 
 PODR BN  IAML    1412 59.42       182.9 0.60                           221 193 
 PODR BE  IAML    1413  0.41       149.1 0.35                           221 193 
 MIDR BN ESg      1412 57.65                              90    2.1410  222 124 
 MIDR BN  IAML    1413  2.76        40.5 0.50                           222 124 
 MIDR BE  IAML    1413  6.41        46.2 1.30                           222 124 
 HIDR BE  IAML    1413 13.03       126.4 0.25                           276 127 
 HIDR BN  IAML    1413 14.08       202.2 0.25                           276 127 
 PODR BZ EPg      1412 29.70   94                         90   -0.3310  221 193 
 NEDR BZ EPg      1412 25.73  104                         90   -0.0110  193 202 
 MIDR BZ EPg      1412 28.90   83                         90   -1.2210  222 124 
 MCDR BZ EPg      1412 11.44   70                         90    0.9710 92.4 255 
 MADR BZ EPg      1412  6.42   82                         90   -0.2810 67.5 208 
 LUDR BZ EPg      1411 59.67   69                        102   -1.1010 28.3 214 
 ABDR BZ EPg      1412 18.68   79                         90   -1.5010  155 173 
 GRTK BZ EPg      1412 20.53   75                         90   -0.0710  159 348 
 HIDR BZ EPg      1412 36.88   71                         90   -1.4310  276 127 
 JIDR BZ EPg      1412 28.28   84                         90    0.0210  210 212 
 JIDR BZ  IAML    1412 55.14       168.0 0.25                                   
                                                                                
 2017  112 0720 43.6 L  19.439 -69.576106.7  DOM 10 0.6 2.7LDOM 3.3CDOM        1
 GAP=202        1.74      13.1     5.3 12.0  0.2904E+02  0.3395E+02  0.3378E+02E
 ACTION:UP  17-01-12 18:32 OP:AMMR STATUS:               ID:20170112072000     I
 OLDACT:ARG 17-01-12 18:14 OP:AMMR STATUS:               ID:20170112072000     3
 2017-01-12-0720-00S.MAN___100                                                 6
 STAT SP IPHASW D HRMM SECON CODA AMPLIT PERI AZIMU VELO AIN AR TRES W  DIS CAZ7
 MIDR BN ESg       721 11.72                             142   -1.2610 74.8 132 
 MIDR BN  IAML     721 12.29       180.0 0.15                          74.8 132 
 MIDR BE  IAML     721 11.76       174.4 0.20                          74.8 132 
 PCDR HZ EPg       721  8.90   59                        117    0.3610  162 129 
 PCDR BN E         724 12.92                                            162 129 
 PCDR HN  IAML     721 36.66        87.7 1.64                           162 129 
 PCDR BE  IAML     721 26.42        56.4 1.15                           162 129 
 PCDR BE ESg       721 27.47                             117    0.4610  162 129 
 PCDR HE  IAML     721 31.65       121.8 1.46                           162 129 
 PODR BZ EPg    C  721 15.20   49                        108   -0.7610  229 232 
 PODR BN  IAML     721 44.31        25.1 1.50                           229 232 
 PODR BE  IAML     721 38.91        50.1 1.00                           229 232 
 PODR BE ESg       721 39.40                             108   -0.5210  229 232 
 REDR BZ EPg       721 14.95   67                        108   -0.3910  224 266 
 REDR BN ESg       721 38.29                             108   -0.5510  224 266 
 REDR BN  IAML     721 39.98       116.9 0.15                           224 266 
 REDR BE  IAML     721 39.99       192.9 0.10                           224 266 
 SC01 BZ EPg       721  5.18   52                        126    0.2410  121 270 
 SC01 BN ESg       721 21.03                             126    0.3010  121 270 
 SC01 BN  IAML     721 22.46       142.3 1.10                           121 270 
 SC01 BE  IAML     721 22.54       167.1 0.25                           121 270 
 SDD  BZ EPg       721  5.07   46                        128    1.3310  114 198 
 SDD  BN  IAML     721 13.54        30.8 0.35                           114 198 
 SDDR BZ EPg       721 11.73   61                        113    0.4510  187 255 
 SDDR BN ESg       721 32.09                             113    0.3210  187 255 
 SDDR BN  IAML     721 34.36        55.8 0.30                           187 255 
 SDDR BE  IAML     721 33.96        37.3 0.25                           187 255 
 SMDR BN ESg       721 10.16                             156    0.5110 43.9 112 
 SMDR BN  IAML     721 10.39       167.7 0.45                          43.9 112 
 SMDR BE  IAML     721 10.27       188.7 0.45                          43.9 112 
 PCDR BZ EPg       721  8.97   58                                               
 ABDR BE  IAML     721 21.42       176.6 0.30                           137 234 
 JIDR BN  IAML     721 45.55        33.3 2.20                           262 247 
 JIDR BN ESg       721 46.68                             105    0.5910  262 247 
 JIDR BE  IAML     721 24.63        43.9 2.40                           262 247 
 MIDR BZ EPg       720 59.84   58                        142   -0.6410 74.8 132 
 JIDR BZ EPg       721 19.07   87                        105   -0.4410  262 247 
                                                                                
 2017  112 2257 13.9 L  19.731 -70.083 21.7  DOM  8 1.0 2.6LDOM 3.5CDOM        1
 GAP=234        2.54      21.6     4.7 89.3  0.6318E+01  0.9981E+02 -0.5267E+01E
 ACTION:UP  17-01-12 23:37 OP:AMMR STATUS:               ID:20170112225600     I
 OLDACT:UP  17-01-12 23:35 OP:AMMR STATUS:               ID:20170112225600     3
 OLDACT:UP  17-01-12 23:34 OP:AMMR STATUS:               ID:20170112225600     3
 OLDACT:UP  17-01-12 23:23 OP:AMMR STATUS:               ID:20170112225600     3
 OLDACT:ARG 17-01-12 23:16 OP:plst STATUS:               ID:20170112225600     3
 2017-01-12-2256-00S.MAN___100                                                 6
 STAT SP IPHASW D HRMM SECON CODA AMPLIT PERI AZIMU VELO AIN AR TRES W  DIS CAZ7
 SDDR BN ESg      2257 55.52                              95    0.3710  152 237 
 SDDR BN  IAML    2257 56.05        50.5 0.35                           152 237 
 MIDR BN ESg      2257 51.29                              95    0.1610  137 127 
 MIDR BN  IAML    2257 54.41        45.1 0.10                           137 127 
 ABDR BZ EPg      2257 31.40   65                         96   -2.5210  126 207 
 ABDR BN  IAML    2257 46.04       172.1 0.20                           126 207 
 JIDR BZ EPg      2257 49.84   71                         93    0.2510  231 234 
 JIDR BN ESg      2258 16.86                              93    0.8310  231 234 
 JIDR BN  IAML    2258 19.44       101.7 0.45                           231 234 
 MIDR BZ EPg      2257 34.63   85                         95   -0.6510  137 127 
 PCDR BZ EPg      2257 48.67   85                         93    0.1610  224 127 
 PCDR HZ ESg      2258 13.90                              93   -0.2610  224 127 
 PCDR HZ  IAML    2258 17.77       144.8 1.24                           224 127 
 PODR BZ EPg    D 2257 47.48   88                         93            215 216 
 PODR BN  IAML    2258 17.06        45.2 1.50                           215 216 
 SC01 BZ EPg    D 2257 27.09   61                        102           75.5 244 
 SC01 BN  IAML    2257 44.39       106.9 0.60                          75.5 244 
 SDDR BZ EPg    D 2257 37.46   83                         95            152 237 
 SMDR BZ EPg      2257 30.18   63                         97   -0.4810  106 117 
 SMDR BN ESg      2257 44.55                              97    1.4510  106 117 
 SMDR BN  IAML    2257 45.21        84.2 0.60                           106 117 
                                                                                
 2017  115 0422 18.3 L  19.455 -68.827  8.9  DOM  4 0.3 2.3LDOM 2.9CDOM        1
 GAP=246        0.78       7.0     5.0 31.0  0.3098E+02 -0.1247E+03 -0.1769E+03E
 ACTION:UP  17-01-15 11:41 OP:FMGP STATUS:               ID:20170115042000     I
 OLDACT:UP  17-01-15 11:19 OP:FMGP STATUS:               ID:20170115042000     3
 OLDACT:ARG 17-01-15 11:01 OP:nr   STATUS:               ID:20170115042000     3
 2017-01-15-0420-00S.MAN___100                                                 6
 STAT SP IPHASW D HRMM SECON CODA AMPLIT PERI AZIMU VELO AIN AR TRES W  DIS CAZ7
 SMDR BZ EPg    C  422 24.73   35                        102   -0.4710 42.1 244 
 SMDR BE ESg    C  422 30.63                             102    0.3010 42.1 244 
 SMDR BE  IAML     422 31.12       110.7 0.20                          42.1 244 
 SMDR BN  IAML     422 37.22        92.0 0.55                          42.1 244 
 MIDR BZ EPg    D  422 27.50   46                         99   -0.0910 57.2 204 
 MIDR BE ESg    C  422 34.46                              99   -0.0410 57.2 204 
 MIDR BN  IAML     422 34.67       197.4 0.55                          57.2 204 
 MIDR BE  IAML     422 34.96       118.1 0.30                          57.2 204 
 PCDR HZ EPg    C  422 37.26   45                         94    0.5210  114 156 
 PCDR HE ESg    C  422 50.18                              94   -0.2310  114 156 
 PCDR HN  IAML     422 51.94       279.5 2.14                           114 156 
 PCDR HE  IAML     422 54.32       149.2 1.82                           114 156 
 SC01 BZ EPg    D  422 50.89   49                         93   -0.1010  200 269 
 SC01 BE ESg    C  423 15.30                              93    0.1010  200 269 
 SC01 BN  IAML     423 15.58        47.1 1.40                           200 269 
 SC01 BE  IAML     423 18.35        60.8 2.35                           200 269 
                                                                                
 2017  116 0907 10.8 L  18.313 -68.026 78.9  DOM  6 0.9 2.8LDOM 3.8CDOM 3.3WDOM1
 SPEC AVERAGE  MO 14.0 ST 14.3 OM  2.3 f0 4.29 R0.5322 AL 0.00 WI 20.0 MW  3.3 3
 SPEC SD       MO  0.4 ST 19.9 OM  0.4 f0 2.47 R0.2819 AL      WI      MW  0.2 3
 GAP=212        2.43      34.4    12.3 17.7  0.3511E+03  0.5801E+01 -0.2920E+02E
 SPEC PCDRBH Z MO 14.3 ST  3.4 OM  2.8 f0 2.67 R0.6236 AL-0.00 WI 20.0 MW  3.5 3
 SPEC PCDRBH Z T 9 730 K 0.020 GD 90.2 VS 4.50 DE 3.40 Q0400.0 QA 0.70 Q1 1.00 3
 SPEC AGPRBH Z MO 13.9 ST 56.9 OM  2.3 f0 9.01 R0.1848 AL-0.00 WI 20.0 MW  3.2 3
 SPEC AGPRBH Z T 9 739 K 0.020 GD  126 VS 4.50 DE 3.40 Q0400.0 QA 0.70 Q1 1.00 3
 SPEC MIDRBH Z MO 13.4 ST  3.2 OM  1.7 f0 5.12 R0.3252 AL-0.00 WI 20.0 MW  2.9 3
 SPEC MIDRBH Z T 9 745 K 0.020 GD  152 VS 4.50 DE 3.40 Q0400.0 QA 0.70 Q1 1.00 3
 SPEC AOPRBH Z MO 14.2 ST 18.1 OM  2.5 f0 4.92 R0.3384 AL-0.00 WI 20.0 MW  3.4 3
 SPEC AOPRBH Z T 9 747 K 0.020 GD  155 VS 4.50 DE 3.40 Q0400.0 QA 0.70 Q1 1.00 3
 SPEC SMDRBH Z MO 13.8 ST0.243 OM  2.0 f0 1.63 R1.0215 AL-0.00 WI 20.0 MW  3.1 3
 SPEC SMDRBH Z T 9 750 K 0.020 GD  181 VS 4.50 DE 3.40 Q0400.0 QA 0.70 Q1 1.00 3
 SPEC NADRBH Z MO 14.5 ST  4.0 OM  2.6 f0 2.38 R0.6996 AL-0.00 WI 20.0 MW  3.6 3
 SPEC NADRBH Z T 9 8 4 K 0.020 GD  238 VS 4.50 DE 3.40 Q0400.0 QA 0.70 Q1 1.00 3
 2017-01-16-0906-00S.MAN___100                                                 6
 OLDACT:ARG 17-01-16 11:16 OP:plst STATUS:               ID:20170116090600     3
 ACTION:UP  17-01-16 13:03 OP:FMGP STATUS:               ID:20170116090600     I
 OLDACT:UP  17-01-16 11:31 OP:FMGP STATUS:               ID:20170116090600     3
 STAT SP IPHASW D HRMM SECON CODA AMPLIT PERI AZIMU VELO AIN AR TRES W  DIS CAZ7
 PCDR BZ EPg       9 7 22.75   99                        148   -0.1410 43.7 301 
 PCDR HZ ESg       9 7 31.73                             148   -0.1110 43.7 301 
 PCDR HZ  IAML     9 7 34.44       280.3 0.56                          43.7 301 
 PCDR BZ  IAML     9 7 34.48       338.8 0.60                          43.7 301 
 AGPR BZ EPg       9 7 26.10   96                        123   -1.4910 98.3  80 
 AGPR BN ESg       9 7 40.86                             123    0.8510 98.3  80 
 AGPR BZ  IAML     9 7 43.46       317.6 0.15                          98.3  80 
 AGPR BN  IAML     9 7 43.66       587.0 0.20                          98.3  80 
 MIDR BZ EPg       9 7 30.29  103                        115   -0.7610  131 305 
 MIDR BN ESg       9 7 46.61                             115    0.5710  131 305 
 MIDR BN  IAML     9 7 48.51       153.7 0.50                           131 305 
 MIDR BZ  IAML     9 7 48.74        65.4 0.40                           131 305 
 AOPR BZ EPg       9 7 32.28  109                        114    0.8110  134  88 
 AOPR BZ  IAML     9 7 53.93       332.7 0.35                           134  88 
 AOPR BN  IAML     9 7 57.84       423.3 0.25                           134  88 
 SMDR BZ EPg       9 7 33.32   79                        109   -1.3610  163 312 
 SMDR BN ESg       9 7 51.76                             109   -0.6010  163 312 
 SMDR BN  IAML     9 7 54.51        96.9 0.50                           163 312 
 SMDR BZ  IAML     9 8  1.73        33.1 1.55                           163 312 
 NADR BZ EPg       9 7 43.14  100                        103    1.3210  225 301 
 NADR BN ESg       9 8  5.67                             103    0.9010  225 301 
 NADR BN  IAML     9 8 12.50         7.5 0.45                           225 301 
 NADR BZ  IAML     9 8 29.62       264.9 1.35                           225 301 
                                                                                
