 2017  131 0347 52.3 L  19.377 -73.698 49.7  DOM 18 0.9 4.4LDOM 4.5CDOM        1
 GAP=131        2.48      11.5     6.4407.2  0.2953E+02 -0.9574E+03 -0.3122E+03E
 ACTION:UP  17-01-31 19:53 OP:AMMR STATUS:               ID:20170131034700     I
 OLDACT:UP  17-01-31 17:06 OP:AMMR STATUS:               ID:20170131034700     3
 OLDACT:UP  17-01-31 17:04 OP:AMMR STATUS:               ID:20170131034700     3
 OLDACT:UP  17-01-31 10:48 OP:AMMR STATUS:               ID:20170131034700     3
 OLDACT:ARG 17-01-31 10:20 OP:amrz STATUS:               ID:20170131034700     3
 2017-01-31-0347-00S.MAN___100                                                 6
 STAT SP IPHASW D HRMM SECON CODA AMPLIT PERI AZIMU VELO AIN AR TRES W  DIS CAZ7
 PAPH BZ EPg    D  348 15.90  160                         98   -1.1010  175 122 
 PAPH BE ESg       348 35.25                              98   -0.0010  175 122 
 PAPH BN  IAML     348 38.45     12144.5 0.24                           175 122 
 PAPH BE  IAML     348 46.45     10264.4 0.32                           175 122 
 REDR BZ EPg    D  348 19.52  138                         96   -1.8610  210  93 
 REDR BN ESg    D  348 42.20                              96   -0.6710  210  93 
 REDR BE  IAML     348 47.29      5822.8 0.25                           210  93 
 REDR BN  IAML     348 47.31      3308.0 0.20                           210  93 
 MCDR BZ EPg    D  348 22.16  174                         96   -0.5610  222  75 
 MCDR BE ESg    C  348 46.37                              96    1.1710  222  75 
 MCDR BN  IAML     348 50.21      2118.8 0.25                           222  75 
 MCDR BE  IAML     348 52.05      1517.2 0.25                           222  75 
 NEDR BZ EPg    D  348 27.33  177                         95    0.6410  254 113 
 NEDR BN  IAML     349  9.90      2090.6 0.70                           254 113 
 NEDR BE  IAML     349 13.00      2713.4 0.55                           254 113 
 SDDR BZ EPg    D  348 26.12  143                         95   -1.0410  257  99 
 SDDR BE ESg    C  348 53.61                              95    0.6810  257  99 
 SDDR BE  IAML     349 10.82      1913.0 1.05                           257  99 
 SDDR BN  IAML     349 13.36      1966.7 0.60                           257  99 
 PODR BZ EPg       348 31.78  168                         94    0.6710  288 117 
 PODR BN  IAML     349 21.64      1368.7 0.50                           288 117 
 PODR BE  IAML     349 21.65      1349.6 0.50                           288 117 
 LUDR BZ EPg       348 31.34  169                         94   -0.2810  294  78 
 LUDR BE  IAML     349  4.45      4432.5 0.35                           294  78 
 LUDR BN  IAML     349  5.27      6476.8 0.35                           294  78 
 SC01 BZ EPg       348 33.78  193                         94   -0.6610  312  88 
 NADR BZ EPg    C  348 45.83  209                         93    0.5510  404  90 
 MTDJ BZ EPg       348 47.58  182                         93   -0.4410  425 253 
 SMDR BZ EPg    C  348 53.39  157                         92   -0.6110  474  90 
 MIDR BZ EPg    C  348 55.91  152                         92   -0.1810  491  94 
 PCDR HZ EPg       349  6.41  196                         93            568  99 
 PCDR BZ EPg       349  6.54  195                         92    0.8610  568  99 
 ABDR BZ EPg       348 36.84  154                         94    0.2110  332 102 
 ABDR BN  IAML     349 37.45      1259.1 1.65                           332 102 
 ABDR BE  IAML     349 23.46       844.0 0.65                           332 102 
 BADR BZ EPg    C  348 42.30  155                         93    1.3610  368 107 
 BADR BN  IAML     349 48.26       854.5 0.70                           368 107 
 BADR BE  IAML     349 41.03       796.0 0.50                           368 107 
 GRTK BZ EPg    D  348 39.10  156                         93   -0.3910  357  48 
 GRTK BN  IAML     349 26.23       471.5 0.85                           357  48 
 GRTK BE  IAML     349 44.04       582.8 0.90                           357  48 
 GTBY BZ EPg    C  348 14.27  264                         99   -0.8810  160 293 
 GTBY BN ESg    D  348 33.87                              99    1.8410  160 293 
 GTBY BN  IAML     348 41.66      1853.3 1.20                           160 293 
 GTBY BE  IAML     348 36.20      2025.5 0.35                           160 293 
 JIDR BZ EPg    D  348 21.53  170                         96   -0.6910  218 116 
 JIDR BN  IAML     348 57.36      3048.5 0.70                           218 116 
 JIDR BE ESg    D  348 45.69                              96    1.3710  218 116 
 JIDR BE  IAML     348 57.79      2955.4 0.50                           218 116 
                                                                                
 2017  131 2213 35.0 L  18.372 -68.750117.9  DOM  7 0.8 2.5LDOM 3.6CDOM        1
 GAP=178        2.11      19.6     9.2 17.6  0.1240E+03  0.6303E+02  0.2058E+03E
 ACTION:UP  17-01-31 22:55 OP:AMMR STATUS:               ID:20170131221200     I
 OLDACT:ARG 17-01-31 22:37 OP:plst STATUS:               ID:20170131221200     3
 2017-01-31-2212-00S.MAN___100                                                 6
 STAT SP IPHASW D HRMM SECON CODA AMPLIT PERI AZIMU VELO AIN AR TRES W  DIS CAZ7
 PCDR BZ EPg      2213 49.86   74                        159   -1.2310 41.9  68 
 PCDR HZ ESg      2214  3.29                             159    0.2810 41.9  68 
 PCDR HZ  IAML    2214  4.10        48.5 0.58                          41.9  68 
 MIDR BZ EPg      2213 51.49   58                        145   -1.4210 74.7 335 
 MIDR BN ESg      2214  5.75                             145   -0.4310 74.7 335 
 MIDR BN  IAML    2214  9.54        47.4 0.15                          74.7 335 
 SMDR BZ EPg      2213 55.54   46                        133   -0.2410  112 336 
 SMDR BN ESg      2214 12.31                             133    1.1410  112 336 
 SMDR BN  IAML    2214 16.62        42.5 0.35                           112 336 
 AGPR BE  IAML    2214 28.42       106.7 2.65                           174  86 
 CRPR BZ EPg    C 2214  2.01   91                        118   -0.4110  180 103 
 CRPR BN ESg    D 2214 23.46                             118    0.7310  180 103 
 CRPR BN  IAML    2214 31.77        52.2 1.70                           180 103 
 ABDR BZ EPg      2214  5.07  135                        115    0.0510  202 281 
 ABDR BN ESg      2214 28.00                             115    0.7410  202 281 
 ABDR BN  IAML    2214 37.26        25.5 3.45                           202 281 
 AOPR BZ EPg      2214  6.49   78                        113    0.7810  211  90 
 AOPR BN  IAML    2214 36.04        59.7 0.25                           211  90 
                                                                                
 2017  2 1 2005 31.6 L  18.192 -70.708 28.3  DOM  6 0.8 2.9LDOM 3.3CDOM        1
 GAP=189        2.07      10.1     5.2 19.9  0.1205E+02  0.9396E+01  0.7032E+02E
 ACTION:UP  17-02-01 20:24 OP:AMMR STATUS:               ID:20170201200400     I
 OLDACT:ARG 17-02-01 20:15 OP:AMMR STATUS:               ID:20170201200400     3
 2017-02-01-2004-00S.MAN___100                                                 6
 STAT SP IPHASW D HRMM SECON CODA AMPLIT PERI AZIMU VELO AIN AR TRES W  DIS CAZ7
 ABDR BZ IP     D 20 5 42.08   55                        109    0.3310 58.2   8 
 ABDR BN  IAML    20 5 50.97      1137.5 0.15                          58.2   8 
 ABDR BE ES       20 5 50.50                             109    1.2510 58.2   8 
 ABDR BE  IAML    20 5 51.06       815.0 0.25                          58.2   8 
 BADR BZ EP     D 20 5 40.00   53                        117    0.3810 43.2  58 
 BADR BN  IAML    20 5 47.71      1859.0 0.15                          43.2  58 
 BADR BE ES       20 5 46.48                             117    0.9310 43.2  58 
 BADR BE  IAML    20 5 48.14      1836.9 0.15                          43.2  58 
 HIDR BZ EPg      20 6  3.25   76                         92   -0.2310  215  78 
 HIDR BN ESg      20 6 26.97                              92   -0.1010  215  78 
 HIDR BN  IAML    20 6 30.56       126.1 0.25                           215  78 
 HIDR BE  IAML    20 6 28.81       123.6 0.20                           215  78 
 MIDR BZ EPg    C 20 6  0.13   71                         92   -0.6110  196  63 
 MIDR BN ESg    C 20 6 21.32                              92   -0.9810  196  63 
 MIDR BN  IAML    20 6 21.79       109.3 0.60                           196  63 
 MIDR BE  IAML    20 6 21.98       174.3 0.85                           196  63 
 PODR BZ EPg    D 20 5 42.91   52                        106    0.9210 60.8 267 
 PODR BN  IAML    20 5 56.88       410.3 0.20                          60.8 267 
 PODR BE  IAML    20 5 56.15       476.3 0.25                          60.8 267 
 SDDR BZ EPg    C 20 5 47.35   61                         95   -0.9210  107 325 
 SDDR BN ESg    C 20 5 59.65                              95   -0.9610  107 325 
 SDDR BN  IAML    20 6  2.86       201.1 0.30                           107 325 
 SDDR BE  IAML    20 5 59.64       153.3 0.35                           107 325 
                                                                                
 2017  2 2 0703 29.8 L  18.337 -69.516 23.0  DOM  5 0.4 2.1LDOM 3.2CDOM        1
 GAP=214        1.13      11.3     6.2 92.7  0.5546E+02  0.5143E+03  0.9240E+03E
 ACTION:UP  17-02-02 12:46 OP:AMMR STATUS:               ID:20170202070100     I
 OLDACT:ARG 17-02-02 12:30 OP:AMMR STATUS:               ID:20170202070100     3
 2017-02-02-0701-00S.MAN___100                                                 6
 STAT SP IPHASW D HRMM SECON CODA AMPLIT PERI AZIMU VELO AIN AR TRES W  DIS CAZ7
 MIDR BN ESg    D  7 3 54.27                             101    0.1510 86.8  34 
 MIDR BE  IAML     7 3 56.17        25.5 0.10                          86.8  34 
 MIDR BN  IAML     7 3 56.67        36.7 0.45                          86.8  34 
 SMDR BN ESg       7 3 59.82                              98   -0.5910  111  18 
 NADR BZ EPg    C  7 3 49.31   47                         97    0.8610  118 342 
 NADR BN  IAML     7 4  6.25         2.8 0.25                           118 342 
 NADR BE  IAML     7 4  9.96       134.2 2.95                           118 342 
 PCDR BZ EPg       7 3 48.85   53                         97   -0.1210  121  81 
 PCDR BE  IAML     7 4  3.01        86.3 3.25                           121  81 
 PCDR BE ESg       7 4  3.17                              97    0.0110  121  81 
 PCDR BN  IAML     7 4  5.21       240.5 2.10                           121  81 
 REDR BZ EPg       7 4  8.29   75                         93   -0.5410  253 295 
 REDR BN ESg       7 4 37.77                              93    0.0510  253 295 
 REDR BE  IAML     7 4 47.26        14.8 2.35                           253 295 
 REDR BN  IAML     7 4 48.73        16.2 2.95                           253 295 
 MIDR BZ EPg    D  7 3 43.97   49                        101    0.1910 86.8  34 
                                                                                
 2017  2 2 1614 46.7 L  18.128 -68.203129.9  DOM  9 0.6 2.9LDOM 3.6CDOM        1
 GAP=175        1.61      15.2     5.7 15.3  0.4442E+02  0.3680E+02  0.1526E+03E
 ACTION:UP  17-02-02 16:35 OP:AMMR STATUS:               ID:20170202161400     I
 OLDACT:ARG 17-02-02 16:20 OP:AMMR STATUS:               ID:20170202161400     3
 2017-02-02-1614-00S.MAN___100                                                 6
 STAT SP IPHASW D HRMM SECON CODA AMPLIT PERI AZIMU VELO AIN AR TRES W  DIS CAZ7
 PCDR BZ EPg    D 1615  3.67                             159   -0.6110 46.6 336 
 PCDR BE  IAML    1615 18.82       129.1 0.65                          46.6 336 
 PCDR BN  IAML    1615 20.06       211.3 0.45                          46.6 336 
 HIDR BZ EPg      1615  4.74   63                        148   -1.0210 74.6 314 
 HIDR BN ESg      1615 19.76                             148   -0.1510 74.6 314 
 HIDR BN  IAML    1615 21.44       334.9 0.25                          74.6 314 
 HIDR BE  IAML    1615 22.42       222.4 0.25                          74.6 314 
 CRPR BZ EPg      1615  8.69   86                        134   -0.3510  119  96 
 CRPR BN  IAML    1615 27.37        68.4 1.60                           119  96 
 MIDR BZ EPg    C 1615  9.32   58                        131   -0.7110  130 317 
 MIDR BN ESg      1615 27.28                             131   -0.0510  130 317 
 MIDR BE  IAML    1615 30.11       121.0 0.05                           130 317 
 MIDR BN  IAML    1615 31.83       118.9 0.35                           130 317 
 AOPR BZ EPg      1615 12.18   84                        126   -0.1910  155  81 
 AOPR BE ESg      1615 32.60                             126    1.2010  155  81 
 AOPR BE  IAML    1615 35.44       280.3 0.40                           155  81 
 AOPR BN  IAML    1615 35.51       151.5 0.25                           155  81 
 SMDR BZ EPg      1615 13.52                             124    0.2110  165 321 
 SMDR BN ESg      1615 33.35                             124    0.3210  165 321 
 SMDR BE  IAML    1615 38.24        63.7 0.50                           165 321 
 SMDR BN  IAML    1615 41.16        45.5 0.70                           165 321 
 BADR BZ EPg      1615 20.31   77                        114    0.2010  230 278 
 BADR BN ESg      1615 45.87                             114    1.0010  230 278 
 BADR BE  IAML    1615 53.86        96.2 0.35                           230 278 
 BADR BN  IAML    1615 57.32        68.5 0.60                           230 278 
 ABDR BZ EPg      1615 24.44  121                        111    0.4310  264 285 
 ABDR BE  IAML    1615 59.69        36.0 0.65                           264 285 
 ABDR BN  IAML    1616  0.14        32.3 1.05                           264 285 
 PODR BZ EPg      1615 30.47                             106   -0.2810  326 271 
 PODR BN  IAML    1616 10.26        40.1 1.40                           326 271 
                                                                                
 2017  2 3 0318  7.4 L  19.404 -69.223 71.7  DOM 10 0.8 3.3LDOM 3.1CDOM        1
 GAP=207        2.14       9.6     6.8 10.4  0.3660E+02  0.2629E+02  0.1233E+02E
 ACTION:UP  17-02-03 10:57 OP:AMMR STATUS:               ID:20170203031600     I
 OLDACT:ARG 17-02-03 10:44 OP:nr   STATUS:               ID:20170203031600     3
 2017-02-03-0316-00S.MAN___100                                                 6
 STAT SP IPHASW D HRMM SECON CODA AMPLIT PERI AZIMU VELO AIN AR TRES W  DIS CAZ7
 SMDR BZ EPg    D  318 16.72   35                        168   -0.5510 13.2 164 
 SMDR BE ESg    C  318 24.83                             168    0.2510 13.2 164 
 SMDR BN  IAML     318 24.90       748.9 0.15                          13.2 164 
 SMDR BE  IAML     318 25.08       928.5 0.45                          13.2 164 
 MIDR BZ EPg    D  318 18.89   37                        141   -0.3110 50.0 159 
 MIDR BE ESg    D  318 27.93                             141   -0.0210 50.0 159 
 MIDR BN  IAML     318 28.05      1128.7 0.15                          50.0 159 
 MIDR BE  IAML     318 28.08      1556.3 0.10                          50.0 159 
 NADR BZ EPg    D  318 19.87   49                        132   -0.7210 66.6 265 
 NADR BE E      C  318 30.46                                           66.6 265 
 NADR BE ESg    C  318 30.47                             132    0.1210 66.6 265 
 NADR BN  IAML     318 31.47        28.5 0.35                          66.6 265 
 NADR BE  IAML     318 32.52      1541.9 0.15                          66.6 265 
 CADR BZ EPg    C  318 21.45   38                        126   -0.4610 80.6 291 
 CADR BE ESg    C  318 32.13                             126   -0.5310 80.6 291 
 CADR BE  IAML     318 34.29      1266.4 0.20                          80.6 291 
 CADR BN  IAML     318 34.49      1308.9 0.20                          80.6 291 
 PCDR BZ EPg    C  318 27.68   48                        111    0.2110  133 138 
 PCDR BE ESg    C  318 43.23                             111    0.9010  133 138 
 PCDR BE  IAML     318 45.02       204.1 0.55                           133 138 
 PCDR BN  IAML     318 45.89       324.3 0.60                           133 138 
 SC01 BZ EPg    C  318 30.61   70                        107   -0.3010  158 271 
 SC01 BE ESg    C  318 49.99                             107    1.6710  158 271 
 SC01 BN  IAML     318 56.16       291.0 0.70                           158 271 
 SC01 BE  IAML     318 56.76       197.8 0.50                           158 271 
 BADR BZ EPg    C  318 31.49   64                        106    0.3410  164 227 
 BADR BE ESg    C  318 49.44                             106    0.7110  164 227 
 BADR BN  IAML     318 51.26       470.1 0.20                           164 227 
 BADR BE  IAML     318 51.54       369.9 0.35                           164 227 
 ABDR BZ EPg    D  318 30.80   66                        106   -0.8810  166 243 
 ABDR BE ESg    C  318 48.44                             106   -1.2110  166 243 
 ABDR BN  IAML     318 49.79       300.2 0.20                           166 243 
 ABDR BE  IAML     318 51.10       372.8 0.20                           166 243 
 LUDR BZ EPg    C  318 34.22   55                        103    0.1610  189 287 
 LUDR BE ESg    D  318 55.65                             103    1.8610  189 287 
 LUDR BE  IAML     318 56.52       766.8 0.25                           189 287 
 LUDR BN  IAML     318 57.77      1201.2 0.30                           189 287 
 REDR BZ EPg    C  318 42.13   54                         98   -0.5210  261 267 
 REDR BE ESg    C  319  7.99                              98   -0.7510  261 267 
 REDR BN  IAML     319 10.32       302.7 0.15                           261 267 
 REDR BE  IAML     319 10.41       290.1 0.15                           261 267 
                                                                                
