 2017  117 0717 39.1 L  18.390 -68.819189.5  DOM  8 0.4 2.7LDOM 3.6CDOM 2.7WDOM1
 SPEC AVERAGE  MO 13.1 ST  6.4 OM  1.2 f0 7.51 R0.2236 AL 0.00 WI 20.0 MW  2.7 3
 SPEC SD       MO  7.6 ST  5.0 OM  0.8 f0 4.40 R0.1306 AL      WI      MW  1.6 3
 GAP=162        0.98      11.4     3.3  9.0  0.1217E+02  0.2661E+01  0.6404E+02E
 SPEC SDDRBH Z MO 12.9 ST  2.3 OM  0.9 f0 6.54 R0.2501 AL-0.00 WI 20.0 MW  2.5 3
 SPEC SDDRBH Z T 71849 K 0.020 GD  329 VS 4.42 DE 3.40 Q0400.0 QA 0.70 Q1 1.00 3
 SPEC AOPRBH Z MO 13.5 ST 10.6 OM  1.6 f0 6.67 R0.2452 AL-0.00 WI 20.0 MW  3.0 3
 SPEC AOPRBH Z T 71840 K 0.020 GD  288 VS 4.42 DE 3.40 Q0400.0 QA 0.70 Q1 1.00 3
 SPECBANDRBH Z MO 13.0 ST 11.4 OM  1.1 f0 10.7 R 0.153 AL-0.00 WI 20.0 MW  2.6 3
 SPECBANDRBH Z T 71831 K 0.020 GD224.3 VS 4.42 DE 3.40 Q0400.0 QA 0.70 Q1 1.00 3
 SPEC MIDRBH Z MO 12.9 ST  6.3 OM  1.1 f0 9.31 R0.1757 AL-0.00 WI 20.0 MW  2.5 3
 SPEC MIDRBH Z T 71820 K 0.020 GD  202 VS 4.42 DE 3.40 Q0400.0 QA 0.70 Q1 1.00 3
 2017-01-17-0715-00S.MAN___100                                                 6
 OLDACT:ARG 17-01-17 07:24 OP:amrz STATUS:               ID:20170117071500     3
 ACTION:UP  17-01-17 23:41 OP:FMGP STATUS:               ID:20170117071500     I
 OLDACT:UP  17-01-17 23:36 OP:FMGP STATUS:               ID:20170117071500     3
 OLDACT:UP  17-01-17 12:46 OP:FMGP STATUS:               ID:20170117071500     3
 STAT SP IPHASW D HRMM SECON CODA AMPLIT PERI AZIMU VELO AIN AR TRES W  DIS CAZ7
 AGPR BZ EPg       718 11.98   65                        134    0.3210  181  87 
 AGPR BN  IAML     718 38.86       117.4 2.50                           181  87 
 AGPR BE  IAML     718 42.74        69.7 1.30                           181  87 
 AOPR BZ EPg       718 14.79   82                        128   -0.2210  218  91 
 AOPR BN ESg       718 42.09                             128    0.5210  218  91 
 AOPR BN  IAML     718 48.33        82.2 0.25                           218  91 
 AOPR BE  IAML     718 46.29        94.4 0.55                           218  91 
 CRPR BZ EPg    C  718 12.35   94                        133    0.0910  188 103 
 CRPR BE  IAML     718 38.36        52.4 1.50                           188 103 
 MIDR BZ EPg       718  3.83   56                        159   -0.4610 70.0 340 
 MIDR BN ESg       718 22.85                             159   -0.0610 70.0 340 
 MIDR BE  IAML     718 26.54        35.1 0.95                          70.0 340 
 PCDR BZ EPg    C  718  2.78   63                        165   -0.7210 48.2  73 
 PCDR BN ESg       718 21.49                             165   -0.0410 48.2  73 
 PODR BN ESg       718 49.03                             123   -0.0310  262 265 
 PODR BN  IAML     718 49.91        41.5 2.70                           262 265 
 PODR BE  IAML     718 49.26        52.8 1.90                           262 265 
 SDDR BN ESg       718 50.55                             122    0.5110  269 284 
 SDDR BN  IAML     718 59.09        27.7 2.30                           269 284 
 SDDR BE  IAML     718 56.46         4.5 0.15                           269 284 
 SMDR BN  IAML     718 26.06        18.0 0.40                           107 339 
 SMDR BE ESg    D  718 26.32                             149    0.0810  107 339 
 SMDR BE  IAML     718 30.07        29.0 0.95                           107 339 
                                                                                
 2017  119 0245 48.7 L  18.999 -68.002 11.2  DOM  5 0.8 2.2LDOM 3.2CDOM        1
 GAP=209        2.12      17.1     6.8125.3  0.9001E+02 -0.6649E+03 -0.1699E+04E
 ACTION:UP  17-01-19 10:42 OP:FMGP STATUS:               ID:20170119024400     I
 OLDACT:ARG 17-01-19 10:30 OP:nr   STATUS:               ID:20170119024400     3
 2017-01-19-0244-00S.MAN___100                                                 6
 STAT SP IPHASW D HRMM SECON CODA AMPLIT PERI AZIMU VELO AIN AR TRES W  DIS CAZ7
 PCDR BZ EPg    C  245 58.57                             100   -1.0810 67.0 217 
 PCDR BE ESg    D  246  7.65                             100   -0.1110 67.0 217 
 PCDR BN  IAML     246  7.65       104.5 0.90                          67.0 217 
 PCDR BE  IAML     246  9.85        48.7 0.95                          67.0 217 
 MIDR BZ EPg    C  246  6.09   54                         96   -0.4910  110 269 
 MIDR BE ESg    D  246 20.99                              96    1.1710  110 269 
 MIDR BE  IAML     246 23.88        16.0 0.60                           110 269 
 MIDR BN  IAML     246 45.16        25.0 2.50                           110 269 
 CRPR BZ EPg    D  246 13.20   62                         94    0.8510  146 139 
 CRPR BE ESg    C  246 30.01                              94    0.1610  146 139 
 CRPR BN  IAML     246 30.66        55.0 1.85                           146 139 
 CRPR BE  IAML     246 33.18        65.5 1.90                           146 139 
 AGPR BZ EPg    C  246  6.61   49                         96   -0.0610  111 122 
 AGPR BN  IAML     246 26.67        62.4 0.15                           111 122 
 AGPR BE ESg    D  246 21.07                              96    1.1110  111 122 
 AGPR BE  IAML     246 31.46        95.6 1.40                           111 122 
 AOPR BZ EPg    C  246 11.73   65                         94   -1.2710  150 119 
 AOPR BN  IAML     246 34.67        70.8 0.20                           150 119 
 AOPR BE ESg    C  246 30.70                              94   -0.2810  150 119 
 AOPR BE  IAML     246 41.06        98.5 0.25                           150 119 
                                                                                
 2017  123 0409  2.1 L  18.122 -68.532150.3  DOM 13 1.0 3.8LDOM 4.0CDOM        1
      98.1      72.4     -78.3                               2    DOM PINV     F
      99.0      70.0     -63.0  2.0  2.0 10.0  0.1  0.1           DOM FPFIT    F
     154.8      15.5     134.9 38.8 51.0      0.12 0.55 0.00      DOM HASH     F
 GAP=181        2.84      23.3     7.3 25.5  0.9672E+02  0.9149E+02  0.3450E+03E
 ACTION:UP  17-04-11 17:03 OP:AMMR STATUS:               ID:20170123040900     I
 OLDACT:UP  17-01-23 23:49 OP:AMMR STATUS:               ID:20170123040900     3
 OLDACT:UP  17-01-23 04:38 OP:FMGP STATUS:               ID:20170123040900     3
 OLDACT:UP  17-01-23 04:37 OP:FMGP STATUS:               ID:20170123040900     3
 OLDACT:ARG 17-01-23 04:22 OP:plst STATUS:               ID:20170123040900     3
 2017-01-23-0409-00S.MAN___100                                                 6
 STAT SP IPHASW D HRMM SECON CODA AMPLIT PERI AZIMU VELO AIN AR TRES W  DIS CAZ7
 PCDR BZ EPg    D  4 9 20.62  111                        162   -1.3710 46.2  20 
 PCDR HZ  IAML     4 9 41.26       762.7 0.28                          46.2  20 
 MIDR BZ EPg    C  4 9 24.69   93                        141   -0.9010  110 330 
 MIDR BN ESg       4 9 42.95                             141   -0.0110  110 330 
 MIDR BN  IAML     4 9 43.67      1727.0 0.70                           110 330 
 SMDR BZ EPg    C  4 9 26.47   83                        133   -2.0710  147 332 
 SDD  BZ EPg    C  4 9 27.68  106                        132   -1.2610  151 285 
 AGPR BZ EPg    C  4 9 29.10  110                        131   -0.2010  155  75 
 AGPR BN ESg       4 9 49.86                             131    0.4310  155  75 
 AGPR BN  IAML     4 9 54.24      1100.0 0.60                           155  75 
 AOPR BZ EPg    C  4 9 31.86  101                        125   -0.6810  190  82 
 AOPR BN ESg       4 9 55.70                             125    0.6410  190  82 
 AOPR BN  IAML     4 9 59.58      1736.0 0.25                           190  82 
 NADR BZ EPg    C  4 9 31.60   92                        124   -1.4210  195 315 
 NADR BN ESg       4 9 56.29                             124    0.4010  195 315 
 NADR BN  IAML     410  4.13        66.0 0.35                           195 315 
 ABDR BZ EPg       4 9 37.12  100                        119    0.1710  231 287 
 ABDR BN ESg       410  3.32                             119    0.5910  231 287 
 ABDR BN  IAML     410  9.51       881.6 0.75                           231 287 
 SJG  BZ EPg    D  4 9 38.43  109                        117   -0.4410  252  90 
 SJG  BN ESg       410  7.90                             117    1.8310  252  90 
 SODR BZ EPg    C  4 9 41.92  103                        115    1.6610  266 313 
 SC01 BZ EPg    C  4 9 40.72  116                        115   -0.3310  273 302 
 SC01 BN ESg       410 11.50                             115    1.6410  273 302 
 SC01 BN  IAML     410 19.07      1072.8 0.70                           273 302 
 PODR BZ EPg    D  4 9 42.98  123                        113   -0.1910  291 271 
 PODR BN ESg       410 13.78                             113    0.2310  291 271 
 PODR BN  IAML     410 18.00       544.1 0.25                           291 271 
 JIDR BZ EPg    D  4 9 51.13  108                        108    1.2710  354 277 
 JIDR BN  IAML     410 33.47        96.9 0.35                           354 277 
                                                                                
 2017  123 1654 57.8 L  19.233 -71.493 63.6  DOM  6 0.7 2.6LDOM 3.3CDOM        1
 GAP=142        1.89       7.5     8.3 13.8 -0.5414E+01 -0.4181E+02 -0.1104E+02E
 ACTION:UP  17-01-23 18:56 OP:AMMR STATUS:               ID:20170123165300     I
 OLDACT:ARG 17-01-23 18:45 OP:AMMR STATUS:               ID:20170123165300     3
 2017-01-23-1653-00S.MAN___100                                                 6
 STAT SP IPHASW D HRMM SECON CODA AMPLIT PERI AZIMU VELO AIN AR TRES W  DIS CAZ7
 SDDR BZ EPg      1655  7.03   53                        148   -0.7810 35.2 143 
 SDDR BN ESg      1655 15.11                             148   -0.1410 35.2 143 
 SDDR BN  IAML    1655 15.64       324.0 0.80                          35.2 143 
 SDDR BE  IAML    1655 15.98       208.3 0.70                          35.2 143 
 MADR BZ EPg      1655  9.15   53                        134   -0.1310 55.1  48 
 MADR BE  IAML    1655 23.24       355.2 0.15                          55.1  48 
 MADR BN  IAML    1655 23.29       455.2 0.15                          55.1  48 
 MCDR BZ EPg      1655 12.09   64                        123    0.9310 75.0 347 
 MCDR BE  IAML    1655 26.91       415.1 0.15                          75.0 347 
 MCDR BN  IAML    1655 30.46       569.6 0.45                          75.0 347 
 JIDR BZ EPg    D 1655 12.84   66                        117    0.0910 90.2 205 
 JIDR BE  IAML    1655 26.16       198.0 0.30                          90.2 205 
 JIDR BN  IAML    1655 26.31        94.4 0.45                          90.2 205 
 PODR BZ EPg      1655 15.56   55                        109   -0.7610  120 169 
 PODR BN ESg      1655 31.11                             109    1.0610  120 169 
 PODR BE  IAML    1655 31.28        86.0 0.60                           120 169 
 PODR BN  IAML    1655 32.02        59.0 0.85                           120 169 
 MIDR BZ EPg      1655 31.35   91                         96   -1.2110  259  96 
 MIDR BE ESg      1655 58.76                              96    0.4510  259  96 
 MIDR BN ESg      1655 58.79                              96    0.4810  259  96 
 MIDR BN  IAML    1655 59.21        23.7 1.15                           259  96 
 MIDR BE  IAML    1655 59.48        26.3 0.55                           259  96 
                                                                                
 2017  124 0614 14.1 L  18.457 -67.303 64.0  DOM  5 0.8 3.2LDOM 3.5CDOM        1
 GAP=151        1.98      13.5     8.9 17.0  0.4815E+02  0.9154E+02 -0.3528E+02E
 ACTION:UP  17-01-24 11:34 OP:AMMR STATUS:               ID:20170124061400     I
 OLDACT:ARG 17-01-24 11:02 OP:nr   STATUS:               ID:20170124061400     3
 2017-01-24-0614-00S.MAN___100                                                 6
 STAT SP IPHASW D HRMM SECON CODA AMPLIT PERI AZIMU VELO AIN AR TRES W  DIS CAZ7
 AGPR BZ EPg    D  614 22.52   61                        160   -0.8010 20.4  86 
 AGPR BE ESg    C  614 30.81                             160    0.6510 20.4  86 
 AGPR BE  IAML     614 31.21      6356.0 0.25                          20.4  86 
 AGPR BN  IAML     614 31.32      4851.9 0.20                          20.4  86 
 CRPR BZ EPg    C  614 26.66   66                        134    1.0610 54.7 156 
 CRPR BE ESg    C  614 34.39                             134    0.2710 54.7 156 
 CRPR BE  IAML     614 38.37       848.4 0.20                          54.7 156 
 CRPR BN  IAML     614 39.52       684.7 0.15                          54.7 156 
 AOPR BZ EPg    C  614 25.28   86                        132   -0.7610 59.3 102 
 AOPR BE ESg    C  614 34.64                             132   -0.2510 59.3 102 
 AOPR BN  IAML     614 35.58      2637.3 0.30                          59.3 102 
 AOPR BE  IAML     614 36.87      2905.6 0.35                          59.3 102 
 PCDR BZ EPg    D  614 31.14   76                        111   -0.6010  114 273 
 PCDR BE ESg    C  614 43.73                             111   -1.0810  114 273 
 PCDR BE  IAML     614 49.09       170.4 0.20                           114 273 
 PCDR BN  IAML     614 52.10       303.6 0.65                           114 273 
 SMDR BZ EPg    C  614 44.63   84                         98    0.5210  219 295 
 SMDR BE ESg    D  615  7.33                              98    0.9910  219 295 
 SMDR BN  IAML     615 13.13        63.7 0.40                           219 295 
 SMDR BE  IAML     615 17.38        58.3 0.50                           219 295 
                                                                                
 2017  124 1052 49.4 L  18.863 -72.681 16.3  DOM  4 0.8 2.3LDOM 3.1CDOM        1
 GAP=312        1.97      20.3    13.5111.3 -0.1774E+02  0.4059E+02 -0.1886E+04E
 ACTION:UP  17-01-24 11:44 OP:AMMR STATUS:               ID:20170124105200     I
 OLDACT:ARG 17-01-24 11:03 OP:nr   STATUS:               ID:20170124105200     3
 2017-01-24-1052-00S.MAN___100                                                 6
 STAT SP IPHASW D HRMM SECON CODA AMPLIT PERI AZIMU VELO AIN AR TRES W  DIS CAZ7
 PAPH BZ EPg    C 1052 58.12   41                        100   -0.3410 55.1 133 
 PAPH BE ESg    C 1053  5.65                             100    0.4710 55.1 133 
 PAPH BE  IAML    1053  6.35       792.7 0.12                          55.1 133 
 PAPH BN  IAML    1053  6.49       465.1 0.16                          55.1 133 
 JIDR BZ EPg    C 1053  4.83   50                         94    0.1710 96.3 115 
 JIDR BE ESg    C 1053 14.34                              94   -1.6310 96.3 115 
 JIDR BN  IAML    1053 17.62        79.4 0.20                          96.3 115 
 JIDR BE  IAML    1053 17.70       106.3 0.20                          96.3 115 
 NEDR BZ EPg    C 1053 10.71   52                         92    0.4410  133 108 
 NEDR BE ESg    C 1053 26.89                              92    1.1610  133 108 
 NEDR BN  IAML    1053 29.34        43.3 0.55                           133 108 
 NEDR BE  IAML    1053 33.27        47.8 0.70                           133 108 
 SDDR BZ EPg    C 1053 12.08   54                         92   -0.2810  147  85 
 SDDR BE ESg    C 1053 29.38                              92    0.0010  147  85 
 SDDR BN  IAML    1053 31.69        23.5 0.40                           147  85 
 SDDR BE  IAML    1053 32.72        26.2 2.45                           147  85 
                                                                                
 2017  125 0642 23.1 L  19.638 -70.725 10.5  DOM 10 0.9 3.0LDOM 3.6CDOM        1
 GAP=128        2.41       4.3     3.4 20.5 -0.9757E+00 -0.4194E+01  0.4762E+01E
 ACTION:UP  17-01-25 23:05 OP:FME  STATUS:               ID:20170125064200     I
 OLDACT:UP  17-01-25 20:33 OP:FME  STATUS:               ID:20170125064200     3
 OLDACT:ARG 17-01-25 20:12 OP:FME  STATUS:               ID:20170125064200     3
 2017-01-25-0642-00S.MAN___100                                                 6
 STAT SP IPHASW D HRMM SECON CODA AMPLIT PERI AZIMU VELO AIN AR TRES W  DIS CAZ7
 SC01 BZ IPg    D  642 27.92   97                        115    0.1710 23.4 181 
 SC01 BN ESg       642 30.57                             115   -0.6210 23.4 181 
 SC01 BN  IAML     642 37.33      1090.3 0.30                          23.4 181 
 SC01 BE  IAML     642 41.45      1045.3 0.35                          23.4 181 
 LUDR BZ EPg    C  642 28.69   75                        106   -0.6210 37.0 320 
 LUDR BN ESg    D  642 34.17                             106    0.2710 37.0 320 
 LUDR BE  IAML     642 36.20      5038.3 0.20                          37.0 320 
 LUDR BN  IAML     642 38.88      5179.0 0.25                          37.0 320 
 CADR BZ EPg       642 35.63   69                         97   -0.8710 82.4  88 
 CADR BN ESg       642 47.70                              97    1.2810 82.4  88 
 CADR BN  IAML     642 54.45       380.5 0.40                          82.4  88 
 CADR BE  IAML     642 59.53       468.5 0.75                          82.4  88 
 SDDR BZ EPg    D  642 37.54   92                         97   -0.8310 94.0 219 
 SDDR BN ESg    D  642 50.93                              97    1.2610 94.0 219 
 SDDR BN  IAML     642 51.60       974.4 0.25                          94.0 219 
 SDDR BE  IAML     642 52.44       714.2 0.50                          94.0 219 
 NADR BZ EPg    C  642 38.48   92                         96   -0.3010 96.6 109 
 NADR BN ESg       642 51.79                              96    1.4210 96.6 109 
 NADR BE  IAML     642 56.47       630.4 0.55                          96.6 109 
 NADR BN  IAML     642 57.78         7.8 0.25                          96.6 109 
 MCDR BZ EPg    D  642 38.39   79                         96   -1.2010  102 286 
 MCDR BN ESg    D  642 53.74                              96    1.9510  102 286 
 MCDR BE  IAML     642 56.81       694.0 0.30                           102 286 
 MCDR BN  IAML     642 57.12      1056.3 0.15                           102 286 
 NEDR BZ EPg    C  642 46.54   92                         94   -0.9010  151 212 
 NEDR BN ESg       643  5.62                              94    0.1710  151 212 
 NEDR BE  IAML     643  7.58       221.8 1.00                           151 212 
 NEDR BN  IAML     643  7.67       269.9 0.60                           151 212 
 SMDR BZ EPg       642 48.70   98                         94   -1.2110  166 103 
 SMDR BN ESg    D  643  9.88                              94    0.1310  166 103 
 SMDR BN  IAML     643 13.78        93.5 0.60                           166 103 
 SMDR BE  IAML     643 15.91        79.2 0.50                           166 103 
 PODR BZ EPg       642 51.10   94                         94   -0.0610  174 200 
 PODR BN ESg       643 12.48                              94    0.5610  174 200 
 PODR BN  IAML     643 16.88       406.7 0.45                           174 200 
 JIDR BE  IAML     643 14.40       428.4 0.65                           174 223 
 PODR BE  IAML     643 20.21       293.4 0.85                           174 200 
 JIDR BZ EPg    C  642 50.66   93                         93   -0.5110  174 223 
 JIDR BN ESg       643 11.87                              93   -0.0710  174 223 
 JIDR BN  IAML     643 14.31       412.0 1.00                           174 223 
                                                                                
