 2017  1 1 0457 35.1 L  18.086 -70.803 20.7  DOM  5 0.5 2.0LDOM 3.2CDOM        1
 GAP=307        1.28       6.9     9.5 26.2  0.2725E+01 -0.1521E+03 -0.6699E+02E
 ACTION:UP  17-01-01 11:07 OP:AMMR STATUS:               ID:20170101045700     I
 OLDACT:ARG 17-01-01 10:40 OP:nr   STATUS:               ID:20170101045700     3
 2017-01-01-0457-00S.MAN___096                                                 6
 STAT SP IPHASW D HRMM SECON CODA AMPLIT PERI AZIMU VELO AIN AR TRES W  DIS CAZ7
 PODR BZ EPg    C  457 43.68   49                        109   -0.1910 51.4 280 
 PODR BE ESg    C  457 50.71                             109    0.3310 51.4 280 
 PODR BE  IAML     457 53.19       197.4 0.25                          51.4 280 
 NEDR BZ EPg    C  457 48.38   51                         99   -0.1910 84.0 302 
 NEDR BE ESg    C  457 57.51                              99   -1.0610 84.0 302 
 NEDR BE  IAML     458  2.97        43.7 0.35                          84.0 302 
 SDDR BZ EPg    C  457 52.63   55                         96   -0.1010  112 333 
 SDDR BE ESg    D  458  6.39                              96    0.5910  112 333 
 SDDR BE  IAML     458 18.54        15.3 0.70                           112 333 
 JIDR BZ EPg    C  457 53.99   59                         96    0.0310  120 292 
 JIDR BE ESg       458  8.64                              96    0.6910  120 292 
 JIDR BE  IAML     458 13.72        36.8 0.75                           120 292 
 REDR BZ EPg    C  458  0.66   66                         94    0.2510  162 324 
 REDR BE ESg    C  458 18.82                              94   -0.3410  162 324 
 REDR BE  IAML     458 21.28        46.1 0.25                           162 324 
                                                                                
 2017  1 1 1023 20.8 L  19.521 -69.529 31.1  DOM  5 0.5 2.1LDOM 3.2CDOM        1
 GAP=220        1.38      16.4     6.9 53.0  0.9220E+02  0.2160E+03  0.2372E+03E
 ACTION:UP  17-01-01 11:15 OP:AMMR STATUS:               ID:20170101102200     I
 OLDACT:ARG 17-01-01 10:41 OP:nr   STATUS:               ID:20170101102200     3
 2017-01-01-1022-00S.MAN___096                                                 6
 STAT SP IPHASW D HRMM SECON CODA AMPLIT PERI AZIMU VELO AIN AR TRES W  DIS CAZ7
 SMDR BZ EPg    C 1023 29.74   48                         99    0.7510 44.0 126 
 SMDR BE ESg    D 1023 34.51                              99   -0.5410 44.0 126 
 SMDR BE  IAML    1023 40.20        79.3 0.35                          44.0 126 
 MIDR BZ EPg    C 1023 32.82   51                         90   -0.3910 78.0 140 
 MIDR BE ESg    C 1023 42.83                              90    0.4410 78.0 140 
 MIDR BE  IAML    1023 45.81        19.2 0.55                          78.0 140 
 SC01 BZ EPg    C 1023 38.89   61                         90   -0.8410  126 265 
 SC01 BE ESg    C 1023 54.26                              90    0.5210  126 265 
 SC01 BE  IAML    1023 56.33        69.1 0.30                           126 265 
 SDDR BZ EPg    C 1023 47.76   60                         90    0.0110  195 252 
 SDDR BE ESg    C 1024  7.15                              90   -0.5510  195 252 
 SDDR BE  IAML    1024 15.85        16.9 0.35                           195 252 
 REDR BZ EPg    D 1023 52.28   53                         90    0.1410  230 264 
 REDR BE ESg    D 1024 15.79                              90    0.4610  230 264 
 REDR BE  IAML    1024 19.40        90.5 0.20                           230 264 
                                                                                
 2017  1 1 2137 34.2 L  18.257 -67.671 23.0  DOM  6 0.7 2.9LDOM 4.0CDOM        1
 GAP=196        1.96      26.4     5.6 44.1  0.1010E+03  0.1802E+03  0.7386E+03E
 ACTION:UP  17-01-01 23:37 OP:AMMR STATUS:               ID:20170101213700     I
 OLDACT:ARG 17-01-01 23:30 OP:plst STATUS:               ID:20170101213700     3
 2017-01-01-2137-00S.MAN___096                                                 6
 STAT SP IPHASW D HRMM SECON CODA AMPLIT PERI AZIMU VELO AIN AR TRES W  DIS CAZ7
 AGPR BZ EPg      2137 44.43  111                        106   -0.3910 63.8  68 
 AGPR BN ESg      2137 52.51                             106   -0.1510 63.8  68 
 AGPR BN  IAML    2137 53.31      1138.5 0.35                          63.8  68 
 PCDR BZ EPg      2137 48.97  115                        102    1.7410 80.2 291 
 PCDR HZ ESg      2137 56.36                             102   -0.5010 80.2 291 
 PCDR HZ  IAML    2138  3.87       202.6 0.38                          80.2 291 
 AOPR BZ EPg      2137 49.25  127                         99   -0.5710 97.5  84 
 AOPR BN ESg      2138  1.94                              99    0.5810 97.5  84 
 AOPR BN  IAML    2138 13.16       358.9 0.25                          97.5  84 
 MIDR BZ EPg      2137 59.02  112                         95   -1.1210  166 299 
 MIDR BN ESg      2138 19.72                              95    0.4110  166 299 
 MIDR BN  IAML    2138 21.86        77.8 0.25                           166 299 
 ABDR BZ EPg      2138 23.13  121                         92    0.1510  316 280 
 ABDR BN  IAML    2139  8.74        75.8 0.55                           316 280 
 SDDR BZ EPg      2138 33.92  125                         92   -0.1510  390 282 
 SDDR BN  IAML    2139 28.02        47.0 0.45                           390 282 
                                                                                
 2017  1 2 1038 31.4 L  18.683 -70.315 12.1  DOM 11 0.7 2.3LDOM 3.5CDOM 2.8WDOM1
 SPEC AVERAGE  MO 13.2 ST  1.3 OM  2.0 f0 3.98 R1.6540 AL 0.00 WI 20.0 MW  2.8 3
 SPEC SD       MO  0.8 ST  1.5 OM  0.7 f0 2.90 R3.0271 AL      WI      MW  0.5 3
 GAP=140        2.03       4.6     2.4 15.2  0.1277E+01 -0.5133E+01  0.1166E+02E
 SPEC ABDRBH Z MO 12.5 ST  4.7 OM  1.8 f0 9.35 R0.1476 AL-0.00 WI 20.0 MW  2.3 3
 SPEC ABDRBH Z T103840 K 0.020 GD 35.1 VS 3.73 DE 2.83 Q0400.0 QA 0.70 Q1 1.00 3
 SPEC SC01BH Z MO 13.3 ST0.988 OM  2.1 f0 3.19 R0.4326 AL-0.00 WI 20.0 MW  2.8 3
 SPEC SC01BH Z T103857 K 0.020 GD 93.9 VS 3.73 DE 2.83 Q0400.0 QA 0.70 Q1 1.00 3
 SPEC SDDRBH Z MO 12.8 ST0.892 OM  1.6 f0 4.34 R0.3180 AL-0.00 WI 20.0 MW  2.5 3
 SPEC SDDRBH Z T1039 1 K 0.020 GD  106 VS 3.73 DE 2.83 Q0400.0 QA 0.70 Q1 1.00 3
 SPEC NEDRBH Z MO 12.8 ST  1.2 OM  1.5 f0 5.04 R0.2738 AL-0.00 WI 20.0 MW  2.5 3
 SPEC NEDRBH Z T1039 4 K 0.020 GD  119 VS 3.73 DE 2.83 Q0400.0 QA 0.70 Q1 1.00 3
 SPEC SMDRBH Z MO 12.9 ST0.119 OM  1.6 f0 2.09 R0.6603 AL-0.00 WI 20.0 MW  2.5 3
 SPEC SMDRBH Z T1039 8 K 0.020 GD  127 VS 3.73 DE 2.83 Q0400.0 QA 0.70 Q1 1.00 3
 SPEC MIDRBH Z MO 14.2 ST0.046 OM  2.9 f00.561 R2.4601 AL-0.00 WI 20.0 MW  3.4 3
 SPEC MIDRBH Z T1039 7 K 0.020 GD  127 VS 3.73 DE 2.83 Q0400.0 QA 0.70 Q1 1.00 3
 SPEC REDRBH Z MO 12.6 ST  3.5 OM  1.3 f0 7.78 R0.1774 AL-0.00 WI 20.0 MW  2.4 3
 SPEC REDRBH Z T103915 K 0.020 GD  144 VS 3.73 DE 2.83 Q0400.0 QA 0.70 Q1 1.00 3
 SPEC JIDRBH Z MO 15.1 ST0.005 OM  3.7 f00.138 R 10.00 AL-0.00 WI 20.0 MW  4.0 3
 SPEC JIDRBH Z T103916 K 0.020 GD  147 VS 3.73 DE 2.83 Q0400.0 QA 0.70 Q1 1.00 3
 SPEC PCDRBH Z MO 13.0 ST0.659 OM  1.6 f0 3.32 R0.4157 AL-0.00 WI 20.0 MW  2.6 3
 SPEC PCDRBH Z T103927 K 0.020 GD  175 VS 3.73 DE 2.83 Q0400.0 QA 0.70 Q1 1.00 3
 2017-01-02-1037-00S.MAN___096                                                 6
 OLDACT:UP  17-01-02 11:49 OP:AMMR STATUS:               ID:20170102103700     3
 OLDACT:ARG 17-01-02 11:40 OP:plst STATUS:               ID:20170102103700     3
 ACTION:UP  17-01-02 13:31 OP:AMMR STATUS:               ID:20170102103700     I
 OLDACT:UP  17-01-02 11:50 OP:AMMR STATUS:               ID:20170102103700     3
 STAT SP IPHASW D HRMM SECON CODA AMPLIT PERI AZIMU VELO AIN AR TRES W  DIS CAZ7
 BON1 HZ EPg      1038 36.83   79                        112    0.2210 29.8 344 
 BON1 HN ESg      1038 40.82                             112    0.3610 29.8 344 
 BON1 HN  IAML    1038 42.33       987.9 0.18                          29.8 344 
 ABDR BZ EPg      1038 37.33   52                        114    0.0910 33.0 276 
 ABDR BN ESg      1038 42.10                             114    0.5310 33.0 276 
 ABDR BN  IAML    1038 45.79       516.3 0.25                          33.0 276 
 ABDR HZ  IAML    1038 46.65       138.6 0.30                          33.0 276 
 SDD  BZ EPg      1038 39.97   66                        104    0.4910 48.6 120 
 SDD  BN ESg      1038 46.21                             104    0.7510 48.6 120 
 SDD  BN  IAML    1038 48.19       159.3 0.25                          48.6 120 
 SDD  HZ  IAML    1038 48.61        66.3 0.30                          48.6 120 
 SC01 BZ EPg      1038 46.21   70                         98   -0.8310 93.1 332 
 SC01 BN ESg      1038 58.75                              98    0.1310 93.1 332 
 SC01 BN  IAML    1038 59.32       141.5 0.20                          93.1 332 
 SC01 HZ  IAML    1039  2.30        64.6 0.55                          93.1 332 
 SDDR BZ EPg      1038 48.70   82                         97   -0.2210  108 288 
 SDDR BN ESg      1039  3.03                              97    1.1510  108 288 
 SDDR HZ  IAML    1039  6.18        36.7 0.25                           108 288 
 SDDR BN  IAML    1039 11.53        77.1 0.45                           108 288 
 NEDR BZ EPg      1038 49.90   64                         96   -1.7410  125 260 
 NEDR BN ESg      1039  6.47                              96   -0.1510  125 260 
 NEDR BN  IAML    1039  8.04        49.5 0.35                           125 260 
 NEDR HZ  IAML    1039  8.32        38.3 1.15                           125 260 
 SMDR BZ EPg      1038 53.35   57                         95   -0.1310  136  60 
 SMDR BN ESg      1039 10.24                              95    0.4310  136  60 
 SMDR BN  IAML    1039 10.52        58.0 0.90                           136  60 
 SMDR HZ  IAML    1039 13.44        18.1 0.30                           136  60 
 MIDR BZ EPg      1038 53.10   87                         95   -0.5610  137  76 
 MIDR BN ESg      1039  9.13                              95   -1.0010  137  76 
 MIDR BN  IAML    1039  9.49       118.9 1.10                           137  76 
 MIDR HZ  IAML    1039  9.56        81.5 0.45                           137  76 
 REDR BZ EPg      1038 56.86  108                         95   -0.4410  160 294 
 REDR BN ESg      1039 16.72                              95    0.2610  160 294 
 REDR BN  IAML    1039 18.81       157.1 0.25                           160 294 
 REDR HZ  IAML    1039 20.00        40.2 0.30                           160 294 
 JIDR BZ EPg      1038 56.59   86                         94   -1.2910  164 263 
 JIDR BN ESg      1039 18.31                              94    0.8410  164 263 
 JIDR BN  IAML    1039 21.09        32.5 0.45                           164 263 
 JIDR HZ  IAML    1039 25.16        62.9 2.50                           164 263 
 PCDR BZ EPg      1039  5.79   72                         93    1.2710  205  95 
 PCDR HZ ESg      1039 28.85                              93   -0.1810  205  95 
 PCDR HZ  IAML    1040  6.13       186.8 1.40                           205  95 
                                                                                
 2017  1 2 2238 41.3 L  18.028 -71.517 30.9  DOM  5 0.2 1.7LDOM 3.2CDOM 2.6WDOM1
 SPEC AVERAGE  MO 13.0 ST  1.4 OM  1.7 f0 5.24 R0.3274 AL 0.00 WI 20.0 MW  2.6 3
 SPEC SD       MO  0.1 ST0.481 OM  0.0 f00.844 R0.0589 AL      WI      MW  0.1 3
 GAP=266        0.50       3.4     3.1  4.3  0.4643E+01  0.6950E+01 -0.5683E-01E
 SPEC PODRBH Z MO 12.8 ST  1.4 OM  1.7 f0 6.00 R0.2775 AL-0.00 WI 20.0 MW  2.5 3
 SPEC PODRBH Z T223851 K 0.020 GD 42.4 VS 4.50 DE 3.40 Q0400.0 QA 0.70 Q1 1.00 3
 SPEC NEDRBH Z MO 13.1 ST0.774 OM  1.8 f0 4.06 R0.4101 AL-0.00 WI 20.0 MW  2.7 3
 SPEC NEDRBH Z T223855 K 0.020 GD 59.3 VS 4.50 DE 3.40 Q0400.0 QA 0.70 Q1 1.00 3
 SPEC JIDRBH Z MO 13.1 ST  2.0 OM  1.7 f0 5.65 R0.2947 AL-0.00 WI 20.0 MW  2.6 3
 SPEC JIDRBH Z T223858 K 0.020 GD 69.8 VS 4.50 DE 3.40 Q0400.0 QA 0.70 Q1 1.00 3
 2017-01-02-2237-00S.MAN___096                                                 6
 OLDACT:ARG 17-01-02 22:47 OP:fmgp STATUS:               ID:20170102223700     3
 ACTION:UP  17-01-02 23:05 OP:FMGP STATUS:               ID:20170102223700     I
 OLDACT:UP  17-01-02 22:56 OP:FMGP STATUS:               ID:20170102223700     3
 STAT SP IPHASW D HRMM SECON CODA AMPLIT PERI AZIMU VELO AIN AR TRES W  DIS CAZ7
 PODR BZ EPg      2238 47.73   51                        134   -0.2410 29.1  59 
 PODR BN ESg    C 2238 53.03                             134    0.1210 29.1  59 
 PODR BZ  IAML    2238 57.35        64.1 1.10                          29.1  59 
 NEDR BZ EPg    D 2238 50.16   50                        115   -0.1410 50.6   4 
 NEDR BN ESg    C 2238 56.98                             115    0.0110 50.6   4 
 NEDR BZ  IAML    2239  1.95        69.6 0.35                          50.6   4 
 JIDR BZ EPg    D 2238 51.92   58                        108    0.0410 62.6 325 
 JIDR BN ESg      2238 59.80                             108    0.0810 62.6 325 
 JIDR BZ  IAML    2239  0.38        92.5 0.20                          62.6 325 
 SDDR BZ EPg    C 2238 58.53   70                         98    0.3410  108  13 
 SDDR BE ESg  4 D 2239 11.17                              98    0.48 0  108  13 
 SDDR BZ  IAML    2239 42.85        13.7 1.75                           108  13 
 REDR BZ EPg    D 2239  2.58                              95   -0.0310  140 352 
 REDR BN ESg    C 2239 18.20                              95   -0.1910  140 352 
 REDR BZ  IAML    2239 30.17        14.0 1.55                           140 352 
                                                                                
 2017  1 4 2124 27.0 R  19.094 -73.409 21.7  DOM 10 0.8 4.1LDOM 4.0CDOM        1
 GAP=179        2.07       8.2     4.3109.9  0.2032E+02 -0.1308E+02 -0.1434E+03E
 ACTION:UP  17-01-04 22:59 OP:FME  STATUS:               ID:20170104212400     I
 OLDACT:UP  17-01-04 22:08 OP:FME  STATUS:               ID:20170104212400     3
 OLDACT:UP  17-01-04 22:00 OP:FME  STATUS:               ID:20170104212400     3
 OLDACT:UP  17-01-04 21:46 OP:FME  STATUS:               ID:20170104212400     3
 OLDACT:UP  17-01-04 21:38 OP:FME  STATUS:               ID:20170104212400     3
 OLDACT:ARG 17-01-04 21:31 OP:FME  STATUS:               ID:20170104212400     3
 2017-01-04-2124-00S.MAN___092                                                 6
 STAT SP IPHASW D HRMM SECON CODA AMPLIT PERI AZIMU VELO AIN AR TRES W  DIS CAZ7
 PAPH BN ESg    C 2125  3.65                              95    0.2410  133 118 
 PAPH BE  IAML    2125  4.69      8117.8 0.20                           133 118 
 PAPH BN  IAML    2125  5.52     14131.8 0.24                           133 118 
 REDR BZ EPg    C 2124 55.14   72                         94   -0.0510  181  83 
 REDR BN ESg    D 2125 16.20                              94    0.1810  181  83 
 REDR BN  IAML    2125 17.44      4628.1 0.25                           181  83 
 REDR BE  IAML    2125 17.68      5681.1 0.20                           181  83 
 SDDR BZ EPg    C 2125  1.26   99                         93   -0.3710  223  93 
 SDDR BN ESg    C 2125 25.49                              93   -1.7410  223  93 
 SDDR BN  IAML    2125 28.16      1089.6 0.30                           223  93 
 SDDR BE  IAML    2125 44.40       565.2 0.85                           223  93 
 PODR BZ EPg    D 2125  4.84  139                         93   -0.4210  247 114 
 PODR BE ESg    D 2125 33.84                              93    0.2910  247 114 
 PODR BN  IAML    2125 51.19       607.0 0.40                           247 114 
 PODR BE  IAML    2125 51.70       669.1 1.25                           247 114 
 ABDR BZ EPg    D 2125 12.07  133                         92   -0.7010  296  98 
 ABDR BN ESg    D 2125 46.69                              92    0.0810  296  98 
 GTBY BZ EPg    C 2124 57.17  106                         93   -1.0310  201 298 
 GTBY BN ESg    C 2125 20.66                              93   -0.6010  201 298 
 GTBY BN  IAML    2125 25.21       798.6 0.40                           201 298 
 GTBY BE ESg    D 2125 22.91                              93    1.6510  201 298 
 GTBY BE  IAML    2125 30.19       458.6 0.50                           201 298 
 JIDR BZ EPg    D 2124 54.51  114                         94   -0.0610  177 112 
 JIDR BN ESg    D 2125 15.12                              94    0.1710  177 112 
 JIDR BN  IAML    2125 16.55      1218.8 0.85                           177 112 
 JIDR BE  IAML    2125 17.83      2305.7 0.35                           177 112 
 MADR BZ EPg    D 2125  5.25  146                         93   -0.0710  248  77 
 MADR BN ESg    C 2125 33.63                              93   -0.0110  248  77 
 MADR BN  IAML    2125 36.93      2137.7 0.35                           248  77 
 MADR BE  IAML    2125 36.54      1735.1 0.35                           248  77 
 MCDR BZ EPg    C 2124 59.28  108                         93    0.6110  204  64 
 MCDR BN ESg    D 2125 22.41                              93    0.3310  204  64 
 MCDR BN  IAML    2125 23.92      2422.6 0.20                           204  64 
 MCDR BE  IAML    2125 25.09      2266.6 0.45                           204  64 
 NEDR BZ EPg    D 2125  0.47  125                         93    0.2510  214 108 
 NEDR BN ESg    C 2125 26.55                              93    1.7710  214 108 
 NEDR BN  IAML    2125 32.00       815.2 0.45                           214 108 
 NEDR BE  IAML    2125 38.26       966.8 0.65                           214 108 
 PAPH BZ EPg    C 2124 47.43   99                         95   -0.5210  133 118 
                                                                                
