 2018 1231 2237 10.0 L  19.372 -68.879 19.3  DOM  6 0.7 2.4LDOM 2.8CDOM 2.8WDOM1
 SPEC AVERAGE  MO 13.3 ST0.774 OM  2.2 f0 3.28 R0.6207 AL 0.00 WI 20.0 MW  2.8 3
 SPEC SD       MO  0.3 ST0.601 OM  0.7 f0 1.49 R0.3189 AL      WI      MW  0.2 3
 GAP=222        1.88      10.3     6.3 26.8 -0.4144E+01 -0.1348E+03  0.5979E+02E
 SPEC SMDRBH N MO 13.7 ST0.096 OM  2.6 f0 1.27 R1.2877 AL-0.00 WI 20.0 MW  3.1 3
 SPEC SMDRBH N T223719 K 0.020 GD 38.9 VS 4.42 DE 3.33 Q0400.0 QA 0.70 Q1 1.00 3
 SPEC HMDRBH N MO 12.7 ST  1.2 OM  1.3 f0 6.20 R0.2638 AL-0.00 WI 20.0 MW  2.4 3
 SPEC HMDRBH N T223731 K 0.020 GD 85.7 VS 4.42 DE 3.33 Q0400.0 QA 0.70 Q1 1.00 3
 SPEC PCDRBH N MO 13.4 ST0.530 OM  1.9 f0 2.71 R0.6035 AL-0.00 WI 20.0 MW  2.9 3
 SPEC PCDRBH N T223738 K 0.020 GD  110 VS 4.42 DE 3.33 Q0400.0 QA 0.70 Q1 1.00 3
 SPEC CRPRBH N MO 13.2 ST0.343 OM  1.3 f0 2.86 R0.5718 AL-0.00 WI 20.0 MW  2.7 3
 SPEC CRPRBH N T223814 K 0.020 GD  242 VS 4.42 DE 3.33 Q0400.0 QA 0.70 Q1 1.00 3
 SPEC AOPRBH N MO 13.6 ST  1.9 OM  1.7 f0 3.66 R0.4468 AL-0.00 WI 20.0 MW  3.0 3
 SPEC AOPRBH N T223814 K 0.020 GD  251 VS 4.42 DE 3.33 Q0400.0 QA 0.70 Q1 1.00 3
 SPEC CELPBH N MO 13.3 ST0.563 OM  1.4 f0 2.97 R0.5506 AL-0.00 WI 20.0 MW  2.8 3
 SPEC CELPBH N T223825 K 0.020 GD  282 VS 4.42 DE 3.33 Q0400.0 QA 0.70 Q1 1.00 3
 2018-12-31-2237-00S.MAN___168                                                 6
 OLDACT:ARG 18-12-31 23:27 OP:jaaf STATUS:               ID:20181231223700     3
 ACTION:UP  20-06-01 06:45 OP:jmlc STATUS:               ID:20181231223709 L   I
 OLDACT:UP  20-04-08 18:41 OP:AMMR STATUS:               ID:20181231223709 L   3
 OLDACT:UP  19-03-08 16:00 OP:JMLC STATUS:               ID:20181231223709 L   3
 OLDACT:UP  18-12-31 23:53 OP:CGRS STATUS:               ID:20181231223700     3
 STAT SP IPHASW D HRMM SECON CODA AMPLIT PERI AZIMU VELO AIN AR TRES W  DIS CAZ7
 SMDR BZ EPg    D 2237 16.04   22                        116   -0.1110 33.8 254 
 SMDR BE ESg      2237 21.21                             116    0.5310 33.8 254 
 SMDR BN  IAML    2237 22.51       104.6 0.50                          33.8 254 
 SMDR BZ E        2238 13.26                                           33.8 254 
 HMDR BZ EPg    D 2237 23.60   25                         98    0.1510 83.5 219 
 HMDR BN ESg    D 2237 32.60                              98   -0.7810 83.5 219 
 HMDR BN  IAML    2237 33.32        32.8 0.15                          83.5 219 
 PCDR BZ EPg    D 2237 27.37   32                         95    0.1810  109 151 
 PCDR BE ESg    C 2237 39.62                              95   -0.2710  109 151 
 PCDR BN  IAML    2237 44.79       208.8 1.95                           109 151 
 CRPR BZ EPg    C 2237 47.17   48                         92   -0.1910  242 128 
 CRPR BE ESg    C 2238 16.46                              92    1.4810  242 128 
 CRPR BN  IAML    2238 52.68        60.4 2.45                           242 128 
 AOPR BZ EPg    C 2237 48.66   49                         92   -0.1110  251 117 
 AOPR BE ESg    D 2238 16.40                              92   -1.0410  251 117 
 AOPR BN  IAML    2238 22.97        48.1 3.00                           251 117 
 CELP BZ EPg    D 2237 52.63   50                         92   -0.8310  282 120 
 CELP BE ESg    D 2238 26.58                              92    0.9710  282 120 
 CELP BN  IAML    2238 32.58        26.2 2.15                           282 120 
                                                                               
 2018 1231 1806 38.2 L  19.968 -70.508 15.0  DOM  7 0.8 2.6LDOM 3.4CDOM 3.0WDOM1
 SPEC AVERAGE  MO 13.6 ST  1.2 OM  3.2 f0 2.91 R3.0442 AL 0.00 WI 20.0 MW  3.0 3
 SPEC SD       MO  1.0 ST0.992 OM  1.2 f0 1.97 R3.9142 AL      WI      MW  0.7 3
 GAP=139        2.23       5.0     4.5851.8  0.6982E+01 -0.9077E+03 -0.2148E+04E
 SPEC HMDRBH N MO 13.0 ST  2.4 OM  1.8 f0 4.52 R0.2619 AL-0.00 WI 20.0 MW  2.6 3
 SPEC HMDRBH N T18 725 K 0.020 GD  176 VS 3.20 DE 2.60 Q0400.0 QA 0.70 Q1 1.00 3
 SPEC JIDRBH N MO 15.1 ST0.008 OM  3.8 f00.138 R8.5797 AL-0.00 WI 20.0 MW  4.0 3
 SPEC JIDRBH N T18 734 K 0.020 GD  216 VS 3.20 DE 2.60 Q0400.0 QA 0.70 Q1 1.00 3
 SPEC SDDRBH N MO 12.8 ST  1.1 OM  1.7 f0 4.07 R0.2909 AL-0.00 WI 20.0 MW  2.5 3
 SPEC SDDRBH N T18 714 K 0.020 GD  137 VS 3.20 DE 2.60 Q0400.0 QA 0.70 Q1 1.00 3
 2018-12-31-1806-00S.MAN___168                                                 6
 ACTION:UP  20-06-01 06:45 OP:jmlc STATUS:               ID:20181231180638 L   I
 OLDACT:ARG 18-12-31 18:12 OP:jaaf STATUS:               ID:20181231180600     3
 STAT SP IPHASW D HRMM SECON CODA AMPLIT PERI AZIMU VELO AIN AR TRES W  DIS CAZ7
 MCDR BZ EPg    C 18 6 57.67   58                         92    0.5410  121 266 
 MCDR BN ESg    D 18 7  9.57                              92   -1.5810  121 266 
 MCDR BN  IAML    18 7 15.69       264.1 0.40                           121 266 
 SDDR BZ EPg    D 18 6 58.74   69                         92   -0.8710  137 217 
 SDDR BE ESg    D 18 7 16.14                              92    0.6810  137 217 
 SDDR BN  IAML    18 7 18.24        40.7 1.30                           137 217 
 SMDR BZ EPg    C 18 7  3.01   59                         91    0.2910  157 118 
 SMDR BE ESg    D 18 7 19.70                              91   -1.1710  157 118 
 SMDR BN  IAML    18 7 32.80        70.4 0.94                           157 118 
 BADR BZ EPg    D 18 7  5.04   68                         91   -0.3010  174 175 
 BADR BE ESg    D 18 7 26.50                              91    1.0710  174 175 
 HMDR BZ EPg    D 18 7  4.56   73                         91   -1.0310  176 138 
 HMDR BE ESg    D 18 7 26.58                              91    0.7110  176 138 
 HMDR BN  IAML    18 7 28.08        52.9 0.50                           176 138 
 GRTK BZ EPg    D 18 7  7.75   65                         91    1.1910  183 339 
 GRTK BE ESg    D 18 7 27.68                              91    0.1210  183 339 
 GRTK BN  IAML    18 7 48.78        75.9 1.90                           183 339 
 JIDR BZ EPg    C 18 7 11.81   68                         91    0.2310  216 221 
 JIDR BE ESg    D 18 7 36.39                              91    0.1010  216 221 
 JIDR BN  IAML    18 8  8.29        64.4 3.15                           216 221 